PRVDR_NUM,ST_ADR,CITY_NAME,STATE_CD,ZIP_CD,FIPS_CNTY_CD,CBSA_URBN_RRL_IND,ADDRESS,LAT,LONG
070001,1450 CHAPEL ST,NEW HAVEN,CT,6511.0,9.0,U,"1450 CHAPEL ST,NEW HAVEN,CT",41.31014365,-72.94293144420357
070002,114 WOODLAND STREET,HARTFORD,CT,6105.0,3.0,U,"114 WOODLAND STREET,HARTFORD,CT",41.77413945,-72.6980902631616
070003,320 POMFRET STREET,PUTNAM,CT,6260.0,15.0,U,"320 POMFRET STREET,PUTNAM,CT",41.9069644,-71.91401472099243
070004,50 HOSPITAL HILL ROAD,SHARON,CT,6069.0,5.0,R,"50 HOSPITAL HILL ROAD,SHARON,CT",41.88096365,-73.48199603029511
070005,64 ROBBINS ST,WATERBURY,CT,6721.0,9.0,U,"64 ROBBINS ST,WATERBURY,CT",41.5584302,-73.0587191
070006,ONE HOSPITAL PLAZA,STAMFORD,CT,6904.0,1.0,U,"ONE HOSPITAL PLAZA,STAMFORD,CT",0.0,0.0
070007,365 MONTAUK AVE,NEW LONDON,CT,6320.0,11.0,U,"365 MONTAUK AVE,NEW LONDON,CT",41.3363582,-72.10472554928862
070008,201 CHESTNUT HILL ROAD,STAFFORD SPRINGS,CT,6076.0,13.0,U,"201 CHESTNUT HILL ROAD,STAFFORD SPRINGS,CT",0.0,0.0
070009,81 MERIDEN AVENUE,SOUTHINGTON,CT,6489.0,3.0,U,"81 MERIDEN AVENUE,SOUTHINGTON,CT",41.595596,-72.87510347603596
070010,267 GRANT STREET,BRIDGEPORT,CT,6610.0,1.0,U,"267 GRANT STREET,BRIDGEPORT,CT",41.189470850000006,-73.16746970382079
070011,540 LITCHFIELD ST,TORRINGTON,CT,6790.0,5.0,R,"540 LITCHFIELD ST,TORRINGTON,CT",41.792270450000004,-73.13376944648427
070012,31 UNION ST,ROCKVILLE,CT,6066.0,13.0,U,"31 UNION ST,ROCKVILLE,CT",41.866395,-72.45131973625521
070013,500 BLUE HILLS AVE,HARTFORD,CT,6112.0,3.0,U,"500 BLUE HILLS AVE,HARTFORD,CT",41.80012845,-72.69449922637793
070014,883 PADDOCK AVE,MERIDEN,CT,6450.0,9.0,U,"883 PADDOCK AVE,MERIDEN,CT",41.505847388167076,-72.77591899537417
070015,21 ELM ST,NEW MILFORD,CT,6776.0,5.0,R,"21 ELM ST,NEW MILFORD,CT",41.5818588,-73.40959111740774
070016,56 FRANKLIN STEET,WATERBURY,CT,6706.0,9.0,U,"56 FRANKLIN STEET,WATERBURY,CT",0.0,0.0
070017,435 LEWIS AVENUE,MERIDEN,CT,6450.0,9.0,U,"435 LEWIS AVENUE,MERIDEN,CT",41.5487876,-72.80125249019261
070018,5 PERRYRIDGE RD,GREENWICH,CT,6830.0,1.0,U,"5 PERRYRIDGE RD,GREENWICH,CT",41.034299,-73.63064634640509
070019,300 SEASIDE AVENUE,MILFORD,CT,6460.0,9.0,U,"300 SEASIDE AVENUE,MILFORD,CT",41.21654515,-73.06536039300812
07001F,MOHEGAN AVE,NEW LONDON,CT,6320.0,11.0,U,"MOHEGAN AVE,NEW LONDON,CT",41.3872421,-72.1059457
070020,28 CRESCENT ST,MIDDLETOWN,CT,6457.0,7.0,U,"28 CRESCENT ST,MIDDLETOWN,CT",41.554399149999995,-72.6472261134776
070021,112 MANSFIELD AVENUE,WILLIMANTIC,CT,6226.0,15.0,U,"112 MANSFIELD AVENUE,WILLIMANTIC,CT",41.71777445,-72.22615262205655
070022,20 YORK ST,NEW HAVEN,CT,6504.0,9.0,U,"20 YORK ST,NEW HAVEN,CT",41.3046035,-72.93559409819855
070023,695 PARK AVE,BRIDGEPORT,CT,6604.0,1.0,U,"695 PARK AVE,BRIDGEPORT,CT",41.17140668703063,-73.19608457024505
070024,326 WASHINGTON ST,NORWICH,CT,6360.0,11.0,U,"326 WASHINGTON ST,NORWICH,CT",41.54273245,-72.08868694772954
070025,80 SEYMOUR STREET,HARTFORD,CT,6102.0,3.0,U,"80 SEYMOUR STREET,HARTFORD,CT",41.754569849999996,-72.68004441789873
070026,115 SPENCER ST,WINSTED,CT,6098.0,5.0,R,"115 SPENCER ST,WINSTED,CT",41.93055435846404,-73.07579260568988
070027,71 HAYNES ST,MANCHESTER,CT,6040.0,3.0,U,"71 HAYNES ST,MANCHESTER,CT",41.7816396,-72.52584001808663
070028,2800 MAIN ST,BRIDGEPORT,CT,6606.0,1.0,U,"2800 MAIN ST,BRIDGEPORT,CT",41.2019763,-73.2013719
070029,41 BREWSTER RD,BRISTOL,CT,6010.0,3.0,U,"41 BREWSTER RD,BRISTOL,CT",41.67666805,-72.93580727981586
07002F,555 WILLARD AVE,NEWINGTON,CT,6111.0,3.0,U,"555 WILLARD AVE,NEWINGTON,CT",41.7011052,-72.74164373269605
070030,128 STRAWBERRY HILL AVE,STAMFORD,CT,6904.0,1.0,U,"128 STRAWBERRY HILL AVE,STAMFORD,CT",41.0639000251837,-73.53305610220357
070031,130 DIVISION ST,DERBY,CT,6418.0,9.0,U,"130 DIVISION ST,DERBY,CT",41.335278,-73.08924623057271
070033,24 HOSPITAL AVE,DANBURY,CT,6810.0,1.0,U,"24 HOSPITAL AVE,DANBURY,CT",41.40521795,-73.44515867833094
070034,24 STEVENS STREET,NORWALK,CT,6856.0,1.0,U,"24 STEVENS STREET,NORWALK,CT",41.110722,-73.420487
070035,100 GRAND STREET,NEW BRITAIN,CT,6050.0,3.0,U,"100 GRAND STREET,NEW BRITAIN,CT",41.66138145,-72.78671157363726
070036,263 FARMINGTON AVE,FARMINGTON,CT,6032.0,3.0,U,"263 FARMINGTON AVE,FARMINGTON,CT",41.73344545,-72.79234525803653
070038,100 DOUBLE BEACH ROAD,BRANFORD,CT,6405.0,9.0,U,"100 DOUBLE BEACH ROAD,BRANFORD,CT",41.2558341,-72.8325333
070039,22 MASONIC AVE,WALLINGFORD,CT,6492.0,9.0,U,"22 MASONIC AVE,WALLINGFORD,CT",41.463340099999996,-72.83575212760752
07003F,WEST SPRING ST,WEST HAVEN,CT,6516.0,9.0,U,"WEST SPRING ST,WEST HAVEN,CT",41.278828,-72.9669378
070040,1 ABRAHMS BOULEVARD,WEST HARTFORD,CT,6117.0,3.0,U,"1 ABRAHMS BOULEVARD,WEST HARTFORD,CT",41.8027338,-72.7295494
07004F,P O BOX 600,GROTON,CT,6340.0,11.0,U,"P O BOX 600,GROTON,CT",0.0,0.0
07006E,BOND ST EXT,BRIDGEPORT,CT,6610.0,1.0,U,"BOND ST EXT,BRIDGEPORT,CT",0.0,0.0
07007E,34 PARK ST,NEW HAVEN,CT,6508.0,9.0,U,"34 PARK ST,NEW HAVEN,CT",41.3051594,-72.93682053010389
071500,100 DOUBLE BEACH ROAD,BRANFORD,CT,6405.0,9.0,U,"100 DOUBLE BEACH ROAD,BRANFORD,CT",41.2558341,-72.8325333
071501,"456 GLENBROOK ROAD, SUITE 2",STAMFORD,CT,6906.0,1.0,U,"456 GLENBROOK ROAD, SUITE 2,STAMFORD,CT",0.0,0.0
071502,8 KEYNOTE DRIVE,VERNON,CT,6066.0,13.0,U,"8 KEYNOTE DRIVE,VERNON,CT",41.833834678217315,-72.46760944589214
071503,77 E TOWN ST,NORWICH,CT,6360.0,11.0,U,"77 E TOWN ST,NORWICH,CT",41.549804044851626,-72.09483242864515
071504,"32 S, MAIN STREET",PUTMAN,CT,6260.0,15.0,U,"32 S, MAIN STREET,PUTMAN,CT",0.0,0.0
071505,765 FAIRFIELD AVENUE,BRIDGEPORT,CT,6606.0,1.0,U,"765 FAIRFIELD AVENUE,BRIDGEPORT,CT",41.174389000000005,-73.19959799935552
071506,227 DUNHAM STREET,NORWICH,CT,6360.0,11.0,U,"227 DUNHAM STREET,NORWICH,CT",41.515719,-72.095885
071507,"1 NORTHWESTERN DRIVE, SUITE 101",BLOOMFIELD,CT,6002.0,3.0,U,"1 NORTHWESTERN DRIVE, SUITE 101,BLOOMFIELD,CT",0.0,0.0
071508,34 LEDGEBROOK DRIVE,MANSFIELD CENTER,CT,6250.0,13.0,U,"34 LEDGEBROOK DRIVE,MANSFIELD CENTER,CT",41.73347041688673,-72.20464221488416
071509,51 DEPOT ST SUITE 107,WATERTOWN,CT,6795.0,5.0,R,"51 DEPOT ST SUITE 107,WATERTOWN,CT",0.0,0.0
071510,"111 FOUNDER'S PLAZA, SUITE 200",EAST HARTFORD,CT,6108.0,3.0,U,"111 FOUNDER'S PLAZA, SUITE 200,EAST HARTFORD,CT",0.0,0.0
071511,40 LINDEMAN DRIVE,TRUMBULL,CT,6611.0,1.0,U,"40 LINDEMAN DRIVE,TRUMBULL,CT",41.231990268104646,-73.2011841851123
071512,22 DANBURY ROAD,WILTON,CT,6897.0,1.0,U,"22 DANBURY ROAD,WILTON,CT",41.16404504653221,-73.4184678653886
071513,56 W MAIN ST,PLAINVILLE,CT,6062.0,3.0,U,"56 W MAIN ST,PLAINVILLE,CT",41.671172568917804,-72.86746034519578
071514,80 MERIDEN AVE,SOUTHINGTON,CT,6489.0,3.0,U,"80 MERIDEN AVE,SOUTHINGTON,CT",41.595022925925925,-72.87615377777777
071515,8 OLD MILL LANE,SIMBURY,CT,6070.0,3.0,U,"8 OLD MILL LANE,SIMBURY,CT",0.0,0.0
071516,"97 BARNES ROAD, SUITE 4",WALLINGFORD,CT,6492.0,9.0,U,"97 BARNES ROAD, SUITE 4,WALLINGFORD,CT",0.0,0.0
071517,"32 VALLEY STREET, STE D",BRISTOL,CT,6010.0,3.0,U,"32 VALLEY STREET, STE D,BRISTOL,CT",41.67635888702873,-72.94799192399205
071518,30 MILESTONE ROAD,DANBURY,CT,6810.0,1.0,U,"30 MILESTONE ROAD,DANBURY,CT",41.386032799999995,-73.51873524454176
071519,195 MALTBY STREET,BRISTOL,CT,6010.0,3.0,U,"195 MALTBY STREET,BRISTOL,CT",41.70134375,-72.91362009811947
071520,76 BATTERSON PARK,FARMINGTON,CT,6032.0,3.0,U,"76 BATTERSON PARK,FARMINGTON,CT",0.0,0.0
071521,545 NORTH MAIN STREET,MANCHESTER,CT,6040.0,3.0,U,"545 NORTH MAIN STREET,MANCHESTER,CT",41.79529106223483,-72.53528618471194
071522,770 SAYBROOK ROAD,MIDDLETOWN,CT,6457.0,7.0,U,"770 SAYBROOK ROAD,MIDDLETOWN,CT",41.536969,-72.615947
071523,32 UNION STREET,WINSTED,CT,6098.0,5.0,R,"32 UNION STREET,WINSTED,CT",41.921346875,-73.07207518749999
071524,75 GREAT POND ROAD,SIMSBURY,CT,6070.0,3.0,U,"75 GREAT POND ROAD,SIMSBURY,CT",41.887415,-72.828411
071525,"27 SIEMON COMPANY DRIVE, SUITE101",WATERTOWN,CT,6795.0,5.0,R,"27 SIEMON COMPANY DRIVE, SUITE101,WATERTOWN,CT",0.0,0.0
071526,"FEDERAL SQUARE, 24 VILLAGE GREEN DR",LITCHFIELD,CT,6759.0,5.0,R,"FEDERAL SQUARE, 24 VILLAGE GREEN DR,LITCHFIELD,CT",0.0,0.0
071527,68 PARK LANE ROAD,NEW MILFORD,CT,6776.0,5.0,R,"68 PARK LANE ROAD,NEW MILFORD,CT",41.5987162,-73.4064231
071528,"500 WEST PUTNAM AVENUE, SUITE 150",GREENWICH,CT,6830.0,1.0,U,"500 WEST PUTNAM AVENUE, SUITE 150,GREENWICH,CT",0.0,0.0
071529,30 A SALMON HILL ROAD,SALISBURY,CT,6068.0,5.0,R,"30 A SALMON HILL ROAD,SALISBURY,CT",0.0,0.0
071530,267 FINCH AVENUE,MERIDEN,CT,6451.0,9.0,U,"267 FINCH AVENUE,MERIDEN,CT",41.539044272388665,-72.85194556778289
071531,ONE RESEARCH PARKWAY,MERIDEN,CT,6450.0,9.0,U,"ONE RESEARCH PARKWAY,MERIDEN,CT",41.5183335,-72.7628098
071532,"607 BANTAM ROAD, UNIT F",BANTAM,CT,6750.0,5.0,R,"607 BANTAM ROAD, UNIT F,BANTAM,CT",0.0,0.0
071533,"199 PARK RD EXTENSION, SUITE 102",MIDDLEBURY,CT,6762.0,9.0,U,"199 PARK RD EXTENSION, SUITE 102,MIDDLEBURY,CT",0.0,0.0
071534,"99 HAWLEY LANE, # 1204",STRATFORD,CT,6614.0,1.0,U,"99 HAWLEY LANE, # 1204,STRATFORD,CT",41.23117944090256,-73.15275626179607
071535,30 A SALMON KILL ROAD,SALISBURY,CT,6068.0,5.0,R,"30 A SALMON KILL ROAD,SALISBURY,CT",41.975254626120325,-73.42101254289369
071536,"612 WHEELERS FARMS ROAD, SUITE 103",MILFORD,CT,6461.0,1.0,U,"612 WHEELERS FARMS ROAD, SUITE 103,MILFORD,CT",0.0,0.0
071537,"111 FOUNDERS PLAZA, SUITE 1803",EAST HARTFORD,CT,6108.0,3.0,U,"111 FOUNDERS PLAZA, SUITE 1803,EAST HARTFORD,CT",0.0,0.0
071538,2 WINTONBURY MALL,BLOOMFIELD,CT,6002.0,3.0,U,"2 WINTONBURY MALL,BLOOMFIELD,CT",0.0,0.0
071539,"1579 STRAITS TNPK, UNIT 1E",MIDDLEBURY,CT,6762.0,9.0,U,"1579 STRAITS TNPK, UNIT 1E,MIDDLEBURY,CT",0.0,0.0
071540,231 FARMINGTON AVENUE,FARMINGTON,CT,6032.0,3.0,U,"231 FARMINGTON AVENUE,FARMINGTON,CT",41.73835214136292,-72.79301716787485
071541,4200 PARK AVENUE,BRIDGEPORT,CT,6604.0,1.0,U,"4200 PARK AVENUE,BRIDGEPORT,CT",41.1772241,-73.2005768
071542,240 INDIAN RIVER ROAD,ORANGE,CT,6477.0,9.0,U,"240 INDIAN RIVER ROAD,ORANGE,CT",41.259732,-73.0022
071543,135 SOUTH ROAD,FARMINGTON,CT,6032.0,3.0,U,"135 SOUTH ROAD,FARMINGTON,CT",41.7225239,-72.7889325
071544,"753 BOSTON POST ROAD, SUITE 200",GUILFORD,CT,6437.0,9.0,U,"753 BOSTON POST ROAD, SUITE 200,GUILFORD,CT",0.0,0.0
071545,27 GOVERNOR STREET,RIDGEFIELD,CT,6877.0,1.0,U,"27 GOVERNOR STREET,RIDGEFIELD,CT",41.28100131808493,-73.49202835914566
071800,471 BARNUM AVENUE,BRIDGEPORT,CT,6608.0,1.0,U,"471 BARNUM AVENUE,BRIDGEPORT,CT",41.18717428822703,-73.18015002060214
071801,361 BIRD STREET,BRIDGEPORT,CT,6605.0,1.0,U,"361 BIRD STREET,BRIDGEPORT,CT",41.16373051588911,-73.21503719394528
071802,635 MAIN STREET,MIDDLETOWN,CT,6457.0,7.0,U,"635 MAIN STREET,MIDDLETOWN,CT",41.56322656164406,-72.65159660394532
071803,231 BROAD STREET,DANIELSON,CT,6239.0,15.0,U,"231 BROAD STREET,DANIELSON,CT",41.80545263636364,-71.87998063636364
071804,"503 WINDSOR AVENUE, UNIT 511",WINDSOR,CT,6095.0,3.0,U,"503 WINDSOR AVENUE, UNIT 511,WINDSOR,CT",0.0,0.0
071805,339 EASTERN STREET,NEW HAVEN,CT,6513.0,9.0,U,"339 EASTERN STREET,NEW HAVEN,CT",41.315802,-72.87281
071806,181 MITCHELL DRIVE,NEW HAVEN,CT,6511.0,9.0,U,"181 MITCHELL DRIVE,NEW HAVEN,CT",41.32451192493257,-72.9094345743393
071807,164 GRAND AVENUE,NEW HAVEN,CT,6513.0,9.0,U,"164 GRAND AVENUE,NEW HAVEN,CT",41.3087185,-72.89331594622317
071808,165 MILLER STREET,MERIDEN,CT,6450.0,9.0,U,"165 MILLER STREET,MERIDEN,CT",41.537452466666664,-72.79464653333334
071809,40 MANSFIELD AVENUE,WILLIMANTIC,CT,6226.0,15.0,U,"40 MANSFIELD AVENUE,WILLIMANTIC,CT",41.71537075,-72.22565020049994
071810,982 EAST MAIN STREET,BRIDGEPORT,CT,6608.0,1.0,U,"982 EAST MAIN STREET,BRIDGEPORT,CT",41.18797609268306,-73.18061324626588
071811,727 HONEYSPOT RD,STRATFORD,CT,6615.0,1.0,U,"727 HONEYSPOT RD,STRATFORD,CT",41.17557290315538,-73.1470936360389
071812,790 CENTRAL AVENUE,BRIDGEPORT,CT,6607.0,1.0,U,"790 CENTRAL AVENUE,BRIDGEPORT,CT",41.177144741123605,-73.16516281545329
071813,330 WASHINGTON ST,NORWICH,CT,6360.0,11.0,U,"330 WASHINGTON ST,NORWICH,CT",41.544057458411416,-72.08705102260582
071814,727 HONEYSPOT ROAD,STRATFORD,CT,6497.0,1.0,U,"727 HONEYSPOT ROAD,STRATFORD,CT",41.17557290315538,-73.1470936360389
071817,374 GRAND AVENUE,NEW HAVEN,CT,6513.0,9.0,U,"374 GRAND AVENUE,NEW HAVEN,CT",41.3083178,-72.9019301
071818,42 REYNOLDS STREET,DANIELSON,CT,6239.0,15.0,U,"42 REYNOLDS STREET,DANIELSON,CT",41.8073060863795,-71.87888453533107
071819,21 GRAND STREET,HARTFORD,CT,6106.0,3.0,U,"21 GRAND STREET,HARTFORD,CT",41.759322,-72.685553
071820,120 CONNECTICUT AVENUE,NORWALK,CT,6854.0,1.0,U,"120 CONNECTICUT AVENUE,NORWALK,CT",41.1061082,-73.4282222
071821,94 CONNECTICUT BLVD,E HARTFORD,CT,6108.0,3.0,U,"94 CONNECTICUT BLVD,E HARTFORD,CT",41.7695,-72.64798137347275
071822,805 ATLANTIC STREET,STAMFORD,CT,6902.0,1.0,U,"805 ATLANTIC STREET,STAMFORD,CT",41.0433455,-73.5419128
071823,245 SELLECK STREET,STAMFORD,CT,6902.0,1.0,U,"245 SELLECK STREET,STAMFORD,CT",41.04153485,-73.5575119216486
071824,232 NORTH ELM STREET,WATERBURY,CT,6702.0,9.0,U,"232 NORTH ELM STREET,WATERBURY,CT",41.558487673469386,-73.03543322448981
071825,400-428 COLUMBUS AVE,NEW HAVEN,CT,6519.0,9.0,U,"400-428 COLUMBUS AVE,NEW HAVEN,CT",0.0,0.0
071826,80 PHOENIX AVENUE,WATERBURY,CT,6702.0,9.0,U,"80 PHOENIX AVENUE,WATERBURY,CT",41.55629978807464,-73.03941184680077
071827,1302 SOUTH MAIN STREET,WATERBURY,CT,6706.0,9.0,U,"1302 SOUTH MAIN STREET,WATERBURY,CT",41.538716682094574,-73.0361753237955
071828,510 CLINTON AVENUE,BRIDGEPORT,CT,6605.0,1.0,U,"510 CLINTON AVENUE,BRIDGEPORT,CT",41.17480113860833,-73.20996641331548
071829,743 SOUTH AVENUE,BRIDGEPORT,CT,6604.0,1.0,U,"743 SOUTH AVENUE,BRIDGEPORT,CT",41.166956041472965,-73.1994936865882
071834,459 MIGEON AVE,TORRINGTON,CT,6790.0,5.0,R,"459 MIGEON AVE,TORRINGTON,CT",41.8117219329927,-73.13254284877145
071835,114 BENEDICT ST,WATERBURY,CT,6706.0,9.0,U,"114 BENEDICT ST,WATERBURY,CT",41.54918594149163,-73.0407985077009
071836,95 THOMASTON AVE,WATERBURY,CT,6702.0,9.0,U,"95 THOMASTON AVE,WATERBURY,CT",41.5600782467238,-73.05311944811974
071837,1351 WASHINGTON BLVD,STAMFORD,CT,6902.0,1.0,U,"1351 WASHINGTON BLVD,STAMFORD,CT",41.0582018,-73.5425778
071838,968 FAIRFIELD AVE,BRIDGEPORT,CT,6605.0,1.0,U,"968 FAIRFIELD AVE,BRIDGEPORT,CT",41.17439514285714,-73.20310428571429
071839,ONE SHAWS COVE,NEW LONDON,CT,6320.0,11.0,U,"ONE SHAWS COVE,NEW LONDON,CT",41.3494045,-72.10317
071840,ONE WASHINGTON SQUARE,NEW BRITAIN,CT,6051.0,3.0,U,"ONE WASHINGTON SQUARE,NEW BRITAIN,CT",0.0,0.0
071841,134 STATE ST,MERIDEN,CT,6450.0,9.0,U,"134 STATE ST,MERIDEN,CT",41.54201645609315,-72.79729115843577
071842,114 EAST MAIN STREET,CLINTON,CT,6413.0,7.0,U,"114 EAST MAIN STREET,CLINTON,CT",39.2934018,-83.9878411
071843,49 DAT ST UNIT A,NORWALK,CT,6854.0,1.0,U,"49 DAT ST UNIT A,NORWALK,CT",0.0,0.0
071844,333 LONG HILL RD,GROTON,CT,6340.0,11.0,U,"333 LONG HILL RD,GROTON,CT",41.35716104682982,-72.06201016710128
071845,3 PROSPECT STREET,VERNON,CT,6066.0,13.0,U,"3 PROSPECT STREET,VERNON,CT",40.3999965,-82.487503
071846,150 NORTH MAIN STREET,MANCHESTER,CT,6042.0,3.0,U,"150 NORTH MAIN STREET,MANCHESTER,CT",41.79484174900881,-72.52584323025468
071847,34 HUYSHOPE AVENUE,HARTFORD,CT,6106.0,3.0,U,"34 HUYSHOPE AVENUE,HARTFORD,CT",41.757215164403874,-72.66604447540269
071848,10 WOODLAND STREET,HARTFORD,CT,6105.0,3.0,U,"10 WOODLAND STREET,HARTFORD,CT",41.768020449999995,-72.70169016835831
071849,8 DELAY STREET,DANBURY,CT,6810.0,1.0,U,"8 DELAY STREET,DANBURY,CT",41.39568670635675,-73.45143923814052
071850,5 N MAIN STREET,ENFIELD,CT,6082.0,3.0,U,"5 N MAIN STREET,ENFIELD,CT",41.999140462730054,-72.600228929713
071851,57 NORTH STREET,DANBURY,CT,6810.0,1.0,U,"57 NORTH STREET,DANBURY,CT",41.4067714,-73.4571779
071852,282 WASHINGTON ST,HARTFORD,CT,6106.0,3.0,U,"282 WASHINGTON ST,HARTFORD,CT",41.753699499999996,-72.68163738861489
071853,574 PARK ST,HARTFORD,CT,6106.0,3.0,U,"574 PARK ST,HARTFORD,CT",41.75793983235384,-72.68679711738285
071854,27 CHESTNUT ST,HARTFORD,CT,6120.0,3.0,U,"27 CHESTNUT ST,HARTFORD,CT",41.773046201209624,-72.68094816328778
071855,500 BROOKFIELD ST,HARTFORD,CT,6114.0,3.0,U,"500 BROOKFIELD ST,HARTFORD,CT",41.740909070929,-72.70693058824709
071856,75 MAIN STREET,HARTFORD,CT,6105.0,3.0,U,"75 MAIN STREET,HARTFORD,CT",41.75607356147161,-72.67621604977994
071857,401 NEW BRITAIN AVE,HARTFORD,CT,6106.0,3.0,U,"401 NEW BRITAIN AVE,HARTFORD,CT",41.740072,-72.696042
071858,135 BROAD STREET,HARTFORD,CT,6105.0,3.0,U,"135 BROAD STREET,HARTFORD,CT",41.767939285714284,-72.68624802040817
071859,437 SHELDON ST,HARTFORD,CT,6106.0,3.0,U,"437 SHELDON ST,HARTFORD,CT",41.75902369159344,-72.66679357518557
071860,40 MANSFIELD AVENUE,WILLIMANTIC,CT,6226.0,15.0,U,"40 MANSFIELD AVENUE,WILLIMANTIC,CT",41.71537075,-72.22565020049994
071861,141 FRANKLIN ST,STAMFORD,CT,6901.0,1.0,U,"141 FRANKLIN ST,STAMFORD,CT",41.0599357,-73.5418662
071862,59 NORTH MAIN ST,BRISTOL,CT,6010.0,3.0,U,"59 NORTH MAIN ST,BRISTOL,CT",41.7026021,-71.15491293392519
071863,37 KENNEDY DRIVE,EAST PUTNAM,CT,6260.0,15.0,U,"37 KENNEDY DRIVE,EAST PUTNAM,CT",41.9052998157623,-71.90376876790138
071865,232 CEDAR ST,NEW HAVEN,CT,6519.0,9.0,U,"232 CEDAR ST,NEW HAVEN,CT",41.29910085,-72.9329174268436
071866,226 DIXWELL AVE,NEW HAVEN,CT,6511.0,9.0,U,"226 DIXWELL AVE,NEW HAVEN,CT",41.3191948,-72.9342764
071867,62 GRANT STREET,NEW HAVEN,CT,6519.0,9.0,U,"62 GRANT STREET,NEW HAVEN,CT",41.28868266971739,-72.9370267998447
071868,911 STATE STREET,NEW HAVEN,CT,6511.0,9.0,U,"911 STATE STREET,NEW HAVEN,CT",41.31453342105263,-72.91128405263159
071869,121 WAKELEE AVE,ANSONIA,CT,6401.0,9.0,U,"121 WAKELEE AVE,ANSONIA,CT",41.34056024168181,-73.09047917244605
071870,250 BRANDEGEE AVENUE,GROTON,CT,6340.0,11.0,U,"250 BRANDEGEE AVENUE,GROTON,CT",41.339053899999996,-72.0667892816223
071871,78 HUNTSBROOK ROAD,QUAKER HILL,CT,6375.0,11.0,U,"78 HUNTSBROOK ROAD,QUAKER HILL,CT",0.0,0.0
071872,47 TOWN STREET,NORWICH,CT,6360.0,11.0,U,"47 TOWN STREET,NORWICH,CT",41.5471395904631,-72.09230680055464
071873,226 E MAIN ST,JEWETT CITY,CT,6351.0,11.0,U,"226 E MAIN ST,JEWETT CITY,CT",41.61139544790892,-71.9730366603975
071874,400 BAYONET STREET,NEW LONDON,CT,6320.0,11.0,U,"400 BAYONET STREET,NEW LONDON,CT",41.37161218599747,-72.11559894100434
071875,212 UPTON ROAD,COLCHESTER,CT,6415.0,11.0,U,"212 UPTON ROAD,COLCHESTER,CT",41.5809486294393,-72.35357238064172
071876,88 EAST ALBERT STREET,TORRINGTON,CT,6790.0,5.0,R,"88 EAST ALBERT STREET,TORRINGTON,CT",41.795798,-73.117771
071877,10 CENTER STREET,WINSTED,CT,6098.0,5.0,R,"10 CENTER STREET,WINSTED,CT",41.92183058333333,-73.070386
071878,100 CONNECTICUT BOULEVARD,E HARTFORD,CT,6108.0,3.0,U,"100 CONNECTICUT BOULEVARD,E HARTFORD,CT",41.7695,-72.64806696731085
071879,82-88 GEORGE STREET,BRIDGEPORT,CT,6604.0,1.0,U,"82-88 GEORGE STREET,BRIDGEPORT,CT",41.186822408163266,-73.1948143265306
071880,64 BLACK ROCK AVENUE,BRIDGEPORT,CT,6605.0,1.0,U,"64 BLACK ROCK AVENUE,BRIDGEPORT,CT",41.17120679909274,-73.19720913471517
071881,46 NORTH PLAIN INDUSTRIAL ROAD,WALLINGFORD,CT,6492.0,9.0,U,"46 NORTH PLAIN INDUSTRIAL ROAD,WALLINGFORD,CT",0.0,0.0
071882,42 SAINT CASIMIR DRIVE,MERIDEN,CT,6450.0,9.0,U,"42 SAINT CASIMIR DRIVE,MERIDEN,CT",0.0,0.0
071883,594 BURRITT STREET,NEW BRITAIN,CT,6053.0,3.0,U,"594 BURRITT STREET,NEW BRITAIN,CT",41.680822576613465,-72.79369650450667
071884,780 SUMMER STREET,STAMFORD,CT,6902.0,1.0,U,"780 SUMMER STREET,STAMFORD,CT",41.0586345,-73.5405935
071885,1071 EAST MAIN STREET,BRIDGEPORT,CT,6608.0,1.0,U,"1071 EAST MAIN STREET,BRIDGEPORT,CT",46.2004462,-59.9833894
071886,1309 SOUTH MAIN STREET,WATERBURY,CT,6706.0,9.0,U,"1309 SOUTH MAIN STREET,WATERBURY,CT",41.538884280416475,-73.03601492414555
071887,241-249 ARCH STREET,NEW BRITAIN,CT,6050.0,3.0,U,"241-249 ARCH STREET,NEW BRITAIN,CT",41.662415287443956,-72.78287523810842
071888,HOWELL CHENEY TECHNICAL HIGH,MANCHESTER,CT,6040.0,3.0,U,"HOWELL CHENEY TECHNICAL HIGH,MANCHESTER,CT",0.0,0.0
071889,8 WOODLAND PLACE,STAMFORD,CT,6902.0,1.0,U,"8 WOODLAND PLACE,STAMFORD,CT",41.042443846607036,-73.53767530874974
071890,138 STILLWATER AVENUE,STAMFORD,CT,6901.0,1.0,U,"138 STILLWATER AVENUE,STAMFORD,CT",41.05193080070095,-73.55171834281808
071891,597 PACIFIC STREET,STAMFORD,CT,6902.0,1.0,U,"597 PACIFIC STREET,STAMFORD,CT",41.0448575,-73.5379769
071892,112 BOW LANE,MIDDLETOWN,CT,6457.0,7.0,U,"112 BOW LANE,MIDDLETOWN,CT",41.54837205472271,-72.62562713551178
071893,51 NORTH ELM STREET,WATERBURY,CT,6702.0,9.0,U,"51 NORTH ELM STREET,WATERBURY,CT",41.55602777708495,-73.03657724421419
071894,120-122 PLAINFIELD ROAD,MOOSUP,CT,6354.0,15.0,U,"120-122 PLAINFIELD ROAD,MOOSUP,CT",41.710177,-71.897148
071895,949 BRIDGEPORT AVENUE,MILFORD,CT,6460.0,9.0,U,"949 BRIDGEPORT AVENUE,MILFORD,CT",41.213986,-73.0737183
071896,435 EAST MAIN STREET,ANSONIA,CT,6401.0,9.0,U,"435 EAST MAIN STREET,ANSONIA,CT",41.34254705263158,-73.07754178947368
071897,14 SYCAMORE WAY,BRANFORD,CT,6405.0,9.0,U,"14 SYCAMORE WAY,BRANFORD,CT",0.0,0.0
071898,"34 PARK STREET, #168",NEW HAVEN,CT,6519.0,9.0,U,"34 PARK STREET, #168,NEW HAVEN,CT",41.3051594,-72.93682053010389
071899,100 JAMES STREET,NEW HAVEN,CT,6513.0,9.0,U,"100 JAMES STREET,NEW HAVEN,CT",41.30517013270208,-72.90281687820668
071900,293 CLINTON AVENUE,EAST HAVEN,CT,6513.0,9.0,U,"293 CLINTON AVENUE,EAST HAVEN,CT",41.318322,-72.892551
071901,560 ELLA T GRASSO BOULEVARD,NEW HAVEN,CT,6511.0,9.0,U,"560 ELLA T GRASSO BOULEVARD,NEW HAVEN,CT",41.29434353903855,-72.94555743385807
071902,20 CHURCH STREET N114,NEW HAVEN,CT,6510.0,9.0,U,"20 CHURCH STREET N114,NEW HAVEN,CT",41.2976052,-72.92654366037542
071903,46  ALBION STREET,BRIDGEPORT,CT,6605.0,1.0,U,"46  ALBION STREET,BRIDGEPORT,CT",41.16450856629493,-73.21687793503627
071904,332 SOUTH MAIN STREET,TORRINGTON,CT,6790.0,5.0,R,"332 SOUTH MAIN STREET,TORRINGTON,CT",41.794444,-73.120522
071905,1046 FAIRFIELD AVENUE,BRIDGEPORT,CT,6605.0,1.0,U,"1046 FAIRFIELD AVENUE,BRIDGEPORT,CT",41.174481799999995,-73.20453475565924
071906,118 MAIN STREET,HARTFORD,CT,6106.0,3.0,U,"118 MAIN STREET,HARTFORD,CT",41.75640230494126,-72.67609701659946
071907,75 OLIVER STREET,TORRINGTON,CT,6790.0,5.0,R,"75 OLIVER STREET,TORRINGTON,CT",41.810181032330284,-73.11182382466883
071908,402 EAST MAIN STREET,WATERBURY,CT,6702.0,9.0,U,"402 EAST MAIN STREET,WATERBURY,CT",41.55440118367347,-73.03426008163267
071909,50 GRAND AVE,NEW HAVEN,CT,6513.0,9.0,U,"50 GRAND AVE,NEW HAVEN,CT",41.30936337393249,-72.89020613887762
071910,265 ELLINGTON ROAD,E HARTFORD,CT,6108.0,3.0,U,"265 ELLINGTON ROAD,E HARTFORD,CT",41.79381951918459,-72.62394568325998
071911,281 MAIN STREET,E HARTFORD,CT,6118.0,3.0,U,"281 MAIN STREET,E HARTFORD,CT",41.7424641,-72.6331528596282
071912,949 BRIDGEPORT AVENUE,MILFORD,CT,6460.0,9.0,U,"949 BRIDGEPORT AVENUE,MILFORD,CT",41.213986,-73.0737183
071913,791 WEST MIDDLE TURNPIKE,BUCKLAND,CT,6040.0,3.0,U,"791 WEST MIDDLE TURNPIKE,BUCKLAND,CT",0.0,0.0
071914,800 OLD COLCHESTER ROAD,OAKDALE,CT,6370.0,11.0,U,"800 OLD COLCHESTER ROAD,OAKDALE,CT",41.461388,-72.165021
071915,70 LOVELAND HILL ROAD,VERNON,CT,6066.0,13.0,U,"70 LOVELAND HILL ROAD,VERNON,CT",41.857169,-72.482366
071916,10 NORTH MAIN STREET,BRISTOL,CT,6010.0,3.0,U,"10 NORTH MAIN STREET,BRISTOL,CT",41.7023433,-71.15554318510206
071917,MAPLE STREET SCHOOL 20 MAPLE STREET,VERNON,CT,6066.0,13.0,U,"MAPLE STREET SCHOOL 20 MAPLE STREET,VERNON,CT",41.8679283,-72.462172486551
071918,587 MIDDLE TURNPIKE EAST SUITE A,MANCHESTER,CT,6040.0,3.0,U,"587 MIDDLE TURNPIKE EAST SUITE A,MANCHESTER,CT",0.0,0.0
071919,75 NORTH MOUNTAIN ROAD,NEW BRITAIN,CT,6053.0,3.0,U,"75 NORTH MOUNTAIN ROAD,NEW BRITAIN,CT",41.672074090615624,-72.82250383900524
071920,43 WOODLAND ST,HARTFORD,CT,6105.0,3.0,U,"43 WOODLAND ST,HARTFORD,CT",41.76993680379592,-72.7015197292708
071921,70 MAIN STREET,DANBURY,CT,6810.0,1.0,U,"70 MAIN STREET,DANBURY,CT",41.3897226,-73.44862827195432
071922,37 FOSTER STREET,DANBURY,CT,6810.0,1.0,U,"37 FOSTER STREET,DANBURY,CT",41.3924816,-73.4518063
071923,94 CONNECTICUT BOULEVARD,E HARTFORD,CT,6108.0,3.0,U,"94 CONNECTICUT BOULEVARD,E HARTFORD,CT",41.7695,-72.64798137347275
071924,"1 WILBUR PECK COURT, LOWER LEVER",GREENWICH,CT,6830.0,1.0,U,"1 WILBUR PECK COURT, LOWER LEVER,GREENWICH,CT",0.0,0.0
071925,370 HEMINGWAY AVE,EAST HAVEN,CT,6512.0,9.0,U,"370 HEMINGWAY AVE,EAST HAVEN,CT",41.27785152050555,-72.86723898366714
071926,94 UNION STREET 2ND FLOOR,VERNON,CT,6066.0,13.0,U,"94 UNION STREET 2ND FLOOR,VERNON,CT",0.0,0.0
071927,426 EAST STREET,NEW HAVEN,CT,6511.0,9.0,U,"426 EAST STREET,NEW HAVEN,CT",41.312365666666665,-72.90928166666667
071928,20 BRIDGE STREET,GREENWICH,CT,6830.0,1.0,U,"20 BRIDGE STREET,GREENWICH,CT",41.0218391,-73.6329318
071929,76 BRITAIN AVE,HARTFORD,CT,6106.0,3.0,U,"76 BRITAIN AVE,HARTFORD,CT",0.0,0.0
071930,30 CHURCH STREET,NAUGATUCK,CT,6770.0,9.0,U,"30 CHURCH STREET,NAUGATUCK,CT",41.48771180906455,-73.05629002887663
071931,809 MAIN STREET,E HARTFORD,CT,6108.0,3.0,U,"809 MAIN STREET,E HARTFORD,CT",41.824445045865545,-72.62058414394605
071932,120 MAIN STREET,DANBURY,CT,6810.0,1.0,U,"120 MAIN STREET,DANBURY,CT",41.39139113292,-73.44923925804221
071933,152 WEST STREET,DANBURY,CT,6810.0,1.0,U,"152 WEST STREET,DANBURY,CT",41.39304367528312,-73.46402478720115
071934,67 HUDSON STREET,EAST HAVEN,CT,6512.0,9.0,U,"67 HUDSON STREET,EAST HAVEN,CT",41.2860863,-72.866243
071935,14 SYCAMORE WAY,BRANFORD,CT,6405.0,9.0,U,"14 SYCAMORE WAY,BRANFORD,CT",0.0,0.0
071936,35 WHEELBARROW LANE,EAST HAVEN,CT,6513.0,9.0,U,"35 WHEELBARROW LANE,EAST HAVEN,CT",41.329906699999995,-72.83153525098547
071937,762 LINDLEY STREET,BRIDGEPORT,CT,6606.0,1.0,U,"762 LINDLEY STREET,BRIDGEPORT,CT",41.20078401370512,-73.1988018259675
071938,22 5TH ST,STAMFORD,CT,6905.0,1.0,U,"22 5TH ST,STAMFORD,CT",41.0662785,-73.5434336
071939,122 WILMOT ROAD,NEW HAVEN,CT,6519.0,9.0,U,"122 WILMOT ROAD,NEW HAVEN,CT",41.3504302749961,-72.94710258451917
071940,225 N MAIN ST,BRISTOL,CT,6010.0,3.0,U,"225 N MAIN ST,BRISTOL,CT",41.673076,-72.9427998
071941,60 PALMERS HILL ROAD06902,STAMFORD,CT,6902.0,1.0,U,"60 PALMERS HILL ROAD06902,STAMFORD,CT",0.0,0.0
071942,165 MCKINLEY AVENUE,NORWICH,CT,6360.0,11.0,U,"165 MCKINLEY AVENUE,NORWICH,CT",41.532038,-72.0747844
071943,693 BLOOMFIELD AVE SUITE 101,BLOOMFIELD,CT,6002.0,3.0,U,"693 BLOOMFIELD AVE SUITE 101,BLOOMFIELD,CT",0.0,0.0
071944,1755 PARK STREET,HARTFORD,CT,6106.0,3.0,U,"1755 PARK STREET,HARTFORD,CT",41.75702011290323,-72.70780527419355
071945,255 BLATCHLEY AVE,NEW HAVEN,CT,6513.0,9.0,U,"255 BLATCHLEY AVE,NEW HAVEN,CT",41.30944685,-72.89883042066427
071946,855 LAKEWOOD RD,WATERBURY,CT,6704.0,9.0,U,"855 LAKEWOOD RD,WATERBURY,CT",41.56995510848304,-73.00727549240654
071947,221 W MAIN STREET,BRANFORD,CT,6405.0,9.0,U,"221 W MAIN STREET,BRANFORD,CT",41.27762010474279,-72.8560606355189
071948,32 GRAND STREET,HARTFORD,CT,6106.0,3.0,U,"32 GRAND STREET,HARTFORD,CT",41.75951680444632,-72.68592965335586
071949,55 CHESTNUT STREET,NORWALK,CT,6854.0,1.0,U,"55 CHESTNUT STREET,NORWALK,CT",41.09228,-73.420591
071950,18 TOWER LANE,NEW HAVEN,CT,6519.0,9.0,U,"18 TOWER LANE,NEW HAVEN,CT",41.30116094021064,-72.92900367637054
071951,"150 SARGENT DRIVE, STE1-200",NEW HAVEN,CT,6511.0,9.0,U,"150 SARGENT DRIVE, STE1-200,NEW HAVEN,CT",0.0,0.0
072002,401 WEST THAMES STREET,NORWICH,CT,6360.0,11.0,U,"401 WEST THAMES STREET,NORWICH,CT",41.50642685,-72.0946299399098
072003,GAYLORD FARM RD,WALLINGFORD,CT,6492.0,9.0,U,"GAYLORD FARM RD,WALLINGFORD,CT",41.4745322,-72.8591331
072004,2150 CORBIN AVE,NEW BRITAIN,CT,6050.0,3.0,U,"2150 CORBIN AVE,NEW BRITAIN,CT",41.6893478,-72.80182349719925
072006,287 WEST STREET,ROCKY HILL,CT,6067.0,3.0,U,"287 WEST STREET,ROCKY HILL,CT",41.6553772,-72.6525927
072007,22 MASONIC AVE,WALLINGFORD,CT,6492.0,9.0,U,"22 MASONIC AVE,WALLINGFORD,CT",41.463340099999996,-72.83575212760752
072008,1 ABRAHMS BLVD,WEST HARTFORD,CT,6117.0,3.0,U,"1 ABRAHMS BLVD,WEST HARTFORD,CT",41.8027338,-72.7295494
072300,150 YORK ST,NEW HAVEN,CT,6511.0,9.0,U,"150 YORK ST,NEW HAVEN,CT",41.307855371596375,-72.93215733213778
072301,114 WOODLAND STREET,HARTFORD,CT,6105.0,3.0,U,"114 WOODLAND STREET,HARTFORD,CT",41.77413945,-72.6980902631616
072302,64 ROBBINS ST,WATERBURY,CT,6721.0,9.0,U,"64 ROBBINS ST,WATERBURY,CT",41.5584302,-73.0587191
072303,31 UNION ST,ROCKVILLE,CT,6066.0,13.0,U,"31 UNION ST,ROCKVILLE,CT",41.866395,-72.45131973625521
072304,56 FRANKLIN ST,WATERBURY,CT,6702.0,9.0,U,"56 FRANKLIN ST,WATERBURY,CT",41.55295925,-73.036811657562
072305,25 PARK ST,NEW HAVEN,CT,6504.0,9.0,U,"25 PARK ST,NEW HAVEN,CT",41.30509765517242,-72.93646627586207
072306,326 WASHINGTON ST,NORWICH,CT,6360.0,11.0,U,"326 WASHINGTON ST,NORWICH,CT",41.54273245,-72.08868694772954
072307,80 SEYMOUR STREET,HARTFORD,CT,6115.0,3.0,U,"80 SEYMOUR STREET,HARTFORD,CT",41.754569849999996,-72.68004441789873
072308,"111 OSBORNE STREET, SUITE 211",DANBURY,CT,6810.0,1.0,U,"111 OSBORNE STREET, SUITE 211,DANBURY,CT",0.0,0.0
072309,MAPLE ST,NORWALK,CT,6856.0,1.0,U,"MAPLE ST,NORWALK,CT",41.1117611,-73.4197189
072310,100 GRAND STREET,NEW BRITAIN,CT,6050.0,3.0,U,"100 GRAND STREET,NEW BRITAIN,CT",41.66138145,-72.78671157363726
072311,540 LITCHFIELD ST,TORRINGTON,CT,6790.0,5.0,R,"540 LITCHFIELD ST,TORRINGTON,CT",41.792270450000004,-73.13376944648427
072312,28 CRESENT ST,MIDDLETOWN,CT,6457.0,7.0,U,"28 CRESENT ST,MIDDLETOWN,CT",0.0,0.0
072313,500 BLUE HILLS AVE,HARTFORD,CT,6112.0,3.0,U,"500 BLUE HILLS AVE,HARTFORD,CT",41.80012845,-72.69449922637793
072314,282 WASHINGTON STREET,HARTFORD,CT,6106.0,3.0,U,"282 WASHINGTON STREET,HARTFORD,CT",41.753699499999996,-72.68163738861489
072501,900 MADISON AVENUE,BRIDGEPORT,CT,6606.0,1.0,U,"900 MADISON AVENUE,BRIDGEPORT,CT",41.193372836246056,-73.20519970449486
072503,136 SHERMAN AVE,NEW HAVEN,CT,6511.0,9.0,U,"136 SHERMAN AVE,NEW HAVEN,CT",41.310452754299526,-72.94505203774186
072504,30 COMMERCE RD,STAMFORD,CT,6902.0,1.0,U,"30 COMMERCE RD,STAMFORD,CT",41.0463811,-73.5616418
072505,375 WILLARD AVE,NEWINGTON,CT,6111.0,3.0,U,"375 WILLARD AVE,NEWINGTON,CT",41.7072637,-72.7364168
072506,113 ELM STREET,ENFIELD,CT,6082.0,3.0,U,"113 ELM STREET,ENFIELD,CT",41.997978,-72.58417800000001
072507,96 ORANGE STREET,NEW HAVEN,CT,6519.0,9.0,U,"96 ORANGE STREET,NEW HAVEN,CT",41.30526785714286,-72.92453485714286
072508,377 RESEARCH PARKWAY,MERIDEN,CT,6450.0,9.0,U,"377 RESEARCH PARKWAY,MERIDEN,CT",41.51699462153221,-72.76477664796698
072509,200 PITKIN ST,EAST HARTFORD,CT,6108.0,3.0,U,"200 PITKIN ST,EAST HARTFORD,CT",41.763886,-72.656738
072510,750 BRIDGEPORT AVE,SHELTON,CT,6484.0,1.0,U,"750 BRIDGEPORT AVE,SHELTON,CT",41.276370545062676,-73.12254569856954
072511,209 HIGHLAND AVENUE,WATERBURY,CT,6708.0,9.0,U,"209 HIGHLAND AVENUE,WATERBURY,CT",41.54975080434782,-73.05800638043479
072512,137 WATER STREET,NEW HAVEN,CT,6511.0,9.0,U,"137 WATER STREET,NEW HAVEN,CT",41.30137807238489,-72.92101798614753
072513,50 COMMERCE PARK DRIVE,MILFORD,CT,6460.0,9.0,U,"50 COMMERCE PARK DRIVE,MILFORD,CT",41.229026000000005,-73.0465495
072514,"470 BRIDGEPORT AVENUE, SUITE S",MILFORD,CT,6460.0,9.0,U,"470 BRIDGEPORT AVENUE, SUITE S,MILFORD,CT",0.0,0.0
072515,"BLDG #5, SHAW'S COVE",NEW LONDON,CT,6320.0,11.0,U,"BLDG #5, SHAW'S COVE,NEW LONDON,CT",41.3494045,-72.10317
072516,675 TOWER AVENUE,HARTFORD,CT,6112.0,3.0,U,"675 TOWER AVENUE,HARTFORD,CT",41.80066755620731,-72.69375240838828
072517,249 WEST MAIN STREET,BRANFORD,CT,6405.0,9.0,U,"249 WEST MAIN STREET,BRANFORD,CT",41.277657070771085,-72.85586887250712
072518,30 WATERCHASE DRIVE,ROCKY HILL,CT,6067.0,3.0,U,"30 WATERCHASE DRIVE,ROCKY HILL,CT",41.6776086597511,-72.65301449446743
072519,"270 FARMINGTON AVENUE, SUITE 160",FARMINGTON,CT,6032.0,3.0,U,"270 FARMINGTON AVENUE, SUITE 160,FARMINGTON,CT",0.0,0.0
072520,113 SALEM TNPK,NORWICH,CT,6360.0,11.0,U,"113 SALEM TNPK,NORWICH,CT",0.0,0.0
072521,31 STEVEN STREET,NORWALK,CT,6856.0,1.0,U,"31 STEVEN STREET,NORWALK,CT",0.0,0.0
072522,34 EAST INDUSTRIAL ROAD,BRANFORD,CT,6405.0,9.0,U,"34 EAST INDUSTRIAL ROAD,BRANFORD,CT",0.0,0.0
072523,780 LITCHFIELD STREET,TORRINGTON,CT,6790.0,5.0,R,"780 LITCHFIELD STREET,TORRINGTON,CT",41.79009329997036,-73.13776034685786
072524,"100 MAIN STREET, SUITE A",MIDDLETOWN,CT,6457.0,7.0,U,"100 MAIN STREET, SUITE A,MIDDLETOWN,CT",0.0,0.0
072526,460 HARTFORD TNPK,VERNON,CT,6066.0,13.0,U,"460 HARTFORD TNPK,VERNON,CT",0.0,0.0
072527,135 MIDDLE STREET,BRISTOL,CT,6010.0,3.0,U,"135 MIDDLE STREET,BRISTOL,CT",41.66557919726419,-72.92136145345675
072528,29 GRIFFIN ROAD SOUTH,BLOOMFIELD,CT,6002.0,3.0,U,"29 GRIFFIN ROAD SOUTH,BLOOMFIELD,CT",41.870332,-72.735181
072529,"460 HARTFORD TNPK, STE C",VERNON,CT,6066.0,13.0,U,"460 HARTFORD TNPK, STE C,VERNON,CT",0.0,0.0
072530,375C TUCKIE RD,NORTH WINDHAM,CT,6256.0,15.0,U,"375C TUCKIE RD,NORTH WINDHAM,CT",41.73264391517424,-72.18360118539384
072531,3580 MAIN STREET SUITE 1,HARTFORD,CT,6120.0,3.0,U,"3580 MAIN STREET SUITE 1,HARTFORD,CT",0.0,0.0
072532,510 WASHINGTON AVENUE,NORTH HAVEN,CT,6473.0,9.0,U,"510 WASHINGTON AVENUE,NORTH HAVEN,CT",41.41481211599443,-72.84100058477121
072533,150 MATTATUCK HEIGHTS ROAD,WATERBURY,CT,6705.0,9.0,U,"150 MATTATUCK HEIGHTS ROAD,WATERBURY,CT",41.540315834880474,-72.98419024223394
072534,341 WEST STREET,PLANTSVILLE,CT,6479.0,3.0,U,"341 WEST STREET,PLANTSVILLE,CT",41.59760871839827,-72.89799763238966
072535,427 STILLSON ROAD,FAIRFIELD,CT,6824.0,1.0,U,"427 STILLSON ROAD,FAIRFIELD,CT",41.180624550000005,-73.25171714739962
072536,500 KINGS HWY,FAIRFIELD,CT,6825.0,1.0,U,"500 KINGS HWY,FAIRFIELD,CT",41.171521,-73.22967
072537,266 STATE STREET,NORTH HAVEN,CT,6473.0,9.0,U,"266 STATE STREET,NORTH HAVEN,CT",41.30387391836735,-72.92355830612246
072538,319 MAIN STREET,MANCHESTER,CT,6040.0,3.0,U,"319 MAIN STREET,MANCHESTER,CT",41.7822318,-72.5225682
072539,"240 INDIAN RIVER ROAD, BLDG D",ORANGE,CT,6477.0,9.0,U,"240 INDIAN RIVER ROAD, BLDG D,ORANGE,CT",0.0,0.0
072540,725 PARK AVENUE,BLOOMFIELD,CT,6002.0,3.0,U,"725 PARK AVENUE,BLOOMFIELD,CT",41.82723024877421,-72.73054206642368
072541,445E WILLARD AVENUE,NEWINGTON,CT,6111.0,3.0,U,"445E WILLARD AVENUE,NEWINGTON,CT",41.70696169934925,-72.7358551937124
072542,61 POMEROY AVENUE,MERIDEN,CT,6450.0,9.0,U,"61 POMEROY AVENUE,MERIDEN,CT",41.52364263332265,-72.76684748248525
072543,"3000 DIXWELL AVENUE, SUITE 100",HAMDEN,CT,6518.0,9.0,U,"3000 DIXWELL AVENUE, SUITE 100,HAMDEN,CT",0.0,0.0
072544,"111 OSBORNE STREET, SUITE 211",DANBURY,CT,6810.0,1.0,U,"111 OSBORNE STREET, SUITE 211,DANBURY,CT",0.0,0.0
072545,"11 SOUTH RD, SUITE 110",FARMINGTON,CT,6032.0,3.0,U,"11 SOUTH RD, SUITE 110,FARMINGTON,CT",0.0,0.0
072546,"322 EAST MAIN STREET, SUITE 1A",BRANFORD,CT,6405.0,9.0,U,"322 EAST MAIN STREET, SUITE 1A,BRANFORD,CT",0.0,0.0
072547,51 PALOMBA DRIVE,ENFIELD,CT,6082.0,3.0,U,"51 PALOMBA DRIVE,ENFIELD,CT",41.99598270114596,-72.57295096426893
072548,164 MOUNT PLEASANT ROAD,NEWTOWN,CT,6470.0,1.0,U,"164 MOUNT PLEASANT ROAD,NEWTOWN,CT",41.416096,-73.366132
072549,"720 N MAIN STREET EXT, SUITE 3",WALLINGFORD,CT,6492.0,9.0,U,"720 N MAIN STREET EXT, SUITE 3,WALLINGFORD,CT",0.0,0.0
072550,1 EMERSON DRIVE,WINDSOR,CT,6095.0,3.0,U,"1 EMERSON DRIVE,WINDSOR,CT",41.837947,-72.666923
072551,1 HERALD SQUARE,NEW BRITAIN,CT,6051.0,3.0,U,"1 HERALD SQUARE,NEW BRITAIN,CT",41.667052,-72.779412
072552,112 MAIN STREET,NORWALK,CT,6851.0,1.0,U,"112 MAIN STREET,NORWALK,CT",41.1234837,-73.4149678
072553,425 HAWLEY LN,STRATFORD,CT,6614.0,1.0,U,"425 HAWLEY LN,STRATFORD,CT",41.23403677501028,-73.14909200276047
072554,80 SEYMOUR STREET,HARTFORD,CT,6115.0,3.0,U,"80 SEYMOUR STREET,HARTFORD,CT",41.754569849999996,-72.68004441789873
072555,100 GRAND STREET,NEW BRITAIN,CT,6050.0,3.0,U,"100 GRAND STREET,NEW BRITAIN,CT",41.66138145,-72.78671157363726
072556,54 WEST AVON ROAD,AVON,CT,6001.0,3.0,U,"54 WEST AVON ROAD,AVON,CT",41.80750615203052,-72.86256731236674
072557,"7 CAMBRIDGE DRIVE, SUITE 105",TRUMBULL,CT,6611.0,1.0,U,"7 CAMBRIDGE DRIVE, SUITE 105,TRUMBULL,CT",0.0,0.0
073025,490 BLUE HILLS AVENUE,HARTFORD,CT,6112.0,3.0,U,"490 BLUE HILLS AVENUE,HARTFORD,CT",41.79945461764706,-72.69533476470588
073026,128 STRAWBERRY HILL AVENUE,STAMFORD,CT,6904.0,15.0,U,"128 STRAWBERRY HILL AVENUE,STAMFORD,CT",41.0639000251837,-73.53305610220357
073300,282 WASHINGTON STREET,HARTFORD,CT,6106.0,3.0,U,"282 WASHINGTON STREET,HARTFORD,CT",41.753699499999996,-72.68163738861489
073500,375C TUCKIE RD,NORTH WINDHAM,CT,6256.0,15.0,U,"375C TUCKIE RD,NORTH WINDHAM,CT",41.73264391517424,-72.18360118539384
073501,460 HARTFORD TNPK,VERNON,CT,6066.0,13.0,U,"460 HARTFORD TNPK,VERNON,CT",0.0,0.0
073700,2800 MAIN STREET,BRIDGEPORT,CT,6606.0,1.0,U,"2800 MAIN STREET,BRIDGEPORT,CT",41.2019763,-73.2013719
073701,130 DIVISION STREET,DERBY,CT,6418.0,9.0,U,"130 DIVISION STREET,DERBY,CT",41.335278,-73.08924623057271
073702,"267 GRANT STREET, TOWER 6",BRIDGEPORT,CT,6610.0,1.0,U,"267 GRANT STREET, TOWER 6,BRIDGEPORT,CT",0.0,0.0
074000,47 LONG LOTS ROAD BOX 31,WESTPORT,CT,6880.0,1.0,U,"47 LONG LOTS ROAD BOX 31,WESTPORT,CT",0.0,0.0
074001,VALLEY RD,NEW CANAAN,CT,6840.0,1.0,U,"VALLEY RD,NEW CANAAN,CT",41.1864999,-73.4875764
074002,400 WASHINGTON ST,HARTFORD,CT,6106.0,3.0,U,"400 WASHINGTON ST,HARTFORD,CT",41.751061,-72.68301
074003,SILVER ST,MIDDLETOWN,CT,6457.0,7.0,U,"SILVER ST,MIDDLETOWN,CT",41.5548031,-72.6268359
074005,LAUREL HILL RD   P O  BOX 508,NORWICH,CT,6360.0,11.0,U,"LAUREL HILL RD   P O  BOX 508,NORWICH,CT",41.5020155,-72.0768322
074006,P O BOX 5525,NEWTOWN,CT,6470.0,1.0,U,"P O BOX 5525,NEWTOWN,CT",53.3761145,-6.6106506
074007,25 MARLBOROUGH STREET,PORTLAND,CT,6480.0,7.0,U,"25 MARLBOROUGH STREET,PORTLAND,CT",41.57264511904762,-72.63896097619048
074008,189 STORRS RD,MANSFIELD CENTER,CT,6250.0,13.0,U,"189 STORRS RD,MANSFIELD CENTER,CT",41.74111365,-72.19819429438257
074009,525 RUSSELL ROAD,NEWINGTON,CT,6111.0,3.0,U,"525 RUSSELL ROAD,NEWINGTON,CT",0.0,0.0
074010,51 COVENTRY ST,HARTFORD,CT,6112.0,3.0,U,"51 COVENTRY ST,HARTFORD,CT",41.797701,-72.69100947918034
074011,34 PARK STREET,NEW HAVEN,CT,6508.0,9.0,U,"34 PARK STREET,NEW HAVEN,CT",41.3051594,-72.93682053010389
074012,1635 CENTRAL AVE,BRIDGEPORT,CT,6610.0,1.0,U,"1635 CENTRAL AVE,BRIDGEPORT,CT",41.18944196802551,-73.16759581248647
074013,184 LIBERTY ST,NEW HAVEN,CT,6520.0,9.0,U,"184 LIBERTY ST,NEW HAVEN,CT",41.3015944,-72.93286293652716
074014,208 VALLEY ROAD,NEW CANAAN,CT,6840.0,1.0,U,"208 VALLEY ROAD,NEW CANAAN,CT",41.1654028,-73.4699339
074015,915 RIVER ROAD,MIDDLETOWN,CT,6457.0,7.0,U,"915 RIVER ROAD,MIDDLETOWN,CT",41.5571777,-72.61401982820615
074501,95 HAMILTON STREET,NEW HAVEN,CT,6511.0,9.0,U,"95 HAMILTON STREET,NEW HAVEN,CT",41.305308784373615,-72.91262640195329
074502,100 DEARFIELD ROAD,WINDSOR,CT,6095.0,3.0,U,"100 DEARFIELD ROAD,WINDSOR,CT",0.0,0.0
074504,26 PALMERS HILL RD,STAMFORD,CT,6902.0,1.0,U,"26 PALMERS HILL RD,STAMFORD,CT",41.063708,-73.5659576
074505,1931 BLACK ROCK TURNPIKE,FAIRFIELD,CT,6825.0,1.0,U,"1931 BLACK ROCK TURNPIKE,FAIRFIELD,CT",41.18032572275429,-73.24812077221763
074506,135 OLD STATE RD,BROOKFIELD,CT,6804.0,1.0,U,"135 OLD STATE RD,BROOKFIELD,CT",41.44055160593634,-73.40498020371334
074507,40 CROSS ST,NORWALK,CT,6851.0,1.0,U,"40 CROSS ST,NORWALK,CT",41.1191047,-73.4185399
074508,555 BRIDGEPORT AVE,SHELTON,CT,6484.0,1.0,U,"555 BRIDGEPORT AVE,SHELTON,CT",41.2859889,-73.1153154
074509,400 BAYONET STREET,NEW LONDON,CT,6320.0,11.0,U,"400 BAYONET STREET,NEW LONDON,CT",41.37161218599747,-72.11559894100434
074510,1700 DIXWELL AVENUE,HAMDEN,CT,6514.0,9.0,U,"1700 DIXWELL AVENUE,HAMDEN,CT",41.358362096282406,-72.92634247581653
074511,701 COTTAGE GROVE ROAD,BLOOMFIELD,CT,6002.0,3.0,U,"701 COTTAGE GROVE ROAD,BLOOMFIELD,CT",41.816885,-72.735468
074600,995 DAY HILL ROAD,WINDSOR,CT,6095.0,3.0,U,"995 DAY HILL ROAD,WINDSOR,CT",41.8779492,-72.70164142862191
074601,14 SYCAMORE WAY,BRANFORD,CT,6405.0,9.0,U,"14 SYCAMORE WAY,BRANFORD,CT",0.0,0.0
074602,4083 MAIN STREET,BRIDGEPORT,CT,6606.0,1.0,U,"4083 MAIN STREET,BRIDGEPORT,CT",41.2161303,-73.21429931909469
074603,5102 BIGELOW COMMONS,ENFIELD,CT,6082.0,3.0,U,"5102 BIGELOW COMMONS,ENFIELD,CT",42.0004614,-72.602642
074604,165 STATE ST SUITE 2,NEW LONDON,CT,6320.0,11.0,U,"165 STATE ST SUITE 2,NEW LONDON,CT",0.0,0.0
074605,1095 BLUE HILLS AVENUE,BLOOMFIELD,CT,6002.0,3.0,U,"1095 BLUE HILLS AVENUE,BLOOMFIELD,CT",41.82937860695206,-72.69731280099316
074606,75 LIBERTY STREET,ANSONIA,CT,6401.0,9.0,U,"75 LIBERTY STREET,ANSONIA,CT",41.352184527566074,-73.08195110437178
074607,1250 SILVER STREET,MIDDLETOWN,CT,6457.0,7.0,U,"1250 SILVER STREET,MIDDLETOWN,CT",41.5534042,-72.6331068
074608,60 PUTNAM AVENUE,HAMDEN,CT,6517.0,9.0,U,"60 PUTNAM AVENUE,HAMDEN,CT",41.34567144885576,-72.91411489167716
074609,883 PADDOCK AVENUE,MERIDEN,CT,6450.0,9.0,U,"883 PADDOCK AVENUE,MERIDEN,CT",41.505847388167076,-72.77591899537417
074610,24 MARKET STREET,HARTFORD,CT,6120.0,3.0,U,"24 MARKET STREET,HARTFORD,CT",41.766445211654585,-72.67123183343598
074611,2400 MAIN STREET,BRIDGEPORT,CT,6606.0,1.0,U,"2400 MAIN STREET,BRIDGEPORT,CT",41.1956512,-73.1994111
075001,6448 MAIN STREET,TRUMBULL,CT,6611.0,1.0,U,"6448 MAIN STREET,TRUMBULL,CT",41.275459608945155,-73.22714674084797
075006,36 MORRIS COVE RD,NEW HAVEN,CT,6512.0,9.0,U,"36 MORRIS COVE RD,NEW HAVEN,CT",41.257665985311654,-72.89265755952663
075007,959 WASHINGTON ST EXT,MIDDLETOWN,CT,6457.0,7.0,U,"959 WASHINGTON ST EXT,MIDDLETOWN,CT",0.0,0.0
075010,50 HAZEL DR,CHESHIRE,CT,6410.0,9.0,U,"50 HAZEL DR,CHESHIRE,CT",41.544018695705525,-72.95554010542226
075011,581 POQUONOCK AVE,WINDSOR,CT,6095.0,3.0,U,"581 POQUONOCK AVE,WINDSOR,CT",41.871827,-72.660002
075013,565 VERNON STREET,MANCHESTER,CT,6040.0,3.0,U,"565 VERNON STREET,MANCHESTER,CT",41.8028721,-72.4891566
075014,118 JEFFERSON ST,FAIRFIELD,CT,6432.0,1.0,U,"118 JEFFERSON ST,FAIRFIELD,CT",41.17236942298735,-73.17010207314155
075015,276 WASHINGTON STREET,HARTFORD,CT,6106.0,3.0,U,"276 WASHINGTON STREET,HARTFORD,CT",41.7550308531725,-72.68254870789744
075017,163 QUINNIPIAC AVENUE,NORTH HAVEN,CT,6473.0,9.0,U,"163 QUINNIPIAC AVENUE,NORTH HAVEN,CT",41.347097,-72.863357
075028,132 MAIN ST,CHESTER,CT,6412.0,7.0,U,"132 MAIN ST,CHESTER,CT",41.401968,-72.446324
075031,1 GLEN HILL RD,DANBURY,CT,6811.0,1.0,U,"1 GLEN HILL RD,DANBURY,CT",41.4136412,-73.4485194
075034,400 MILL PLAIN RD,FAIRFIELD,CT,6430.0,1.0,U,"400 MILL PLAIN RD,FAIRFIELD,CT",41.1465099,-73.26553420247441
075035,416 COLT HIGHWAY,FARMINGTON,CT,6032.0,3.0,U,"416 COLT HIGHWAY,FARMINGTON,CT",41.72242051441865,-72.78851573485518
075039,32 LEXINGTON ST,NEW BRITAIN,CT,6052.0,3.0,U,"32 LEXINGTON ST,NEW BRITAIN,CT",41.66520798979592,-72.79173802040816
075040,181 CLIFTON ST,NEW HAVEN,CT,6513.0,9.0,U,"181 CLIFTON ST,NEW HAVEN,CT",41.3089845724347,-72.879321509872
075044,269 FARMINGTON AVE,PLAINVILLE,CT,6062.0,3.0,U,"269 FARMINGTON AVE,PLAINVILLE,CT",41.68579140451085,-72.85301647853454
075047,45 MALTBY STREET,SHELTON,CT,6484.0,1.0,U,"45 MALTBY STREET,SHELTON,CT",41.3129139,-73.091193228899
075056,612 HAZARD AVE,ENFIELD,CT,6082.0,3.0,U,"612 HAZARD AVE,ENFIELD,CT",41.98538314745147,-72.50914501562517
075057,35 MARC DRIVE,WALLINGFORD,CT,6492.0,9.0,U,"35 MARC DRIVE,WALLINGFORD,CT",41.453954,-72.8453747
075058,341 JORDAN LANE,WETHERSFIELD,CT,6109.0,3.0,U,"341 JORDAN LANE,WETHERSFIELD,CT",41.722025785693326,-72.67975751367875
075059,210 CHATFIELD ST,DERBY,CT,6418.0,9.0,U,"210 CHATFIELD ST,DERBY,CT",41.338439939467506,-73.09520098060486
075060,72 SALMON BROOK DRIVE,GLASTONBURY,CT,6033.0,3.0,U,"72 SALMON BROOK DRIVE,GLASTONBURY,CT",41.7158532,-72.60358023412536
075061,53 COURTLAND AVENUE,STAMFORD,CT,6902.0,1.0,U,"53 COURTLAND AVENUE,STAMFORD,CT",41.0605674,-73.5126652
075062,ONE CARE LANE,WEST HAVEN,CT,6516.0,9.0,U,"ONE CARE LANE,WEST HAVEN,CT",41.2863164,-72.9599528
075063,705 NEW BRITAIN AVE,HARTFORD,CT,6106.0,3.0,U,"705 NEW BRITAIN AVE,HARTFORD,CT",41.73316166666667,-72.70577233333333
075064,195 PLATT STREET,MILFORD,CT,6460.0,9.0,U,"195 PLATT STREET,MILFORD,CT",41.211755038200074,-73.01947959420936
075065,54 EAST RAMSDELL STREET,NEW HAVEN,CT,6515.0,9.0,U,"54 EAST RAMSDELL STREET,NEW HAVEN,CT",41.33346731003229,-72.97342103332174
075066,2817 N MAIN ST,WATERBURY,CT,6704.0,9.0,U,"2817 N MAIN ST,WATERBURY,CT",41.59314363858692,-73.02667887602027
075067,555 SAW MILL RD,WEST HAVEN,CT,6516.0,9.0,U,"555 SAW MILL RD,WEST HAVEN,CT",41.309803719357966,-72.69975634570771
075068,595 VALLEY ST,WILLIMANTIC,CT,6226.0,15.0,U,"595 VALLEY ST,WILLIMANTIC,CT",41.7174273,-72.22879029906522
075069,1188 KING STREET,GREENWICH,CT,6831.0,1.0,U,"1188 KING STREET,GREENWICH,CT",41.0625257,-73.6957006
075070,1775 BOSTON POST RD,OLD SAYBROOK,CT,6475.0,7.0,U,"1775 BOSTON POST RD,OLD SAYBROOK,CT",41.3100302,-72.3662643
075072,60 PLATT ST,MILFORD,CT,6460.0,9.0,U,"60 PLATT ST,MILFORD,CT",41.207999187834325,-73.02045382423965
075074,13 HAKIM ST,DANBURY,CT,6810.0,1.0,U,"13 HAKIM ST,DANBURY,CT",41.3956019,-73.4733204
075078,150 WARE RD,DAYVILLE,CT,6241.0,15.0,U,"150 WARE RD,DAYVILLE,CT",0.0,0.0
075079,93 WEST TOWN STREET,NORWICH,CT,6360.0,11.0,U,"93 WEST TOWN STREET,NORWICH,CT",41.5521,-72.10342
075080,225 BOSTON POST RD,ORANGE,CT,6477.0,9.0,U,"225 BOSTON POST RD,ORANGE,CT",41.2697277,-72.9983955
075082,29 HIGHLAND ST,WEST HARTFORD,CT,6119.0,3.0,U,"29 HIGHLAND ST,WEST HARTFORD,CT",41.76702480965449,-72.71811462561634
075084,20 BABCOCK AVENUE,PLAINFIELD,CT,6374.0,15.0,U,"20 BABCOCK AVENUE,PLAINFIELD,CT",41.67841937653354,-71.91733301427243
075085,2021 ALBANY AVE,WEST HARTFORD,CT,6117.0,3.0,U,"2021 ALBANY AVE,WEST HARTFORD,CT",41.7861608,-72.7285356
075089,600 HIGHLAND AVE,MIDDLETOWN,CT,6457.0,7.0,U,"600 HIGHLAND AVE,MIDDLETOWN,CT",41.5395606,-72.6558205
075093,97 PRESTON RD,GRISWOLD,CT,6351.0,11.0,U,"97 PRESTON RD,GRISWOLD,CT",41.591597,-71.976249
075096,145 GROVE ST,WATERBURY,CT,6710.0,9.0,U,"145 GROVE ST,WATERBURY,CT",41.55985375218591,-73.04113945224239
075097,71 PLAZA AVE,WATERBURY,CT,6710.0,9.0,U,"71 PLAZA AVE,WATERBURY,CT",41.56613142154046,-73.05071328082825
075098,171 ROPE FERRY RD,WATERFORD,CT,6385.0,11.0,U,"171 ROPE FERRY RD,WATERFORD,CT",41.334358,-72.154393
075102,1132 MERIDEN RD,WATERBURY,CT,6705.0,9.0,U,"1132 MERIDEN RD,WATERBURY,CT",41.552469,-72.982014
075104,725 PARK AVE,BRIDGEPORT,CT,6604.0,1.0,U,"725 PARK AVE,BRIDGEPORT,CT",41.171667,-73.196291
075105,80 FERN DR,TORRINGTON,CT,6790.0,5.0,R,"80 FERN DR,TORRINGTON,CT",41.81042381248272,-73.10883839198353
075106,100 RANDOLPH RD,MIDDLETOWN,CT,6457.0,7.0,U,"100 RANDOLPH RD,MIDDLETOWN,CT",41.534757,-72.617476
075109,1 ABRAHMS BLVD,WEST HARTFORD,CT,6117.0,3.0,U,"1 ABRAHMS BLVD,WEST HARTFORD,CT",41.8027338,-72.7295494
075111,215 FOREST ST,TORRINGTON,CT,6790.0,5.0,R,"215 FOREST ST,TORRINGTON,CT",41.808508978023745,-73.12936892593201
075113,4 GREENTREE DRIVE,WATERFORD,CT,6385.0,11.0,U,"4 GREENTREE DRIVE,WATERFORD,CT",41.3940068,-72.1463712
075115,50 MEAD ST,NEW HAVEN,CT,6511.0,9.0,U,"50 MEAD ST,NEW HAVEN,CT",41.30931846472067,-72.95101548399144
075117,70 PARSONAGE RD,GREENWICH,CT,6830.0,1.0,U,"70 PARSONAGE RD,GREENWICH,CT",41.059529049999995,-73.62549122636189
075118,1270 SHERMAN LANE,HAMDEN,CT,6514.0,9.0,U,"1270 SHERMAN LANE,HAMDEN,CT",41.391568236010336,-72.92020997745558
075134,28 BROADWAY,MYSTIC,CT,6355.0,11.0,U,"28 BROADWAY,MYSTIC,CT",41.3512444,-71.9638642
075135,22 MASONIC AVE PO BOX 70,WALLINGFORD,CT,6492.0,9.0,U,"22 MASONIC AVE PO BOX 70,WALLINGFORD,CT",0.0,0.0
075137,30 PARK LN EAST,NEW MILFORD,CT,6776.0,5.0,R,"30 PARK LN EAST,NEW MILFORD,CT",41.5979613,-73.4019763
075138,355 PARK AVENUE,BLOOMFIELD,CT,6002.0,3.0,U,"355 PARK AVENUE,BLOOMFIELD,CT",41.822462,-72.712934
075139,62 COLEMAN ST,BRIDGEPORT,CT,6604.0,1.0,U,"62 COLEMAN ST,BRIDGEPORT,CT",41.178799699310325,-73.19725684691298
075144,10 BOSTON POST RD,GUILFORD,CT,6437.0,9.0,U,"10 BOSTON POST RD,GUILFORD,CT",41.285502195934896,-72.6476512272412
075146,778 MIDDLEBURY RD,MIDDLEBURY,CT,6762.0,9.0,U,"778 MIDDLEBURY RD,MIDDLEBURY,CT",41.58299299346748,-73.11937705109361
075149,169 DAVENPORT AVE,NEW HAVEN,CT,6510.0,9.0,U,"169 DAVENPORT AVE,NEW HAVEN,CT",41.302369420743425,-72.93912613646799
075150,31 VAUXHALL ST,NEW LONDON,CT,6320.0,11.0,U,"31 VAUXHALL ST,NEW LONDON,CT",42.976858353846154,-81.21177737692308
075153,88 ROCKRIMMON ROAD,STAMFORD,CT,6903.0,1.0,U,"88 ROCKRIMMON ROAD,STAMFORD,CT",0.0,0.0
075158,88 CLARK LANE,WATERFORD,CT,6385.0,11.0,U,"88 CLARK LANE,WATERFORD,CT",41.350941,-72.1281
075159,23 PROSPECT AVENUE,NORWALK,CT,6850.0,1.0,U,"23 PROSPECT AVENUE,NORWALK,CT",41.1138448,-73.4212853
075163,584 LONG HILL AVE,SHELTON,CT,6484.0,1.0,U,"584 LONG HILL AVE,SHELTON,CT",41.28220970574436,-73.09827823225972
075174,1243 W MAIN ST,WATERBURY,CT,6708.0,9.0,U,"1243 W MAIN ST,WATERBURY,CT",41.552507,-73.063769
075179,915 ELLA T GRASSO BLVD,NEW HAVEN,CT,6519.0,9.0,U,"915 ELLA T GRASSO BLVD,NEW HAVEN,CT",41.30197472103437,-72.95110927603739
075180,292 THORPE AVENUE,MERIDEN,CT,6450.0,9.0,U,"292 THORPE AVENUE,MERIDEN,CT",41.51559884374774,-72.75521322188796
075181,35 BUNKER HILL RD,WATERTOWN,CT,6795.0,5.0,R,"35 BUNKER HILL RD,WATERTOWN,CT",41.5776274,-73.1038626
075182,55 GRAND STREET,NEW BRITAIN,CT,6052.0,3.0,U,"55 GRAND STREET,NEW BRITAIN,CT",41.66221508333334,-72.78490491666666
075183,1253 HARTFORD TNPK,ROCKVILLE,CT,6066.0,13.0,U,"1253 HARTFORD TNPK,ROCKVILLE,CT",0.0,0.0
075185,66 CLINIC DRIVE,NEW BRITAIN,CT,6051.0,3.0,U,"66 CLINIC DRIVE,NEW BRITAIN,CT",41.64851711748992,-72.78547743424076
075186,60 WEST STREET,ROCKY HILL,CT,6067.0,3.0,U,"60 WEST STREET,ROCKY HILL,CT",41.654062,-72.643333
075191,22 HOSPITAL AVE,DANBURY,CT,6810.0,1.0,U,"22 HOSPITAL AVE,DANBURY,CT",41.404704,-73.447338
075192,845 PADDOCK AVE,MERIDEN,CT,6450.0,9.0,U,"845 PADDOCK AVE,MERIDEN,CT",41.506818,-72.777446
075195,1157 ENFIELD STREET,ENFIELD,CT,6082.0,3.0,U,"1157 ENFIELD STREET,ENFIELD,CT",41.986706299999994,-72.59163860786416
075196,78 VIETS ST EXTENSION,NEW LONDON,CT,6320.0,11.0,U,"78 VIETS ST EXTENSION,NEW LONDON,CT",0.0,0.0
075198,23 FAIR STREET,FORESTVILLE,CT,6010.0,3.0,U,"23 FAIR STREET,FORESTVILLE,CT",41.679911205882355,-72.90254723529412
075199,3030 PARK AVE,BRIDGEPORT,CT,6604.0,1.0,U,"3030 PARK AVE,BRIDGEPORT,CT",41.1985198,-73.21846890623073
075200,930 MILL HILL TERRACE,SOUTHPORT,CT,6890.0,1.0,U,"930 MILL HILL TERRACE,SOUTHPORT,CT",41.144088087600224,-73.28724520447301
075201,310 TERRACE AVE,WEST HAVEN,CT,6516.0,9.0,U,"310 TERRACE AVE,WEST HAVEN,CT",41.28296582709447,-72.96900305124271
075202,99 SOUTH CANAAN RD,CANAAN,CT,6018.0,5.0,R,"99 SOUTH CANAAN RD,CANAAN,CT",44.65940000957909,-64.27519207406671
075204,225 WYOMING AVE,TORRINGTON,CT,6790.0,5.0,R,"225 WYOMING AVE,TORRINGTON,CT",41.79370871778864,-73.14145681730113
075205,65 WESTFIELD RD,MERIDEN,CT,6450.0,9.0,U,"65 WESTFIELD RD,MERIDEN,CT",41.54791296636712,-72.7799639839305
075206,51 APPLEGATE LANE,EAST HARTFORD,CT,6118.0,3.0,U,"51 APPLEGATE LANE,EAST HARTFORD,CT",41.76528943797738,-72.60956086177247
075207,25 ROYAL CREST DRIVE,PROSPECT,CT,6712.0,9.0,U,"25 ROYAL CREST DRIVE,PROSPECT,CT",41.5130555552317,-72.97221573256583
075208,19 POPLAR STREET,NEW MILFORD,CT,6776.0,5.0,R,"19 POPLAR STREET,NEW MILFORD,CT",41.5828914,-73.4093237
075209,50 PALMER ST,NORWICH,CT,6360.0,11.0,U,"50 PALMER ST,NORWICH,CT",41.523604,-72.059516
075210,128 CEDAR AVENUE,WATERBURY,CT,6705.0,9.0,U,"128 CEDAR AVENUE,WATERBURY,CT",41.5493289,-72.9987349
075211,45 ELM STREET,ROCKY HILL,CT,6067.0,3.0,U,"45 ELM STREET,ROCKY HILL,CT",41.664790437499995,-72.6410956875
075213,2028 BRIDGEPORT AVE,MILFORD,CT,6460.0,9.0,U,"2028 BRIDGEPORT AVE,MILFORD,CT",41.217088379293195,-73.0678544187953
075214,333 MAIN ST,PORTLAND,CT,6480.0,7.0,U,"333 MAIN ST,PORTLAND,CT",41.57873565540196,-72.63608413337731
075216,75 GREAT POND RD,SIMSBURY,CT,6070.0,3.0,U,"75 GREAT POND RD,SIMSBURY,CT",41.887415,-72.828411
075217,TODDY HILL RD,NEWTOWN,CT,6470.0,1.0,U,"TODDY HILL RD,NEWTOWN,CT",41.4077565,-73.2637044
075219,177 WHITEWOOD ROAD,WATERBURY,CT,6708.0,9.0,U,"177 WHITEWOOD ROAD,WATERBURY,CT",41.57709672186778,-73.08145326894615
075220,175 FERRY RD,OLD SAYBROOK,CT,6475.0,7.0,U,"175 FERRY RD,OLD SAYBROOK,CT",41.316719012603755,-72.35220581049606
075221,61 BELLEVUE AVENUE,BRISTOL,CT,6010.0,3.0,U,"61 BELLEVUE AVENUE,BRISTOL,CT",41.675279411764706,-72.94062452941176
075222,745 HIGHLAND AVENUE,CHESHIRE,CT,6410.0,9.0,U,"745 HIGHLAND AVENUE,CHESHIRE,CT",41.51809534693878,-72.89780797959183
075223,111 WESTCOTT RD,DANIELSON,CT,6239.0,15.0,U,"111 WESTCOTT RD,DANIELSON,CT",41.80927278049767,-71.87438610592793
075224,425 GRANT ST,BRIDGEPORT,CT,6610.0,1.0,U,"425 GRANT ST,BRIDGEPORT,CT",41.18874757273867,-73.16378582413171
075225,456 KING ST,BRISTOL,CT,6010.0,3.0,U,"456 KING ST,BRISTOL,CT",41.680902,-72.922256
075226,60 CROUCH AVE,NORWICH,CT,6360.0,11.0,U,"60 CROUCH AVE,NORWICH,CT",41.50519590906135,-72.07246163269238
075227,175 JEFFERSON ST,FAIRFIELD,CT,6432.0,1.0,U,"175 JEFFERSON ST,FAIRFIELD,CT",41.17232994262301,-73.16945478154982
075228,850 MIX AVE,HAMDEN,CT,6514.0,9.0,U,"850 MIX AVE,HAMDEN,CT",41.375629534795046,-72.92090518894594
075229,870 BURNSIDE AVE,EAST HARTFORD,CT,6108.0,3.0,U,"870 BURNSIDE AVE,EAST HARTFORD,CT",41.78101215374211,-72.60140281002512
075230,154 KENSINGTON RD,KENSINGTON,CT,6037.0,3.0,U,"154 KENSINGTON RD,KENSINGTON,CT",41.62987331522995,-72.76968360288393
075231,36 BROADWAY STREET,COLCHESTER,CT,6415.0,11.0,U,"36 BROADWAY STREET,COLCHESTER,CT",45.475098342857144,-63.60035512857143
075232,29 MIDDLE HADDAM RD,COBALT,CT,6414.0,7.0,U,"29 MIDDLE HADDAM RD,COBALT,CT",41.5584359,-72.5545717
075233,50 PULASKI ST,NEW BRITAIN,CT,6053.0,3.0,U,"50 PULASKI ST,NEW BRITAIN,CT",41.675502,-72.7983956
075234,55 KONDRACKI LANE,WALLINGFORD,CT,6492.0,9.0,U,"55 KONDRACKI LANE,WALLINGFORD,CT",41.435873314185805,-72.81169117694958
075235,109 WEST LAKE AVENUE,GUILFORD,CT,6437.0,9.0,U,"109 WEST LAKE AVENUE,GUILFORD,CT",41.31142377179815,-72.724986725401
075236,17 COBBLE RD,SALISBURY,CT,6068.0,5.0,R,"17 COBBLE RD,SALISBURY,CT",41.99024154943883,-73.4194862157501
075237,1 EMERSON DRIVE,WINDSOR,CT,6095.0,3.0,U,"1 EMERSON DRIVE,WINDSOR,CT",41.837947,-72.666923
075238,856 MAPLE ST,ROCKY HILL,CT,6067.0,3.0,U,"856 MAPLE ST,ROCKY HILL,CT",41.6682426,-72.672631
075239,210 GEORGE ST,HARTFORD,CT,6114.0,3.0,U,"210 GEORGE ST,HARTFORD,CT",41.73176019650503,-72.67838702209195
075240,4 HAZEL AVE,NAUGATUCK,CT,6770.0,9.0,U,"4 HAZEL AVE,NAUGATUCK,CT",41.47018454067083,-73.03508626453709
075241,162 SOUTH BRITAIN RD,SOUTHBURY,CT,6488.0,9.0,U,"162 SOUTH BRITAIN RD,SOUTHBURY,CT",41.4620065,-73.2378287
075242,3 FARM RD,NEW CANAAN,CT,6840.0,1.0,U,"3 FARM RD,NEW CANAAN,CT",41.128000400000005,-73.49300045058165
075243,44 CANTERBURY ROAD,BROOKLYN,CT,6234.0,15.0,U,"44 CANTERBURY ROAD,BROOKLYN,CT",41.784415,-71.949482
075244,652 WEST AVON RD,AVON,CT,6001.0,3.0,U,"652 WEST AVON RD,AVON,CT",41.77394681319553,-72.86169675174733
075246,2798 WHITNEY AVENUE,HAMDEN,CT,6518.0,9.0,U,"2798 WHITNEY AVENUE,HAMDEN,CT",41.397919404844416,-72.89736592031221
075247,261 SUMMIT ST,SOUTHINGTON,CT,6489.0,3.0,U,"261 SUMMIT ST,SOUTHINGTON,CT",41.592152430626356,-72.89295424302028
075248,2432 ALBANY AVE,WEST HARTFORD,CT,6117.0,3.0,U,"2432 ALBANY AVE,WEST HARTFORD,CT",41.7861608,-72.7285356
075249,599 BOSTON POST RD,DARIEN,CT,6820.0,1.0,U,"599 BOSTON POST RD,DARIEN,CT",0.0,0.0
075250,5 GREENWOOD STREET,HARTFORD,CT,6106.0,3.0,U,"5 GREENWOOD STREET,HARTFORD,CT",41.75530533348879,-72.7100243753075
075251,SCOTT SWAMP RD,FARMINGTON,CT,6032.0,3.0,U,"SCOTT SWAMP RD,FARMINGTON,CT",41.7067781,-72.8716876
075252,349 BIDWELL STREET,MANCHESTER,CT,6040.0,3.0,U,"349 BIDWELL STREET,MANCHESTER,CT",41.759626,-72.544253
075253,59 HARRINGTON CT,COLCHESTER,CT,6415.0,11.0,U,"59 HARRINGTON CT,COLCHESTER,CT",41.57746235781242,-72.33195258665235
075254,33 ROY ST,MERIDEN,CT,6450.0,9.0,U,"33 ROY ST,MERIDEN,CT",41.52542052063692,-72.80545288958731
075255,251 WASHINGTON ST,NORWICH,CT,6360.0,11.0,U,"251 WASHINGTON ST,NORWICH,CT",41.5383013517231,-72.08426036961386
075256,1060 MAIN ST,SOUTH WINDSOR,CT,6074.0,3.0,U,"1060 MAIN ST,SOUTH WINDSOR,CT",41.832451196577445,-72.6168662222807
075257,745 MAIN ST,EAST HARTFORD,CT,6108.0,3.0,U,"745 MAIN ST,EAST HARTFORD,CT",44.4056687,-70.3481782
075258,103 NORTH ROAD,WINDHAM,CT,6280.0,15.0,U,"103 NORTH ROAD,WINDHAM,CT",41.881474939419114,-71.99425817860298
075260,1312 W MAIN ST,WATERBURY,CT,6708.0,9.0,U,"1312 W MAIN ST,WATERBURY,CT",41.55177454041866,-73.06479204626682
075261,181 E MAIN ST,WALLINGFORD,CT,6492.0,9.0,U,"181 E MAIN ST,WALLINGFORD,CT",41.45351045727037,-72.79988185517304
075263,385 MAIN STREET,CROMWELL,CT,6416.0,7.0,U,"385 MAIN STREET,CROMWELL,CT",41.600495,-72.646294
075264,140 PARK AVE,BLOOMFIELD,CT,6002.0,3.0,U,"140 PARK AVE,BLOOMFIELD,CT",41.822987514918786,-72.7032983947901
075265,140 COOK HILL RD,CHESHIRE,CT,6410.0,9.0,U,"140 COOK HILL RD,CHESHIRE,CT",41.4684613,-72.9019589
075267,89 VIETS ST EXT,NEW LONDON,CT,6320.0,11.0,U,"89 VIETS ST EXT,NEW LONDON,CT",0.0,0.0
075268,151 HILLSIDE AVE,HARTFORD,CT,6106.0,3.0,U,"151 HILLSIDE AVE,HARTFORD,CT",41.748539182138956,-72.69818410216276
075269,BOND STREET EXTENSION,BRIDGEPORT,CT,6610.0,1.0,U,"BOND STREET EXTENSION,BRIDGEPORT,CT",0.0,0.0
075270,1145 POQUONNOCK RD,GROTON,CT,6340.0,11.0,U,"1145 POQUONNOCK RD,GROTON,CT",41.34647663965052,-72.04752565497326
075271,475 HIGH ST,MYSTIC,CT,6355.0,11.0,U,"475 HIGH ST,MYSTIC,CT",41.355425,-71.973154
075272,1365 ENFIELD ST,ENFIELD,CT,6082.0,3.0,U,"1365 ENFIELD ST,ENFIELD,CT",41.97229109268987,-72.59235364682948
075273,1840 STATE ST,HAMDEN,CT,6514.0,9.0,U,"1840 STATE ST,HAMDEN,CT",0.0,0.0
075274,107 OSBORNE STREET,DANBURY,CT,6810.0,1.0,U,"107 OSBORNE STREET,DANBURY,CT",41.4033719186174,-73.44274982954578
075275,1354 CHAPEL ST,NEW HAVEN,CT,6511.0,9.0,U,"1354 CHAPEL ST,NEW HAVEN,CT",41.30970395,-72.94049535631473
075276,7003 MAIN ST,STRATFORD,CT,6497.0,1.0,U,"7003 MAIN ST,STRATFORD,CT",41.24830739772076,-73.10157473440923
075277,180 REGAN RD,VERNON,CT,6066.0,13.0,U,"180 REGAN RD,VERNON,CT",41.85257502659742,-72.47683674201754
075278,130 LOOMIS DR,WEST HARTFORD,CT,6107.0,3.0,U,"130 LOOMIS DR,WEST HARTFORD,CT",41.76698572929376,-72.73991774993048
075279,1 EMERSON DR,WINDSOR,CT,6095.0,3.0,U,"1 EMERSON DR,WINDSOR,CT",41.837947,-72.666923
075280,1 BURR ROAD,WESTPORT,CT,6880.0,1.0,U,"1 BURR ROAD,WESTPORT,CT",41.1372312,-73.3669596
075282,50 BEACH RD,WOLCOTT,CT,6716.0,9.0,U,"50 BEACH RD,WOLCOTT,CT",41.60744849274161,-72.9948305989402
075283,240 WINTHROP AVE,NEW HAVEN,CT,6511.0,9.0,U,"240 WINTHROP AVE,NEW HAVEN,CT",41.309389,-72.947946
075284,108 EAST LAKE ST,WINSTED,CT,6098.0,5.0,R,"108 EAST LAKE ST,WINSTED,CT",41.9193468687959,-73.07847209099329
075285,1037 SYLVAN AVE,BRIDGEPORT,CT,6606.0,1.0,U,"1037 SYLVAN AVE,BRIDGEPORT,CT",41.21610278126401,-73.18743173963456
075286,240 CHURCH ST,NEWINGTON,CT,6111.0,3.0,U,"240 CHURCH ST,NEWINGTON,CT",41.665993,-72.739268
075287,160 GLENBROOK RD,STAMFORD,CT,6902.0,1.0,U,"160 GLENBROOK RD,STAMFORD,CT",41.0598695,-73.5277821
075288,235 LESTERTOWN RD,GROTON,CT,6340.0,11.0,U,"235 LESTERTOWN RD,GROTON,CT",41.37217227905738,-72.08245486033813
075290,200 LEEDER HILL DR,HAMDEN,CT,6517.0,9.0,U,"200 LEEDER HILL DR,HAMDEN,CT",41.34652450260419,-72.92117635115554
075291,55 TUNXIS AVE,BLOOMFIELD,CT,6002.0,3.0,U,"55 TUNXIS AVE,BLOOMFIELD,CT",41.836486,-72.739104
075292,400 BRITTANY FARMS RD,NEW BRITAIN,CT,6053.0,3.0,U,"400 BRITTANY FARMS RD,NEW BRITAIN,CT",41.713499,-72.7686249
075293,ONE JOHN STEWART DR,NEWINGTON,CT,6111.0,3.0,U,"ONE JOHN STEWART DR,NEWINGTON,CT",0.0,0.0
075294,38 TALMADGE AVENUE,EAST HAVEN,CT,6512.0,9.0,U,"38 TALMADGE AVENUE,EAST HAVEN,CT",41.2630684,-72.8637101
075295,360 BROAD STREET,MERIDEN,CT,6450.0,9.0,U,"360 BROAD STREET,MERIDEN,CT",41.53009663834623,-72.7956962617911
075296,189 ALPS RD,BRANFORD,CT,6405.0,9.0,U,"189 ALPS RD,BRANFORD,CT",41.26558704999999,-72.84803954160705
075298,4 ELMCREST TERR,NORWALK,CT,6850.0,1.0,U,"4 ELMCREST TERR,NORWALK,CT",41.1090183,-73.4204891
075299,25 LORRAINE ST,HARTFORD,CT,6105.0,3.0,U,"25 LORRAINE ST,HARTFORD,CT",41.767517772797575,-72.70548356256958
075300,5 LAKE ROAD,SHELTON,CT,6484.0,1.0,U,"5 LAKE ROAD,SHELTON,CT",41.3131522,-73.1148318
075301,40 LOEFFLER RD,BLOOMFIELD,CT,6002.0,3.0,U,"40 LOEFFLER RD,BLOOMFIELD,CT",41.8313161,-72.76493571532586
075302,73 STRAWBERRY HILL AVE,NORWALK,CT,6855.0,1.0,U,"73 STRAWBERRY HILL AVE,NORWALK,CT",41.1096588,-73.3998526
075303,1360 TORRINGFORD ST.,TORRINGTON,CT,6790.0,5.0,R,"1360 TORRINGFORD ST.,TORRINGTON,CT",41.827434,-73.07904
075304,33 LINCOLN AVE,DANBURY,CT,6810.0,1.0,U,"33 LINCOLN AVE,DANBURY,CT",41.3853338,-73.4537445
075305,2875 MAIN ST,BRIDGEPORT,CT,6606.0,1.0,U,"2875 MAIN ST,BRIDGEPORT,CT",41.2015,-73.203618
075306,52 MISSIONARY RD PO BOX 180,CROMWELL,CT,6416.0,7.0,U,"52 MISSIONARY RD PO BOX 180,CROMWELL,CT",0.0,0.0
075307,534 TOWN ST,MOODUS,CT,6469.0,7.0,U,"534 TOWN ST,MOODUS,CT",41.484432199955236,-72.44636049474589
075308,44 ABBOTT TERRACE,WATERBURY,CT,6702.0,9.0,U,"44 ABBOTT TERRACE,WATERBURY,CT",41.556680794251356,-73.03754880862296
075309,1165 KING STREET,GREENWICH,CT,6831.0,1.0,U,"1165 KING STREET,GREENWICH,CT",41.0607633,-73.6924873
075310,16 WINDSOR AVE,PLAINFIELD,CT,6374.0,15.0,U,"16 WINDSOR AVE,PLAINFIELD,CT",41.6826019,-71.9186107
075311,321 STONECREST DR,BRISTOL,CT,6010.0,3.0,U,"321 STONECREST DR,BRISTOL,CT",41.68136045177415,-72.92090952980726
075312,30 BOSTON RD,MIDDLETOWN,CT,6457.0,7.0,U,"30 BOSTON RD,MIDDLETOWN,CT",41.55341862706389,-72.67698517841788
075313,60 BOSTON POST RD,OLD SAYBROOK,CT,6475.0,7.0,U,"60 BOSTON POST RD,OLD SAYBROOK,CT",41.312666656335566,-72.36304293283882
075314,333 BIDWELL ST BOX 1296,MANCHESTER,CT,6040.0,3.0,U,"333 BIDWELL ST BOX 1296,MANCHESTER,CT",0.0,0.0
075315,341 BIDWELL ST,MANCHESTER,CT,6040.0,3.0,U,"341 BIDWELL ST,MANCHESTER,CT",41.759661874575805,-72.5459004131195
075316,1175 HEBRON AVE,GLASTONBURY,CT,6033.0,3.0,U,"1175 HEBRON AVE,GLASTONBURY,CT",41.718256836839196,-72.56606485236458
075317,439 DANBURY RD RT 7,WILTON,CT,6897.0,1.0,U,"439 DANBURY RD RT 7,WILTON,CT",41.216805,-73.429022
075318,80 HERITAGE RD,SOUTHBURY,CT,6488.0,9.0,U,"80 HERITAGE RD,SOUTHBURY,CT",41.4896958,-73.22512075867542
075319,255 ROBERTS ST,TORRINGTON,CT,6790.0,5.0,R,"255 ROBERTS ST,TORRINGTON,CT",41.8067641,-73.1405596
075320,494 ELM ST,STAMFORD,CT,6902.0,1.0,U,"494 ELM ST,STAMFORD,CT",41.0504087,-73.5261981
075321,14 CLUB RD,WINDHAM,CT,6280.0,15.0,U,"14 CLUB RD,WINDHAM,CT",41.7144664,-72.18708118504821
075322,30 BOKUM RD,ESSEX,CT,6426.0,7.0,U,"30 BOKUM RD,ESSEX,CT",41.3403588,-72.4137043
075323,2428 EASTON TNPK,FAIRFIELD,CT,6825.0,1.0,U,"2428 EASTON TNPK,FAIRFIELD,CT",0.0,0.0
075324,301 ROPE FERRY RD,WATERFORD,CT,6385.0,11.0,U,"301 ROPE FERRY RD,WATERFORD,CT",41.327538,-72.165302
075325,118 CLINTON AVE,NEW HAVEN,CT,6513.0,9.0,U,"118 CLINTON AVE,NEW HAVEN,CT",41.31258314285714,-72.89134678571428
075326,205 CHESTNUT HILL ROAD,STAFFORD SPRINGS,CT,6076.0,13.0,U,"205 CHESTNUT HILL ROAD,STAFFORD SPRINGS,CT",0.0,0.0
075327,28 BROADWAY,MYSTIC,CT,6355.0,11.0,U,"28 BROADWAY,MYSTIC,CT",41.3512444,-71.9638642
075328,9 NECK ROAD,MADISON,CT,6443.0,9.0,U,"9 NECK ROAD,MADISON,CT",41.27759662349505,-72.6263869995144
075329,400 N MAIN ST,BRISTOL,CT,6010.0,3.0,U,"400 N MAIN ST,BRISTOL,CT",41.707401899999994,-71.15503484770773
075330,118 JEFFERSON STREET,FAIRFIELD,CT,6432.0,1.0,U,"118 JEFFERSON STREET,FAIRFIELD,CT",41.17236942298735,-73.17010207314155
075331,225 AMITY RD,WOODBRIDGE,CT,6525.0,9.0,U,"225 AMITY RD,WOODBRIDGE,CT",41.342287752972766,-72.9834164459954
075332,1360 TORRINGFORD ST,TORRINGTON,CT,6790.0,5.0,R,"1360 TORRINGFORD ST,TORRINGTON,CT",41.827434,-73.07904
075333,385 W CENTER ST,MANCHESTER,CT,6040.0,3.0,U,"385 W CENTER ST,MANCHESTER,CT",41.769818605608535,-72.5524296446525
075334,180 REGAN ROAD,VERNON,CT,6066.0,13.0,U,"180 REGAN ROAD,VERNON,CT",41.85257502659742,-72.47683674201754
075335,31 VAUXHALL STREET,NEW LONDON,CT,6320.0,11.0,U,"31 VAUXHALL STREET,NEW LONDON,CT",42.976858353846154,-81.21177737692308
075336,45 MERIDEN AVE,SOUTHINGTON,CT,6489.0,3.0,U,"45 MERIDEN AVE,SOUTHINGTON,CT",41.59690569999999,-72.87481623155422
075337,33 ROY ST,MERIDEN,CT,6450.0,9.0,U,"33 ROY ST,MERIDEN,CT",41.52542052063692,-72.80545288958731
075338,36 FIRETOWN RD,SIMSBURY,CT,6070.0,3.0,U,"36 FIRETOWN RD,SIMSBURY,CT",41.87311258333334,-72.81172791666667
075339,7003 MAIN STREET,STRATFORD,CT,6614.0,1.0,U,"7003 MAIN STREET,STRATFORD,CT",41.24830739772076,-73.10157473440923
075340,560 WOODBURY ROAD,WATERTOWN,CT,6795.0,5.0,R,"560 WOODBURY ROAD,WATERTOWN,CT",41.60191060816315,-73.13891462366936
075341,44 MARITIME DRIVE,MYSTIC,CT,6355.0,11.0,U,"44 MARITIME DRIVE,MYSTIC,CT",41.37068612609942,-71.95123141310725
075342,2875 MAIN STREET,BRIDGEPORT,CT,6606.0,1.0,U,"2875 MAIN STREET,BRIDGEPORT,CT",41.2015,-73.203618
075343,975 CORBIN AVENUE,NEW BRITAIN,CT,6052.0,3.0,U,"975 CORBIN AVENUE,NEW BRITAIN,CT",41.66214953143628,-72.804023811625
075344,78 WEST ELM STREET,DEEP RIVER,CT,6417.0,7.0,U,"78 WEST ELM STREET,DEEP RIVER,CT",41.3823595282942,-72.43907480680228
075345,33 CONE AVE,MERIDEN,CT,6450.0,9.0,U,"33 CONE AVE,MERIDEN,CT",41.52433407803779,-72.7524114520706
075346,33 NORTH ST,LITCHFIELD,CT,6759.0,5.0,R,"33 NORTH ST,LITCHFIELD,CT",41.810237150116684,-73.1232209250725
075347,1 CANAL RD,SUFFIELD,CT,6078.0,3.0,U,"1 CANAL RD,SUFFIELD,CT",41.985831,-72.613204
075348,169 DAVENPORT AVENUE,NEW HAVEN,CT,6519.0,9.0,U,"169 DAVENPORT AVENUE,NEW HAVEN,CT",41.302369420743425,-72.93912613646799
075349,81 HILLSIDE AVENUE,PLYMOUTH,CT,6782.0,5.0,R,"81 HILLSIDE AVENUE,PLYMOUTH,CT",42.0078304,-70.91942999008172
075350,321 STONECREST DRIVE,BRISTOL,CT,6010.0,3.0,U,"321 STONECREST DRIVE,BRISTOL,CT",41.68136045177415,-72.92090952980726
075351,44 ABBOTT TERR,WATERBURY,CT,6702.0,9.0,U,"44 ABBOTT TERR,WATERBURY,CT",41.556680794251356,-73.03754880862296
075352,292 THORPE AVENUE,MERIDEN,CT,6450.0,9.0,U,"292 THORPE AVENUE,MERIDEN,CT",41.51559884374774,-72.75521322188796
075353,4200 PARK AVENUE,BRIDGEPORT,CT,6604.0,1.0,U,"4200 PARK AVENUE,BRIDGEPORT,CT",41.1772241,-73.2005768
075354,33 LINCOLN AVENUE,DANBURY,CT,6810.0,1.0,U,"33 LINCOLN AVENUE,DANBURY,CT",41.3853338,-73.4537445
075355,139 TODDY HILL ROAD,NEWTOWN,CT,6470.0,1.0,U,"139 TODDY HILL ROAD,NEWTOWN,CT",41.383621,-73.2548769
075356,76 WEST ROCKS ROAD,NORWALK,CT,6851.0,1.0,U,"76 WEST ROCKS ROAD,NORWALK,CT",41.1339854,-73.4126195
075357,21 CLIFF STREET,WATERBURY,CT,6710.0,9.0,U,"21 CLIFF STREET,WATERBURY,CT",41.56078481997485,-73.0459742529069
075358,14 MAIN STREET,WINDSOR LOCKS,CT,6096.0,3.0,U,"14 MAIN STREET,WINDSOR LOCKS,CT",41.926011687255375,-72.627397391984
075359,96 PROSPECT HILL RD,EAST WINDSOR,CT,6088.0,3.0,U,"96 PROSPECT HILL RD,EAST WINDSOR,CT",41.92500258440599,-72.60614511421153
075360,146 W BROAD STREET,STAMFORD,CT,6902.0,1.0,U,"146 W BROAD STREET,STAMFORD,CT",41.05612825754511,-73.55104833538567
075361,3 FARM ROAD,NEW CANAAN,CT,6840.0,1.0,U,"3 FARM ROAD,NEW CANAAN,CT",41.128000400000005,-73.49300045058165
075362,88 NOTCH HILL ROAD,NORTH BRANFORD,CT,6471.0,9.0,U,"88 NOTCH HILL ROAD,NORTH BRANFORD,CT",41.316255002928095,-72.75066089128958
075363,582 MERIDEN AVENUE,SOUTHINGTON,CT,6489.0,3.0,U,"582 MERIDEN AVENUE,SOUTHINGTON,CT",41.5826306,-72.8694068
075364,628 CONGDON STREET WEST,MIDDLETOWN,CT,6457.0,7.0,U,"628 CONGDON STREET WEST,MIDDLETOWN,CT",41.569735,-72.700396
075365,380 CROWN STREET,MERIDEN,CT,6450.0,9.0,U,"380 CROWN STREET,MERIDEN,CT",41.52756061113975,-72.80539324162062
075366,1270 SHERMAN LANE,HAMDEN,CT,6514.0,9.0,U,"1270 SHERMAN LANE,HAMDEN,CT",41.391568236010336,-72.92020997745558
075367,350 SALMON BROOK STREET,GRANBY,CT,6035.0,3.0,U,"350 SALMON BROOK STREET,GRANBY,CT",41.95415797959184,-72.78968440816327
075368,172 ROCKY REST ROAD,SHELTON,CT,6484.0,1.0,U,"172 ROCKY REST ROAD,SHELTON,CT",41.28593,-73.0953863
075369,540 BOND STREET,BRIDGEPORT,CT,6610.0,1.0,U,"540 BOND STREET,BRIDGEPORT,CT",41.20079635452784,-73.16688667369168
075370,600 BOND STREET,BRIDGEPORT,CT,6610.0,1.0,U,"600 BOND STREET,BRIDGEPORT,CT",41.20073621989701,-73.16690198747965
075371,990 NORTH MAIN STREET,SOUTHBURY,CT,6488.0,9.0,U,"990 NORTH MAIN STREET,SOUTHBURY,CT",0.0,0.0
075372,5 ROCKWELL TERRACE,NORWICH,CT,6360.0,11.0,U,"5 ROCKWELL TERRACE,NORWICH,CT",41.53439439865378,-72.07931097225058
075373,3396 E MAIN STREET,WATERBURY,CT,6705.0,9.0,U,"3396 E MAIN STREET,WATERBURY,CT",41.54368995407647,-72.97691018264887
075374,50 PULASKI STREET,NEW BRITAIN,CT,6053.0,3.0,U,"50 PULASKI STREET,NEW BRITAIN,CT",41.675502,-72.7983956
075375,23 LIBERTY WAY,NIANTIC,CT,6357.0,11.0,U,"23 LIBERTY WAY,NIANTIC,CT",0.0,0.0
075376,243 STEELE ROAD,W HARTFORD,CT,6117.0,3.0,U,"243 STEELE ROAD,W HARTFORD,CT",41.781198475270976,-72.72430497041628
075377,245 ORANGE AVENUE,MILFORD,CT,6460.0,9.0,U,"245 ORANGE AVENUE,MILFORD,CT",41.23798817190597,-73.05001887633183
075378,1261 SOUTH MAIN STREET,PLANTSVILLE,CT,6479.0,3.0,U,"1261 SOUTH MAIN STREET,PLANTSVILLE,CT",41.5809419,-72.8941322
075379,27 HOSPITAL HILL ROAD,SHARON,CT,6069.0,5.0,R,"27 HOSPITAL HILL ROAD,SHARON,CT",41.879451818130406,-73.48013984351927
075380,156 BERLIN ROAD,CROMWELL,CT,6416.0,7.0,U,"156 BERLIN ROAD,CROMWELL,CT",41.60788455905206,-72.71478017091833
075381,111 CHURCH STREET,MIDDLETOWN,CT,6457.0,7.0,U,"111 CHURCH STREET,MIDDLETOWN,CT",41.555114015782934,-72.65181168604119
075382,26 SHENIPSIT LAKE ROAD,TOLLAND,CT,6084.0,13.0,U,"26 SHENIPSIT LAKE ROAD,TOLLAND,CT",41.87122465486284,-72.41403914052457
075383,200 SEABURY DRIVE,BLOOMFIELD,CT,6002.0,3.0,U,"200 SEABURY DRIVE,BLOOMFIELD,CT",41.8340718,-72.7085987
075384,85 STAGE HARBOR ROAD,MARLBOROUGH,CT,6447.0,3.0,U,"85 STAGE HARBOR ROAD,MARLBOROUGH,CT",41.65008158528403,-72.47542847882683
075385,5 RICHARD BROWN DRIVE,UNCASVILLE,CT,6382.0,11.0,U,"5 RICHARD BROWN DRIVE,UNCASVILLE,CT",0.0,0.0
075386,41 SKOKORAT STREET,SEYMOUR,CT,6483.0,9.0,U,"41 SKOKORAT STREET,SEYMOUR,CT",41.399843,-73.056161
075387,34 MIDROCKS DRIVE,NORWALK,CT,6851.0,1.0,U,"34 MIDROCKS DRIVE,NORWALK,CT",41.1421135,-73.4142783
075388,220 SCOVILLE ROAD,AVON,CT,6001.0,3.0,U,"220 SCOVILLE ROAD,AVON,CT",41.77606124045188,-72.86043360411716
075389,451 NORTH HIGH STREET,EAST HAVEN,CT,6512.0,9.0,U,"451 NORTH HIGH STREET,EAST HAVEN,CT",41.29239527177426,-72.86684606018554
075390,89 WIED DRIVE,NAUGATUCK,CT,6770.0,9.0,U,"89 WIED DRIVE,NAUGATUCK,CT",0.0,0.0
075391,46 MAPLE STREET,KENT,CT,6757.0,5.0,R,"46 MAPLE STREET,KENT,CT",47.2562292,-68.5813383
075392,126 FORD STREET,ANSONIA,CT,6401.0,9.0,U,"126 FORD STREET,ANSONIA,CT",41.33707690009147,-73.0435915098391
075393,256 NEW BRITAIN AVENUE,NEWINGTON,CT,6111.0,3.0,U,"256 NEW BRITAIN AVENUE,NEWINGTON,CT",41.67477345065432,-72.73251450094402
075394,710 LONG RIDGE ROAD,STAMFORD,CT,6902.0,1.0,U,"710 LONG RIDGE ROAD,STAMFORD,CT",41.0935345,-73.5632712
075395,642 DANBURY ROAD,RIDGEFIELD,CT,6877.0,1.0,U,"642 DANBURY ROAD,RIDGEFIELD,CT",41.3237989,-73.47343528733306
075396,102 DYER AVENUE,COLLINSVILLE,CT,6022.0,3.0,U,"102 DYER AVENUE,COLLINSVILLE,CT",41.83102203282916,-72.91959232239027
075397,181 CLIFTON STREET,NEW HAVEN,CT,6513.0,9.0,U,"181 CLIFTON STREET,NEW HAVEN,CT",41.3089845724347,-72.879321509872
075398,1660 STAFFORD AVENUE,BRISTOL,CT,6010.0,3.0,U,"1660 STAFFORD AVENUE,BRISTOL,CT",41.72125718181818,-72.91451981818182
075399,3584 EAST MAIN STREET,WATERBURY,CT,6705.0,9.0,U,"3584 EAST MAIN STREET,WATERBURY,CT",41.54253197258983,-72.96961890717044
075400,13 PARKLAWN DRIVE,BETHEL,CT,6801.0,1.0,U,"13 PARKLAWN DRIVE,BETHEL,CT",0.0,0.0
075401,160 COVENTRY ST,BLOOMFIELD,CT,6002.0,3.0,U,"160 COVENTRY ST,BLOOMFIELD,CT",41.80123505942924,-72.69009615729559
075402,100 WARREN CIRCLE,MANSFIELD,CT,6268.0,13.0,U,"100 WARREN CIRCLE,MANSFIELD,CT",41.79147675,-72.25486274720694
075403,308 SAVIN AVENUE,WEST HAVEN,CT,6516.0,9.0,U,"308 SAVIN AVENUE,WEST HAVEN,CT",41.260718733333334,-72.95093886666666
075404,21 MAEFAIR COURT,TRUMBULL,CT,6611.0,1.0,U,"21 MAEFAIR COURT,TRUMBULL,CT",41.23657351602513,-73.19547476042818
075405,34 WILDWOOD AVENUE,MADISON,CT,6443.0,9.0,U,"34 WILDWOOD AVENUE,MADISON,CT",41.28709166704103,-72.63822867350216
075406,170 SCOTT RD,PROSPECT,CT,6712.0,9.0,U,"170 SCOTT RD,PROSPECT,CT",41.53188338356827,-72.97783038152029
075407,1 EMILY WAY,WEST HARTFORD,CT,6117.0,3.0,U,"1 EMILY WAY,WEST HARTFORD,CT",41.742815,-72.77636
075408,40 ALBERT STREET,NEW HAVEN,CT,6511.0,9.0,U,"40 ALBERT STREET,NEW HAVEN,CT",41.326417956518064,-72.89675393735872
075409,72 CHURCH STREET,PUTNAM,CT,6260.0,15.0,U,"72 CHURCH STREET,PUTNAM,CT",41.9176623,-71.91367428545861
075410,3 SOUTH WIG HILL RD,CHESTER,CT,6412.0,7.0,U,"3 SOUTH WIG HILL RD,CHESTER,CT",41.399952956736485,-72.47502493411451
075411,10 THURBER RD,PUTNAM,CT,6260.0,15.0,U,"10 THURBER RD,PUTNAM,CT",41.927036996594396,-71.85614406144455
075412,7003 MAIN STREET,STRATFORD,CT,6614.0,1.0,U,"7003 MAIN STREET,STRATFORD,CT",41.24830739772076,-73.10157473440923
075413,2875 MAIN STREET,BRIDGEPORT,CT,6606.0,1.0,U,"2875 MAIN STREET,BRIDGEPORT,CT",41.2015,-73.203618
075414,31 STAPLES ST,DANBURY,CT,6810.0,1.0,U,"31 STAPLES ST,DANBURY,CT",41.4053232,-73.4167868
075415,1660 STAFFORD AVENUE,BRISTOL,CT,6010.0,3.0,U,"1660 STAFFORD AVENUE,BRISTOL,CT",41.72125718181818,-72.91451981818182
075416,30 PARK LANE EAST,NEW MILFORD,CT,6776.0,5.0,R,"30 PARK LANE EAST,NEW MILFORD,CT",41.5979613,-73.4019763
075417,60 CROUCH AVENUE,NORWICH,CT,6360.0,11.0,U,"60 CROUCH AVENUE,NORWICH,CT",41.50519590906135,-72.07246163269238
075418,2817 NORTH MAIN STREET,WATERBURY,CT,6704.0,9.0,U,"2817 NORTH MAIN STREET,WATERBURY,CT",41.59314363858692,-73.02667887602027
075419,416 COLT HIGHWAY,FARMINGTON,CT,6032.0,3.0,U,"416 COLT HIGHWAY,FARMINGTON,CT",41.72242051441865,-72.78851573485518
075420,261 SUMMIT STREET,PLANTSVILLE,CT,6479.0,3.0,U,"261 SUMMIT STREET,PLANTSVILLE,CT",0.0,0.0
075421,122 PALMERS HILL RD,STAMFORD,CT,6902.0,1.0,U,"122 PALMERS HILL RD,STAMFORD,CT",41.063708,-73.5659576
075422,1060 MAIN ST,SOUTH WINDSOR,CT,6074.0,3.0,U,"1060 MAIN ST,SOUTH WINDSOR,CT",41.832451196577445,-72.6168662222807
075423,111 WESTCOTT RD,DANIELSON,CT,6239.0,15.0,U,"111 WESTCOTT RD,DANIELSON,CT",41.80927278049767,-71.87438610592793
075424,171 ROPE FERRY RD,WATERFORD,CT,6385.0,11.0,U,"171 ROPE FERRY RD,WATERFORD,CT",41.334358,-72.154393
075425,595 VALLEY STREET,WILLIMANTIC,CT,6226.0,15.0,U,"595 VALLEY STREET,WILLIMANTIC,CT",41.7174273,-72.22879029906522
075426,345 BELDEN HILL ROAD,WILTON,CT,6897.0,1.0,U,"345 BELDEN HILL ROAD,WILTON,CT",41.173087,-73.438678
075427,73 STRAWBERRY HILL AVENUE,NORWALK,CT,6855.0,1.0,U,"73 STRAWBERRY HILL AVENUE,NORWALK,CT",41.1096588,-73.3998526
075428,519 PALISADO AVE,WINDSOR,CT,6095.0,3.0,U,"519 PALISADO AVE,WINDSOR,CT",41.87106318563174,-72.62839374367431
075429,100 REDDING ROAD,WEST REDDING,CT,6896.0,1.0,U,"100 REDDING ROAD,WEST REDDING,CT",41.2599645,-73.4190263
075430,101 MARSHALL LANE,DERBY,CT,6418.0,9.0,U,"101 MARSHALL LANE,DERBY,CT",41.31744019426207,-73.05135954460046
075431,809 R NEW HAVEN ROAD,DURHAM,CT,6422.0,7.0,U,"809 R NEW HAVEN ROAD,DURHAM,CT",41.43889,-72.715672
075432,9 CLIFF ST,WATERBURY,CT,6710.0,9.0,U,"9 CLIFF ST,WATERBURY,CT",41.56066078288323,-73.04593552472232
075433,201 CLINTONVILLE RD,NORTH HAVEN,CT,6473.0,9.0,U,"201 CLINTONVILLE RD,NORTH HAVEN,CT",41.4055069589821,-72.82734391413702
075434,225 BOSTON POST RD,ORANGE,CT,6477.0,9.0,U,"225 BOSTON POST RD,ORANGE,CT",41.2697277,-72.9983955
075435,34 LEVEL ST,NEW HAVEN,CT,6515.0,9.0,U,"34 LEVEL ST,NEW HAVEN,CT",41.3435705735181,-72.96195792951661
075436,171 MAIN ST,EAST WINDSOR,CT,6088.0,3.0,U,"171 MAIN ST,EAST WINDSOR,CT",6.8449495,-58.2359249
075437,186 JERRY BROWNE ROAD,MYSTIC,CT,6355.0,11.0,U,"186 JERRY BROWNE ROAD,MYSTIC,CT",41.370135964250146,-71.94360301132156
075438,5 RICHARD BROWN DRIVE,UNCASVILLE,CT,6382.0,11.0,U,"5 RICHARD BROWN DRIVE,UNCASVILLE,CT",0.0,0.0
075439,320 COLONY STREET,MERIDEN,CT,6450.0,9.0,U,"320 COLONY STREET,MERIDEN,CT",41.545857991321256,-72.79587125325175
075440,3030 PARK AVENUE,BRIDGEPORT,CT,6604.0,1.0,U,"3030 PARK AVENUE,BRIDGEPORT,CT",41.1985198,-73.21846890623073
075441,611 EAST HILL ROAD,SOUTHBURY,CT,6488.0,9.0,U,"611 EAST HILL ROAD,SOUTHBURY,CT",51.648020200000005,-0.050424273820555046
075442,60 WEST STREET,ROCKY HILL,CT,6067.0,3.0,U,"60 WEST STREET,ROCKY HILL,CT",41.654062,-72.643333
075443,287 WEST ST,ROCKY HILL,CT,6067.0,3.0,U,"287 WEST ST,ROCKY HILL,CT",41.6553772,-72.6525927
076502,152 NORWICH-NEW LONDON TNPK,UNCASVILLE,CT,6382.0,11.0,U,"152 NORWICH-NEW LONDON TNPK,UNCASVILLE,CT",0.0,0.0
076503,22 TOMPKINS STREET,WATERBURY,CT,6708.0,9.0,U,"22 TOMPKINS STREET,WATERBURY,CT",41.5744254,-73.0650789
076505,158 STATE STEET,MERIDEN,CT,6450.0,9.0,U,"158 STATE STEET,MERIDEN,CT",0.0,0.0
076506,226 MILL HILL AVE,BRIDGEPORT,CT,6610.0,1.0,U,"226 MILL HILL AVE,BRIDGEPORT,CT",41.189296435196496,-73.16528408951108
076508,3909 MAIN ST,BRIDGEPORT,CT,6606.0,1.0,U,"3909 MAIN ST,BRIDGEPORT,CT",41.2139938,-73.21217221609726
076511,2340 WHITNEY AVE,HAMDEN,CT,6518.0,9.0,U,"2340 WHITNEY AVE,HAMDEN,CT",41.38264814806346,-72.90225259893506
076512,230 GEORGE STREET,NEW HAVEN,CT,6510.0,9.0,U,"230 GEORGE STREET,NEW HAVEN,CT",41.303929,-72.9300477
076513,255 NORTH MAIN ST,BRISTOL,CT,6010.0,3.0,U,"255 NORTH MAIN ST,BRISTOL,CT",41.67679824685759,-72.94707569233829
076514,1445 EAST PUTNAM AVE,OLD GREENWICH,CT,6870.0,1.0,U,"1445 EAST PUTNAM AVE,OLD GREENWICH,CT",41.0463094,-73.5714571
076516,2900 MAIN STREET,STRATFORD,CT,6614.0,1.0,U,"2900 MAIN STREET,STRATFORD,CT",41.200057263181556,-73.1313908030162
076518,205 POMPERAUG PARK,SOUTHBURY,CT,6488.0,9.0,U,"205 POMPERAUG PARK,SOUTHBURY,CT",0.0,0.0
076519,81 HILLSIDE AVENUE,PLYMOUTH,CT,6782.0,5.0,R,"81 HILLSIDE AVENUE,PLYMOUTH,CT",42.0078304,-70.91942999008172
076521,60 CHURCH STREET,YALESVILLE,CT,6492.0,9.0,U,"60 CHURCH STREET,YALESVILLE,CT",41.49376523192078,-72.83155111882773
076522,240 SARGENT DR,NEW HAVEN,CT,6510.0,9.0,U,"240 SARGENT DR,NEW HAVEN,CT",41.292878198008765,-72.92097755280251
076523,MAIN STREET,CANAAN,CT,6018.0,5.0,R,"MAIN STREET,CANAAN,CT",41.9564477,-73.3605821
076524,3018 DIXWELL AVE,HAMDEN,CT,6518.0,9.0,U,"3018 DIXWELL AVE,HAMDEN,CT",41.383268555018674,-72.89944371765874
076525,675 SOUTH MAIN ST,CHESHIRE,CT,6410.0,9.0,U,"675 SOUTH MAIN ST,CHESHIRE,CT",41.48594585013638,-72.90558845010736
076526,169 DAVENPORT AVE,NEW HAVEN,CT,6519.0,9.0,U,"169 DAVENPORT AVE,NEW HAVEN,CT",41.302369420743425,-72.93912613646799
076527,50 HOLLY HILL LANE,GREENWICH,CT,6830.0,1.0,U,"50 HOLLY HILL LANE,GREENWICH,CT",41.0173314,-73.6470862
076528,4 SUMMIT RD,PROSPECT,CT,6712.0,9.0,U,"4 SUMMIT RD,PROSPECT,CT",41.508115000000004,-72.9806145
076529,1266 EAST MAIN ST,STAMFORD,CT,6902.0,1.0,U,"1266 EAST MAIN ST,STAMFORD,CT",41.0603706,-73.5094192
076531,417 HIGHLAND AVE,WATERBURY,CT,6708.0,9.0,U,"417 HIGHLAND AVE,WATERBURY,CT",41.54626046601381,-73.0560594507606
076532,73 CEDAR ST,NEW BRITAIN,CT,6052.0,3.0,U,"73 CEDAR ST,NEW BRITAIN,CT",41.6684301784065,-72.78728823656292
076533,701 COTTAGE GROVE RD,BLOOMFIELD,CT,6002.0,3.0,U,"701 COTTAGE GROVE RD,BLOOMFIELD,CT",41.816885,-72.735468
076534,600 BOND ST,BRIDGEPORT,CT,6610.0,1.0,U,"600 BOND ST,BRIDGEPORT,CT",41.20073621989701,-73.16690198747965
076535,90 MORGAN ST,STAMFORD,CT,6905.0,1.0,U,"90 MORGAN ST,STAMFORD,CT",41.06438315,-73.53660035
076536,1025 SILAS DEANE HWY,WETHERSFIELD,CT,6109.0,3.0,U,"1025 SILAS DEANE HWY,WETHERSFIELD,CT",41.693407886412835,-72.65663291331853
076537,500 CHASE PARKWAY,WATERBURY,CT,6708.0,9.0,U,"500 CHASE PARKWAY,WATERBURY,CT",41.547434,-73.062229
076538,406 FARMINGTON AVE,FARMINGTON,CT,6032.0,3.0,U,"406 FARMINGTON AVE,FARMINGTON,CT",41.6885461201153,-72.78940050676962
076539,38 CONE AVE,MERIDEN,CT,6450.0,9.0,U,"38 CONE AVE,MERIDEN,CT",41.524235947490425,-72.75236600517994
076540,30 GERMANTOWN ROAD,DANBURY,CT,6810.0,1.0,U,"30 GERMANTOWN ROAD,DANBURY,CT",41.4113955,-73.4366912
076541,636 CAMPBELL AVE,WEST HAVEN,CT,6516.0,9.0,U,"636 CAMPBELL AVE,WEST HAVEN,CT",41.2752059523751,-72.95238118110012
076542,75 GREAT POND RD,SIMSBURY,CT,6070.0,3.0,U,"75 GREAT POND RD,SIMSBURY,CT",41.887415,-72.828411
076543,2 CHURCH ST SOUTH,NEW HAVEN,CT,6513.0,9.0,U,"2 CHURCH ST SOUTH,NEW HAVEN,CT",41.302153,-72.93003516333069
076544,"86 BOSTON POST ROAD, SUITE 1",WATERFORD,CT,6385.0,11.0,U,"86 BOSTON POST ROAD, SUITE 1,WATERFORD,CT",0.0,0.0
076545,1940 SILAS DEAN HIGHWAY,ROCKY HILL,CT,6067.0,3.0,U,"1940 SILAS DEAN HIGHWAY,ROCKY HILL,CT",0.0,0.0
076546,1236 MAIN STREET,BRANFORD,CT,6405.0,9.0,U,"1236 MAIN STREET,BRANFORD,CT",41.284168476152644,-72.80991992411069
076547,118 CLINTON AVE,NEW HAVEN,CT,6513.0,9.0,U,"118 CLINTON AVE,NEW HAVEN,CT",41.31258314285714,-72.89134678571428
076548,6 LIBERTY WAY,GREENWICH,CT,6830.0,1.0,U,"6 LIBERTY WAY,GREENWICH,CT",41.027202333333335,-73.62501020833334
076549,115 TECHNOLOGY DRIVE,TRUMBULL,CT,6611.0,1.0,U,"115 TECHNOLOGY DRIVE,TRUMBULL,CT",41.296435349999996,-73.2313962754794
076550,577 SOUTH MAIN STREET,CHESHIRE,CT,6410.0,9.0,U,"577 SOUTH MAIN STREET,CHESHIRE,CT",41.488408950307225,-72.90506612215395
076552,148 EAST AVENUE,NORWALK,CT,6851.0,1.0,U,"148 EAST AVENUE,NORWALK,CT",41.1100517,-73.4093694
076553,1064 EAST MAIN STREET,MERIDEN,CT,6450.0,9.0,U,"1064 EAST MAIN STREET,MERIDEN,CT",41.52623141335532,-72.76748965103803
076554,2285 WHITNEY AVENU,HAMDEN,CT,6518.0,9.0,U,"2285 WHITNEY AVENU,HAMDEN,CT",0.0,0.0
076555,363 REIF ROAD,FAIRFIELD,CT,6430.0,9.0,U,"363 REIF ROAD,FAIRFIELD,CT",0.0,0.0
076556,999 SUMMER STREET,STAMFORD,CT,6905.0,1.0,U,"999 SUMMER STREET,STAMFORD,CT",41.05954971083916,-73.53999198355375
076557,1055 POST ROAD,FAIRFIELD,CT,6430.0,1.0,U,"1055 POST ROAD,FAIRFIELD,CT",41.1452192,-73.2520703
076558,18 SOUTH CENTER STREET,SOUTHINGTON,CT,6489.0,3.0,U,"18 SOUTH CENTER STREET,SOUTHINGTON,CT",41.6001173152061,-72.88363318464108
076559,1291 BOSTON POST ROAD,MADISON,CT,6443.0,9.0,U,"1291 BOSTON POST ROAD,MADISON,CT",41.274137995967045,-72.55758405456348
076560,245 ALVORD PARK ROAD,TORRINGTON,CT,6790.0,15.0,U,"245 ALVORD PARK ROAD,TORRINGTON,CT",41.82832005156155,-73.10034107287201
076561,8 RESEARCH PKWY,WALLINGFORD,CT,6492.0,9.0,U,"8 RESEARCH PKWY,WALLINGFORD,CT",41.4870924,-72.7629296
076562,917 BRIDGEPORT AVENUE,SHELTON,CT,6484.0,1.0,U,"917 BRIDGEPORT AVENUE,SHELTON,CT",41.2621283,-73.1377129
076563,140 GRANDVIEW AVENUE,WATERBURY,CT,6708.0,15.0,U,"140 GRANDVIEW AVENUE,WATERBURY,CT",41.56002477954191,-73.06168144402406
076564,9 ELMWOOD COURT,NEWINGTON,CT,6111.0,3.0,U,"9 ELMWOOD COURT,NEWINGTON,CT",41.72312344962817,-72.71486968992562
076565,171 NORWICH AVENUE,COLCHESTER,CT,6415.0,11.0,U,"171 NORWICH AVENUE,COLCHESTER,CT",41.575095,-72.2848719
076566,255 NORTH MAIN STREET,BRISTOL,CT,6010.0,9.0,U,"255 NORTH MAIN STREET,BRISTOL,CT",41.67679824685759,-72.94707569233829
076567,200 SEABURY DRIVE,BLOOMFIELD,CT,6002.0,15.0,U,"200 SEABURY DRIVE,BLOOMFIELD,CT",41.8340718,-72.7085987
076568,112 SOUTH MAIN STREET,UNIONVILLE,CT,6085.0,3.0,U,"112 SOUTH MAIN STREET,UNIONVILLE,CT",41.754662206101244,-72.88692304670685
076569,668 BANK STREET,NEW LONDON,CT,6320.0,11.0,U,"668 BANK STREET,NEW LONDON,CT",41.34952591895928,-72.10385652225101
076570,158 SOUTH BROAD STREET,PAWCATUCK,CT,6379.0,11.0,U,"158 SOUTH BROAD STREET,PAWCATUCK,CT",41.369780066955684,-71.85941323336297
076571,545 PALISADO AVENUE,WINDSOR,CT,6095.0,9.0,U,"545 PALISADO AVENUE,WINDSOR,CT",41.87253823154425,-72.62809148453718
076572,7 ELM STREET,ENFIELD,CT,6082.0,3.0,U,"7 ELM STREET,ENFIELD,CT",41.99866323936158,-72.59379770713898
076573,15 MASSIRIO DRIVE,BERLIN,CT,6037.0,3.0,U,"15 MASSIRIO DRIVE,BERLIN,CT",41.63135147201831,-72.75410636079187
076574,4675 MAIN STREET,BRIDGEPORT,CT,6606.0,1.0,U,"4675 MAIN STREET,BRIDGEPORT,CT",41.2233582,-73.21903602625918
076575,2021 ALBANY AVENUE,WEST HARTFORD,CT,6117.0,15.0,U,"2021 ALBANY AVENUE,WEST HARTFORD,CT",41.7861608,-72.7285356
076576,9 DOG LANE SUITE 108,STORRS,CT,6268.0,13.0,U,"9 DOG LANE SUITE 108,STORRS,CT",0.0,0.0
076577,22 TOMPKINS STREET,WATERBURY,CT,6708.0,15.0,U,"22 TOMPKINS STREET,WATERBURY,CT",41.5744254,-73.0650789
076578,375 EAST CEDAR STREET,NEWINGTON,CT,6111.0,3.0,U,"375 EAST CEDAR STREET,NEWINGTON,CT",41.69788132443541,-72.71020559365157
076579,29 NORTH MAIN STREET,WEST HARTFORD,CT,6107.0,3.0,U,"29 NORTH MAIN STREET,WEST HARTFORD,CT",41.763561,-72.742044
076580,715 LAKEWOOD ROAD,WATERBURY,CT,6704.0,15.0,U,"715 LAKEWOOD ROAD,WATERBURY,CT",41.57241,-73.009639
076581,975 ORONOQUE LANE,STRATFORD,CT,6614.0,1.0,U,"975 ORONOQUE LANE,STRATFORD,CT",41.248644219565165,-73.10372749076208
076582,158 STATE STREET,MERIDEN,CT,6450.0,9.0,U,"158 STATE STREET,MERIDEN,CT",41.54210626462289,-72.79721617782819
076583,27 SIEMON COMPANY DRIVE,WATERTOWN,CT,6795.0,5.0,R,"27 SIEMON COMPANY DRIVE,WATERTOWN,CT",41.6022595,-73.1120657
076584,59 HARRINGTON COURT,COLCHESTER,CT,6415.0,11.0,U,"59 HARRINGTON COURT,COLCHESTER,CT",41.57746235781242,-72.33195258665235
076585,628 CONGDON STREET WEST,MIDDLETOWN,CT,6457.0,7.0,U,"628 CONGDON STREET WEST,MIDDLETOWN,CT",41.569735,-72.700396
076586,20 DEVONWOOD DRIVE,FARMINGTON,CT,6032.0,3.0,U,"20 DEVONWOOD DRIVE,FARMINGTON,CT",41.7388703158045,-72.84234437299477
076587,"302 WEST MAIN STREET, SUITE 204",AVON,CT,6001.0,3.0,U,"302 WEST MAIN STREET, SUITE 204,AVON,CT",0.0,0.0
076588,"843 BOLTON ROAD, U1249",STORRS,CT,6269.0,13.0,U,"843 BOLTON ROAD, U1249,STORRS,CT",0.0,0.0
076589,77 THIRD STREET,STAMFORD,CT,6905.0,1.0,U,"77 THIRD STREET,STAMFORD,CT",0.0,0.0
076590,255 NORTH MAIN STREET,BRISTOL,CT,6010.0,3.0,U,"255 NORTH MAIN STREET,BRISTOL,CT",41.67679824685759,-72.94707569233829
076591,113 ELM STREET,ENFIELD,CT,6082.0,3.0,U,"113 ELM STREET,ENFIELD,CT",41.997978,-72.58417800000001
076592,999 ORONOQUE LANE,STRATFORD,CT,6614.0,1.0,U,"999 ORONOQUE LANE,STRATFORD,CT",41.247867049999996,-73.10357303079819
076593,251 TURN OF RIVER ROAD,STAMFORD,CT,6905.0,1.0,U,"251 TURN OF RIVER ROAD,STAMFORD,CT",41.1110149,-73.5434087
076594,"360 TOLLAND TNPK, SUITE 2E",MANCHESTER,CT,6042.0,3.0,U,"360 TOLLAND TNPK, SUITE 2E,MANCHESTER,CT",0.0,0.0
076595,"6949 MAIN STREET, C/O SPRING MEADOWS AT TRUMBULL",TRUMBULL,CT,6611.0,1.0,U,"6949 MAIN STREET, C/O SPRING MEADOWS AT TRUMBULL,TRUMBULL,CT",0.0,0.0
076596,"505 WILLARD AVENUE, SUITE 1D",NEWINGTON,CT,6111.0,3.0,U,"505 WILLARD AVENUE, SUITE 1D,NEWINGTON,CT",0.0,0.0
077001,3060 MAIN STREET,STRATFORD,CT,6614.0,1.0,U,"3060 MAIN STREET,STRATFORD,CT",41.20201000556086,-73.13106826629594
077002,80 MERIDEN AVE,SOUTHINGTON,CT,6489.0,3.0,U,"80 MERIDEN AVE,SOUTHINGTON,CT",41.595022925925925,-72.87615377777777
077003,8 KEYNOTE DRIVE,VERNON,CT,6066.0,13.0,U,"8 KEYNOTE DRIVE,VERNON,CT",41.833834678217315,-72.46760944589214
077004,1100 SHERMAN AVENUE,HAMDEN,CT,6514.0,9.0,U,"1100 SHERMAN AVENUE,HAMDEN,CT",41.396044636349174,-72.91995194894712
077005,76 BATTERSON PARK ROAD,FARMINGTON,CT,6032.0,3.0,U,"76 BATTERSON PARK ROAD,FARMINGTON,CT",41.71190515292234,-72.79494671226942
077006,753 BOSTON POST ROAD,GUILFORD,CT,6437.0,9.0,U,"753 BOSTON POST ROAD,GUILFORD,CT",41.28890882133851,-72.67538639720156
077007,MAIN ST BOX 132,HIGGANUM,CT,6441.0,7.0,U,"MAIN ST BOX 132,HIGGANUM,CT",0.0,0.0
077009,866 BOSTON POST ROAD,WESTBROOK,CT,6498.0,7.0,U,"866 BOSTON POST ROAD,WESTBROOK,CT",41.28097037813611,-72.45843639616115
077010,137 EAST AVE,NORWALK,CT,6851.0,1.0,U,"137 EAST AVE,NORWALK,CT",41.112360532667246,-73.40759328298584
077011,120 BROAD ST,NEW LONDON,CT,6320.0,11.0,U,"120 BROAD ST,NEW LONDON,CT",41.53451065,-72.07478910918337
077012,"ONE LONG WHARF DRIVE, SUITE 501",NEW HAVEN,CT,6511.0,9.0,U,"ONE LONG WHARF DRIVE, SUITE 501,NEW HAVEN,CT",0.0,0.0
077015,403 N FRONTAGE ROAD,WATERFORD,CT,6385.0,11.0,U,"403 N FRONTAGE ROAD,WATERFORD,CT",41.3712409,-72.1233388
077016,"111 FOUNDERS PLAZA, SUITE 200",EAST HARTFORD,CT,6108.0,3.0,U,"111 FOUNDERS PLAZA, SUITE 200,EAST HARTFORD,CT",0.0,0.0
077017,34 LEDGEBROOK DR,MANSFIELD CENTER,CT,6250.0,13.0,U,"34 LEDGEBROOK DR,MANSFIELD CENTER,CT",41.73347041688673,-72.20464221488416
077019,41 CHURCH RD,CLINTON,CT,6413.0,7.0,U,"41 CHURCH RD,CLINTON,CT",41.279122709497706,-72.52281590223738
077020,240 KENSINGTON RD,BERLIN,CT,6037.0,3.0,U,"240 KENSINGTON RD,BERLIN,CT",41.6276668,-72.7707044
077021,969 HEBRON AVE,GLASTONBURY,CT,6033.0,3.0,U,"969 HEBRON AVE,GLASTONBURY,CT",41.71732645,-72.57521812401934
077024,450 SOUTH ST,SUFFIELD,CT,6078.0,3.0,U,"450 SOUTH ST,SUFFIELD,CT",41.97104252420635,-72.66015941223975
077025,40 LINDEMAN DRIVE,TRUMBULL,CT,6611.0,1.0,U,"40 LINDEMAN DRIVE,TRUMBULL,CT",41.231990268104646,-73.2011841851123
077026,205 WEST MAIN ST,NEW BRITAIN,CT,6052.0,3.0,U,"205 WEST MAIN ST,NEW BRITAIN,CT",41.666265347117516,-72.78822120817574
077027,763 MAIN ST,WILLIMANTIC,CT,6226.0,15.0,U,"763 MAIN ST,WILLIMANTIC,CT",41.71194759776594,-72.21243659111131
077028,765 FAIRFIELD AVE,BRIDGEPORT,CT,6604.0,1.0,U,"765 FAIRFIELD AVE,BRIDGEPORT,CT",41.174389000000005,-73.19959799935552
077029,RT99 PO BX 5,HAMPTON,CT,6247.0,15.0,U,"RT99 PO BX 5,HAMPTON,CT",0.0,0.0
077033,305 MAIN STREET,OLD SAYBROOK,CT,6475.0,7.0,U,"305 MAIN STREET,OLD SAYBROOK,CT",41.28787155303836,-72.37575383431744
077034,8 OLD MILL LN,SIMSBURY,CT,6070.0,3.0,U,"8 OLD MILL LN,SIMSBURY,CT",41.871680344680755,-72.8106585452943
077035,305 MAIN ST,OLD SAYBROOK,CT,6475.0,7.0,U,"305 MAIN ST,OLD SAYBROOK,CT",41.28787155303836,-72.37575383431744
077036,1100 SHERMAN AVE,HAMDEN,CT,6514.0,9.0,U,"1100 SHERMAN AVE,HAMDEN,CT",41.396044636349174,-72.91995194894712
077038,"607 BANTAM ROAD, UNIT F",BANTAM,CT,6750.0,5.0,R,"607 BANTAM ROAD, UNIT F,BANTAM,CT",0.0,0.0
077039,29 MAIN ST,CHESHIRE,CT,6410.0,9.0,U,"29 MAIN ST,CHESHIRE,CT",53.293874450000004,-2.731086659431025
077041,1 NORTHWESTERN DRIVE SUITE 101,BLOOMFIELD,CT,6002.0,3.0,U,"1 NORTHWESTERN DRIVE SUITE 101,BLOOMFIELD,CT",0.0,0.0
077042,195 MALTBY ST,BRISTOL,CT,6010.0,3.0,U,"195 MALTBY ST,BRISTOL,CT",41.70134375,-72.91362009811947
077043,309 MAIN ST,PORTLAND,CT,6480.0,7.0,U,"309 MAIN ST,PORTLAND,CT",41.57689444158022,-72.6375591821462
077044,47 TOWN STREET,NORWICH,CT,6360.0,11.0,U,"47 TOWN STREET,NORWICH,CT",41.5471395904631,-72.09230680055464
077045,1 RESEARCH PARKWAY,MERIDEN,CT,6450.0,9.0,U,"1 RESEARCH PARKWAY,MERIDEN,CT",41.525418,-72.760056
077047,135 NORTH PLAINS INDUSTRIAL HIGHWAY,WALLINGFORD,CT,6492.0,9.0,U,"135 NORTH PLAINS INDUSTRIAL HIGHWAY,WALLINGFORD,CT",0.0,0.0
077048,1009 SULLIVAN AVENUE,SOUTH WINDSOR,CT,6074.0,3.0,U,"1009 SULLIVAN AVENUE,SOUTH WINDSOR,CT",41.84599957931992,-72.56234598709386
077049,500 BRIDGE STREET,GROTON,CT,6340.0,11.0,U,"500 BRIDGE STREET,GROTON,CT",41.3612672,-72.0674739
077050,56 MINERVA ST,DERBY,CT,6418.0,9.0,U,"56 MINERVA ST,DERBY,CT",41.321285,-73.088491
077055,303 NORWICH/NEW LONDON TPK,UNCASVILLE,CT,6382.0,11.0,U,"303 NORWICH/NEW LONDON TPK,UNCASVILLE,CT",41.43471998044538,-72.10972981994573
077061,157 LITCHFIELD ST,TORRINGTON,CT,6790.0,5.0,R,"157 LITCHFIELD ST,TORRINGTON,CT",41.7983823450477,-73.12312534356144
077063,68 PARK LANE RD,NEW MILFORD,CT,6776.0,5.0,R,"68 PARK LANE RD,NEW MILFORD,CT",41.5987162,-73.4064231
077065,741 COLONEL  LEDYARD HWY,LEDYARD,CT,6339.0,11.0,U,"741 COLONEL  LEDYARD HWY,LEDYARD,CT",41.443008780022865,-72.01744809308576
077066,27 GOVERNOR STREET,RIDGEFIELD,CT,6877.0,1.0,U,"27 GOVERNOR STREET,RIDGEFIELD,CT",41.28100131808493,-73.49202835914566
077067,220 ALBANY TURNPIKE,CANTON,CT,6019.0,3.0,U,"220 ALBANY TURNPIKE,CANTON,CT",41.8264652,-72.8984454
077068,20 SOUTH ANGUILLA RD,PAWCATUCK,CT,6379.0,11.0,U,"20 SOUTH ANGUILLA RD,PAWCATUCK,CT",41.363834707207104,-71.87287172607405
077071,103 SOUTH AVE,NEW CANAAN,CT,6840.0,1.0,U,"103 SOUTH AVE,NEW CANAAN,CT",41.1432388,-73.4925983
077072,1 MAIN ST PO BX 429,BALTIC,CT,6330.0,11.0,U,"1 MAIN ST PO BX 429,BALTIC,CT",0.0,0.0
077073,"HOLLY GREEN COMPLEX-UNIT 2F, RTE 2, P",NORTH STONINGTON,CT,6359.0,11.0,U,"HOLLY GREEN COMPLEX-UNIT 2F, RTE 2, P,NORTH STONINGTON,CT",0.0,0.0
077074,22 DANBURY ROAD,WILTON,CT,6897.0,1.0,U,"22 DANBURY ROAD,WILTON,CT",41.16404504653221,-73.4184678653886
077075,545 NORTH MAIN STREET,MANCHESTER,CT,6040.0,3.0,U,"545 NORTH MAIN STREET,MANCHESTER,CT",41.79529106223483,-72.53528618471194
077077,669 BOSTON POST RD,GUILFORD,CT,6437.0,9.0,U,"669 BOSTON POST RD,GUILFORD,CT",41.28887323981005,-72.6706233020498
077078,605A ORANGE CENTER RD,ORANGE,CT,6477.0,9.0,U,"605A ORANGE CENTER RD,ORANGE,CT",41.278244,-73.025586
077079,61 MAIN ST,CENTERBROOK,CT,6409.0,7.0,U,"61 MAIN ST,CENTERBROOK,CT",41.3515791,-72.4158906
077081,CHURH ST-TOWN OFFICE BLDG,WINDSOR LOCKS,CT,6096.0,3.0,U,"CHURH ST-TOWN OFFICE BLDG,WINDSOR LOCKS,CT",0.0,0.0
077082,TOWN HALL 1 MONTEITH DR,FARMINGTON,CT,6032.0,3.0,U,"TOWN HALL 1 MONTEITH DR,FARMINGTON,CT",41.7483617,-72.8669884
077084,15 N GRANBY RD,GRANBY,CT,6035.0,3.0,U,"15 N GRANBY RD,GRANBY,CT",41.955181499999995,-72.79269831492783
077085,27 SIEMON COMPANY DRIVE,WATERTOWN,CT,6795.0,5.0,R,"27 SIEMON COMPANY DRIVE,WATERTOWN,CT",41.6022595,-73.1120657
077086,770 SAYBROOK ROAD,MIDDLETOWN,CT,6457.0,7.0,U,"770 SAYBROOK ROAD,MIDDLETOWN,CT",41.536969,-72.615947
077088,100 SAW MILL ROAD,DANBURY,CT,6810.0,1.0,U,"100 SAW MILL ROAD,DANBURY,CT",41.38215523291345,-73.53622408200943
077089,32 UNION ST,WINSTED,CT,6098.0,5.0,R,"32 UNION ST,WINSTED,CT",41.921346875,-73.07207518749999
077090,68 ASHLAND STREET,JEWETT CITY,CT,6351.0,11.0,U,"68 ASHLAND STREET,JEWETT CITY,CT",41.60559885,-71.9785425779625
077092,180 BAYBERRY LANE,WESTPORT,CT,6880.0,1.0,U,"180 BAYBERRY LANE,WESTPORT,CT",41.1709457,-73.329562
077095,244 MAIN STREET,TERRYVILLE,CT,6786.0,5.0,R,"244 MAIN STREET,TERRYVILLE,CT",41.67898427224957,-73.01246104109465
077096,1029 EAST MAIN STREET,STAMFORD,CT,6911.0,1.0,U,"1029 EAST MAIN STREET,STAMFORD,CT",41.0563441,-73.5185257
077097,32 S MAIN STREET,PUTNAM,CT,6260.0,15.0,U,"32 S MAIN STREET,PUTNAM,CT",41.91455876347606,-71.90865992434605
077099,25 VALLEY DRIVE,GREENWICH,CT,6830.0,1.0,U,"25 VALLEY DRIVE,GREENWICH,CT",41.0202548,-73.6447963
077100,"15 ROPE FERRY RD, P O  BOX 264",WATERFORD,CT,6385.0,11.0,U,"15 ROPE FERRY RD, P O  BOX 264,WATERFORD,CT",0.0,0.0
077105,COMMUNITY AVE,PLAINFIELD,CT,6374.0,15.0,U,"COMMUNITY AVE,PLAINFIELD,CT",41.6750346,-71.9186644
077108,789 HOWARD AVE,NEW HAVEN,CT,6504.0,9.0,U,"789 HOWARD AVE,NEW HAVEN,CT",41.301984399999995,-72.93492115182733
077110,127 NORWICH AVE SUITE 115,COLCHESTER,CT,6415.0,11.0,U,"127 NORWICH AVE SUITE 115,COLCHESTER,CT",0.0,0.0
077111,134 MAIN ST,SOUTHBURY,CT,6488.0,9.0,U,"134 MAIN ST,SOUTHBURY,CT",0.0,0.0
077112,30A  SALMON KILL RD,SALISBURY,CT,6068.0,5.0,R,"30A  SALMON KILL RD,SALISBURY,CT",41.975254626120325,-73.42101254289369
077113,70 STONY HILL ROAD,BETHEL,CT,6801.0,1.0,U,"70 STONY HILL ROAD,BETHEL,CT",41.4147117,-73.379752
077114,56 HIGH STREET,DEEP RIVER,CT,6417.0,7.0,U,"56 HIGH STREET,DEEP RIVER,CT",41.38679395216125,-72.43307011085479
077115,131 NEW MILFORD TURNPIKE,NEW PRESTON,CT,6777.0,5.0,R,"131 NEW MILFORD TURNPIKE,NEW PRESTON,CT",41.670429805041664,-73.35788734211732
077118,600 RUBBER AVENUE,NAUGATUCK,CT,6770.0,9.0,U,"600 RUBBER AVENUE,NAUGATUCK,CT",41.491259,-73.075357
077119,100 DOUBLE BEACH ROAD,BRANFORD,CT,6405.0,9.0,U,"100 DOUBLE BEACH ROAD,BRANFORD,CT",41.2558341,-72.8325333
077120,"111 FOUNDERS PLAZA, SUITE 200",EAST HARTFORD,CT,6108.0,3.0,U,"111 FOUNDERS PLAZA, SUITE 200,EAST HARTFORD,CT",0.0,0.0
077122,BREWSTER RD,BRISTOL,CT,6010.0,3.0,U,"BREWSTER RD,BRISTOL,CT",41.677214,-72.9327925
077123,144 SOUTH MAIN STREET,WEST HARTFORD,CT,6107.0,3.0,U,"144 SOUTH MAIN STREET,WEST HARTFORD,CT",41.752120990850564,-72.74393152041235
077124,33 NORTH PLAINS INDUSTRIAL ROAD,WALLINGFORD,CT,6492.0,9.0,U,"33 NORTH PLAINS INDUSTRIAL ROAD,WALLINGFORD,CT",41.48542667796838,-72.81389033076273
077125,326 WASHINGTON ST,NORWICH,CT,6360.0,11.0,U,"326 WASHINGTON ST,NORWICH,CT",41.54273245,-72.08868694772954
077126,150 HARTFORD AVENUE,WETHERSFIELD,CT,6109.0,3.0,U,"150 HARTFORD AVENUE,WETHERSFIELD,CT",41.717345420305215,-72.65842297431192
077127,464 OCEAN AVENUE,NEW LONDON,CT,6320.0,11.0,U,"464 OCEAN AVENUE,NEW LONDON,CT",41.33359250311309,-72.10425670885807
077128,5 JUDSON PLACE,BRIDGEPORT,CT,6606.0,1.0,U,"5 JUDSON PLACE,BRIDGEPORT,CT",41.18881513057551,-73.16317175699864
077129,80 CLINTON ST,BRIDGEPORT,CT,6604.0,1.0,U,"80 CLINTON ST,BRIDGEPORT,CT",0.0,0.0
077130,527 WOLCOTT ST,WATERBURY,CT,6705.0,9.0,U,"527 WOLCOTT ST,WATERBURY,CT",41.55605943589743,-73.01417556410256
077131,345 HIGHLAND AVE-SUITE 201,CHESHIRE,CT,6410.0,9.0,U,"345 HIGHLAND AVE-SUITE 201,CHESHIRE,CT",0.0,0.0
077132,929 KINGS HIGHWAY EAST,FAIRFIELD,CT,6430.0,1.0,U,"929 KINGS HIGHWAY EAST,FAIRFIELD,CT",41.16695435,-73.23325064038684
077133,541 WOLCOTT STREET,WATERBURY,CT,6705.0,9.0,U,"541 WOLCOTT STREET,WATERBURY,CT",41.556887394221555,-73.01354690039162
077134,231 FARMINGTON AVE,FARMINGTON,CT,6032.0,3.0,U,"231 FARMINGTON AVE,FARMINGTON,CT",41.73835214136292,-72.79301716787485
077135,12 CASE ST   SUITE 215,NORWICH,CT,6360.0,11.0,U,"12 CASE ST   SUITE 215,NORWICH,CT",0.0,0.0
077136,"68 SOUTHFIELD AVENUE, SUITE 215",STAMFORD,CT,6902.0,1.0,U,"68 SOUTHFIELD AVENUE, SUITE 215,STAMFORD,CT",0.0,0.0
077137,580 BROAD STREET SUITE 202,BRISTOL,CT,6010.0,3.0,U,"580 BROAD STREET SUITE 202,BRISTOL,CT",0.0,0.0
077141,1007 FARMINGTON AVE,WEST HARTFORD,CT,6107.0,3.0,U,"1007 FARMINGTON AVE,WEST HARTFORD,CT",41.760649110219944,-72.74607724808158
077142,1115 MAIN STREET - SUITE 412,BRIDGEPORT,CT,6604.0,1.0,U,"1115 MAIN STREET - SUITE 412,BRIDGEPORT,CT",0.0,0.0
077143,309 SEASIDE AVE,MILFORD,CT,6460.0,9.0,U,"309 SEASIDE AVE,MILFORD,CT",41.21683536015049,-73.0640253913613
077144,1266 EAST MAIN STREET,STAMFORD,CT,6902.0,1.0,U,"1266 EAST MAIN STREET,STAMFORD,CT",41.0603706,-73.5094192
077146,1010 WETHERSFIELD AVENUE,HARTFORD,CT,6114.0,3.0,U,"1010 WETHERSFIELD AVENUE,HARTFORD,CT",41.72832847557311,-72.66811815420279
077147,2 BARNARD LN,BLOOMFIELD,CT,6002.0,3.0,U,"2 BARNARD LN,BLOOMFIELD,CT",41.828801,-72.737582
077148,750 OLD MAIN ST,ROCKY HILL,CT,6067.0,3.0,U,"750 OLD MAIN ST,ROCKY HILL,CT",41.66677150439531,-72.63749282527499
077150,499 FARMINGTON AVE,HARTFORD,CT,6105.0,3.0,U,"499 FARMINGTON AVE,HARTFORD,CT",41.766476,-72.708442
077153,5 HILLANDALE AVE,STAMFORD,CT,6902.0,1.0,U,"5 HILLANDALE AVE,STAMFORD,CT",41.0599583,-73.5333686
077154,3589 MAIN ST,STAMFORD,CT,6497.0,1.0,U,"3589 MAIN ST,STAMFORD,CT",41.0528833,-73.5425802
077155,2320 MAIN ST,BRIDGEPORT,CT,6606.0,1.0,U,"2320 MAIN ST,BRIDGEPORT,CT",41.194614832471544,-73.19882374881702
077156,59 AMITY RD,NEW HAVEN,CT,6525.0,9.0,U,"59 AMITY RD,NEW HAVEN,CT",41.335414173913044,-72.97768232608696
077157,243 FARMINGTON AVE,HARTFORD,CT,6105.0,3.0,U,"243 FARMINGTON AVE,HARTFORD,CT",41.767607815810116,-72.69744715888547
077158,1344 SILAS DEANE HIGHWAY SUITE 512,ROCKY HILL,CT,6067.0,3.0,U,"1344 SILAS DEANE HIGHWAY SUITE 512,ROCKY HILL,CT",0.0,0.0
077159,"97 BARNES RD, STE 4",WALLINGFORD,CT,6492.0,9.0,U,"97 BARNES RD, STE 4,WALLINGFORD,CT",41.485626929846056,-72.80342612036893
077160,100 GRAND ST,NEW BRITAIN,CT,6050.0,3.0,U,"100 GRAND ST,NEW BRITAIN,CT",41.66138145,-72.78671157363726
077161,"TWO HARTFORD SQUARE WEST, SUITE 300",HARTFORD,CT,6106.0,3.0,U,"TWO HARTFORD SQUARE WEST, SUITE 300,HARTFORD,CT",0.0,0.0
077162,30 STANFORD DRIVE,FARMINGTON,CT,6032.0,3.0,U,"30 STANFORD DRIVE,FARMINGTON,CT",41.711007576671385,-72.81228601039086
077163,"2 TRAP FALLS ROAD, SUITE 412",SHELTON,CT,6484.0,1.0,U,"2 TRAP FALLS ROAD, SUITE 412,SHELTON,CT",0.0,0.0
077164,50 YORK ST,NEW HAVEN,CT,6511.0,9.0,U,"50 YORK ST,NEW HAVEN,CT",41.30511752247438,-72.93418225891861
077165,733 SUMMER STREET,STAMFORD,CT,6901.0,1.0,U,"733 SUMMER STREET,STAMFORD,CT",41.0584055,-73.5396706
077166,75 GREAT POND RD,SIMSBURY,CT,6070.0,3.0,U,"75 GREAT POND RD,SIMSBURY,CT",41.887415,-72.828411
077168,665 FOXON RD,EAST HAVEN,CT,6513.0,9.0,U,"665 FOXON RD,EAST HAVEN,CT",41.321991153846156,-72.8577407076923
077169,40 RICHARDS STREET,NORWALK,CT,6854.0,1.0,U,"40 RICHARDS STREET,NORWALK,CT",0.0,0.0
077170,33 NORTH PLAINS INDUSTRIAL ROAD,WALLINGFORD,CT,6492.0,9.0,U,"33 NORTH PLAINS INDUSTRIAL ROAD,WALLINGFORD,CT",41.48542667796838,-72.81389033076273
077171,72 GRAY'S BRIDGE R0AD,BROOKFIELD,CT,6804.0,1.0,U,"72 GRAY'S BRIDGE R0AD,BROOKFIELD,CT",0.0,0.0
077172,30 MILESTONE ROAD,DANBURY,CT,6810.0,1.0,U,"30 MILESTONE ROAD,DANBURY,CT",41.386032799999995,-73.51873524454176
077173,267 FINCH AVE,MERIDEN,CT,6450.0,9.0,U,"267 FINCH AVE,MERIDEN,CT",41.539044272388665,-72.85194556778289
077174,195 FARMINGTON AVE SUITE 3L0,FARMINGTON,CT,6032.0,3.0,U,"195 FARMINGTON AVE SUITE 3L0,FARMINGTON,CT",0.0,0.0
077175,56 QUARRY ROAD,TRUMBULL,CT,6611.0,1.0,U,"56 QUARRY ROAD,TRUMBULL,CT",41.227193,-73.181542
077176,8 OLD MILL LANE,SIMBURY,CT,6070.0,3.0,U,"8 OLD MILL LANE,SIMBURY,CT",0.0,0.0
077177,227 DUNHAM STREET,NORWICH,CT,6360.0,11.0,U,"227 DUNHAM STREET,NORWICH,CT",41.515719,-72.095885
077178,136 BERLIN RD,CROMWELL,CT,6416.0,7.0,U,"136 BERLIN RD,CROMWELL,CT",41.60793738342184,-72.71494814054363
077179,103 WOODLAND STREET,HARTFORD,CT,6105.0,3.0,U,"103 WOODLAND STREET,HARTFORD,CT",41.77669492105263,-72.69975310526316
077180,26 LUDLOW STREET,WATERBURY,CT,6710.0,9.0,U,"26 LUDLOW STREET,WATERBURY,CT",41.56502488992647,-73.04932070605423
077181,60 KATONA DRIVE,FAIRFIELD,CT,6824.0,1.0,U,"60 KATONA DRIVE,FAIRFIELD,CT",41.179169849999994,-73.24718065451768
077182,705 NEW BRITAIN AVE,HARTFORD,CT,6106.0,3.0,U,"705 NEW BRITAIN AVE,HARTFORD,CT",41.73316166666667,-72.70577233333333
077183,2710 NORTH AVENUE,BRIDGEPORT,CT,6604.0,1.0,U,"2710 NORTH AVENUE,BRIDGEPORT,CT",41.1768578,-73.2217034
077184,1383 SUMMER ST,STAMFORD,CT,6905.0,1.0,U,"1383 SUMMER ST,STAMFORD,CT",41.06244129600504,-73.54197923255474
077185,525 PALISADO AVENUE,WINDSOR,CT,6095.0,3.0,U,"525 PALISADO AVENUE,WINDSOR,CT",41.87140358084232,-72.62832399156574
077186,200 CASCADE BLVD,MILFORD,CT,6460.0,1.0,U,"200 CASCADE BLVD,MILFORD,CT",41.247013645403925,-73.00505884393458
077187,5 WEST MAIN STREET,HEBRON,CT,6248.0,13.0,U,"5 WEST MAIN STREET,HEBRON,CT",41.657953129432556,-72.36700389509755
077188,433 S MAIN ST,W HARTFORD,CT,6110.0,3.0,U,"433 S MAIN ST,W HARTFORD,CT",41.733181110808054,-72.74315223083127
077189,8 NORTH MAIN ST,W HARTFORD,CT,6107.0,3.0,U,"8 NORTH MAIN ST,W HARTFORD,CT",41.76260000426893,-72.74174928895214
077190,PO BOX 435 50 WASHINGTON ST,NORWALK,CT,6856.0,1.0,U,"PO BOX 435 50 WASHINGTON ST,NORWALK,CT",0.0,0.0
077191,21 HIGH ST,EAST HARTFORD,CT,6118.0,3.0,U,"21 HIGH ST,EAST HARTFORD,CT",41.74559046425665,-72.634815781121
077192,180 SCHOOL ROAD,WILTON,CT,6897.0,1.0,U,"180 SCHOOL ROAD,WILTON,CT",41.20690109529014,-73.44476921990926
077193,2 WINTONBURY MALL,BLOOMFIELD,CT,6002.0,3.0,U,"2 WINTONBURY MALL,BLOOMFIELD,CT",0.0,0.0
077194,75 KINGS HIGHWAY CUTOFF,FAIRFIELD,CT,6430.0,1.0,U,"75 KINGS HIGHWAY CUTOFF,FAIRFIELD,CT",41.16185067108053,-73.2385541110648
077195,49 SPENCER ST,WINSTED,CT,6098.0,5.0,R,"49 SPENCER ST,WINSTED,CT",41.92815343226551,-73.07572588166505
077196,1470 BARNHAM AVENUE,BRIDGEPORT,CT,6610.0,1.0,U,"1470 BARNHAM AVENUE,BRIDGEPORT,CT",0.0,0.0
077197,"665 FOXON ROAD, SUITE B",EAST HAVEN,CT,6512.0,1.0,U,"665 FOXON ROAD, SUITE B,EAST HAVEN,CT",0.0,0.0
077198,"32 VALLEY STREET, STE D,",BRISTOL,CT,6010.0,3.0,U,"32 VALLEY STREET, STE D,,BRISTOL,CT",41.67635888702873,-72.94799192399205
077199,999 ORONOQUE LANE,STRATFORD,CT,6614.0,1.0,U,"999 ORONOQUE LANE,STRATFORD,CT",41.247867049999996,-73.10357303079819
077200,14 WESTPORT AVENUE,NORWALK,CT,6851.0,1.0,U,"14 WESTPORT AVENUE,NORWALK,CT",41.1209493,-73.4061648
077201,1290 SILAS DEANE HIGHWAY,WETHERSFIELD,CT,6109.0,3.0,U,"1290 SILAS DEANE HIGHWAY,WETHERSFIELD,CT",41.6862287,-72.6539931
077202,"160 WEST STREET BLDG 1, SUITE C",CROMWELL,CT,6416.0,7.0,U,"160 WEST STREET BLDG 1, SUITE C,CROMWELL,CT",0.0,0.0
077203,622 CLINTON AVENUE,BRIDGEPORT,CT,6605.0,1.0,U,"622 CLINTON AVENUE,BRIDGEPORT,CT",41.1757708316394,-73.21107491333507
077204,412 TEMPLE ST,NEW HAVEN,CT,6511.0,9.0,U,"412 TEMPLE ST,NEW HAVEN,CT",41.312023795918364,-72.9229093877551
077205,999 ORONOQUE LANE,STRATFORD,CT,6614.0,1.0,U,"999 ORONOQUE LANE,STRATFORD,CT",41.247867049999996,-73.10357303079819
077206,137 EAST AVENUE,NORWALK,CT,6851.0,1.0,U,"137 EAST AVENUE,NORWALK,CT",41.112360532667246,-73.40759328298584
077207,100 WELLS STREET  SUITE 2F,HARTFORD,CT,6103.0,3.0,U,"100 WELLS STREET  SUITE 2F,HARTFORD,CT",0.0,0.0
077208,"1425 BEDFORD ST, SUITE 1P, SUMMER TERR",STAMFORD,CT,6905.0,1.0,U,"1425 BEDFORD ST, SUITE 1P, SUMMER TERR,STAMFORD,CT",0.0,0.0
077209,40 SOUTH STREET,WEST HARTFORD,CT,6110.0,3.0,U,"40 SOUTH STREET,WEST HARTFORD,CT",41.72922474079686,-72.72355277350295
077210,740 NORTH MAIN STREET,WEST HARTFORD,CT,6117.0,3.0,U,"740 NORTH MAIN STREET,WEST HARTFORD,CT",41.78728520773576,-72.74784025044711
077211,19 TUTTLE PLACE,MIDDLETOWN,CT,6457.0,7.0,U,"19 TUTTLE PLACE,MIDDLETOWN,CT",41.59441108163265,-72.68062244897959
077212,270 FARMINGTON AVENUE,FARMINGTON,CT,6032.0,3.0,U,"270 FARMINGTON AVENUE,FARMINGTON,CT",41.734771672634096,-72.79614858128036
077213,433 SOUTH MAIN STREET,WEST HARTFORD,CT,6110.0,9.0,U,"433 SOUTH MAIN STREET,WEST HARTFORD,CT",41.733181110808054,-72.74315223083127
077214,12 CASE STREET,NORWICH,CT,6360.0,11.0,U,"12 CASE STREET,NORWICH,CT",41.55358599205895,-72.10350291063166
077215,"419 WHALLEY AVENUE, SUITE 406",NEW HAVEN,CT,6511.0,9.0,U,"419 WHALLEY AVENUE, SUITE 406,NEW HAVEN,CT",0.0,0.0
077216,163 CEDAR STREET,BRANFORD,CT,6405.0,9.0,U,"163 CEDAR STREET,BRANFORD,CT",41.28924131866494,-72.81949221015014
077217,20 SOUTH ANQUILLA ROAD MAILBOX 10A,PAWCATUCK,CT,6379.0,15.0,U,"20 SOUTH ANQUILLA ROAD MAILBOX 10A,PAWCATUCK,CT",0.0,0.0
077218,"99 HAWLEY LANE, SUITE 1101",STRATFORD,CT,6614.0,1.0,U,"99 HAWLEY LANE, SUITE 1101,STRATFORD,CT",0.0,0.0
077219,"1 EVERGREEN AVENUE, SUITE 32",HAMDEN,CT,6518.0,9.0,U,"1 EVERGREEN AVENUE, SUITE 32,HAMDEN,CT",0.0,0.0
077220,215 WEST TOWN STREET,NORWICH,CT,6360.0,9.0,U,"215 WEST TOWN STREET,NORWICH,CT",41.559136,-72.1250719
077221,"777 SUMMER STREET, SUITE 404",STAMFORD,CT,6901.0,1.0,U,"777 SUMMER STREET, SUITE 404,STAMFORD,CT",0.0,0.0
077222,85 WILLOW STREET,NEW HAVEN,CT,6511.0,9.0,U,"85 WILLOW STREET,NEW HAVEN,CT",41.32062361313633,-72.90802632565375
077223,444 FOXON ROAD,EAST HAVEN,CT,6512.0,9.0,U,"444 FOXON ROAD,EAST HAVEN,CT",41.323885052130564,-72.8415660266995
077224,"21 GROVE STREET, 2ND FLOOR",NEW CANAAN,CT,6840.0,1.0,U,"21 GROVE STREET, 2ND FLOOR,NEW CANAAN,CT",0.0,0.0
077225,24 SCOTT STREET,HAMDEN,CT,6514.0,9.0,U,"24 SCOTT STREET,HAMDEN,CT",41.348541837484554,-72.9337494002689
077226,"700 W JOHNSON AVE, STE 114",CHESHIRE,CT,6410.0,9.0,U,"700 W JOHNSON AVE, STE 114,CHESHIRE,CT",41.55781113879435,-72.91676840294117
077227,200 SEABURY DRIVE,BLOOMFIELD,CT,6002.0,3.0,U,"200 SEABURY DRIVE,BLOOMFIELD,CT",41.8340718,-72.7085987
077228,109 LEGION AVENUE,NEW HAVEN,CT,6519.0,9.0,U,"109 LEGION AVENUE,NEW HAVEN,CT",41.3059762,-72.9450408
077229,21 CHURCH STREET,NAUGATUCK,CT,6770.0,9.0,U,"21 CHURCH STREET,NAUGATUCK,CT",41.487554702080814,-73.05609943136696
077230,419 WHALLEY AVENUE,NEW HAVEN,CT,6511.0,9.0,U,"419 WHALLEY AVENUE,NEW HAVEN,CT",41.31840666666667,-72.946936
077231,"333 EAST RIVER DRIVE, SUITE 110",EAST HARTFORD,CT,6108.0,3.0,U,"333 EAST RIVER DRIVE, SUITE 110,EAST HARTFORD,CT",0.0,0.0
077232,"305 BOSTON AVENUE, SUITE 308",STRATFORD,CT,6614.0,1.0,U,"305 BOSTON AVENUE, SUITE 308,STRATFORD,CT",0.0,0.0
077233,"80 FERRY BOULEVARD, SUITE 203",STRATFORD,CT,6615.0,1.0,U,"80 FERRY BOULEVARD, SUITE 203,STRATFORD,CT",0.0,0.0
077234,"3 SYLVAN ROAD SOUTH, 1ST FLOOR",WESTPORT,CT,6881.0,1.0,U,"3 SYLVAN ROAD SOUTH, 1ST FLOOR,WESTPORT,CT",0.0,0.0
077235,370 SILAS DEANE HIGHWAY,WETHERSFIELD,CT,6109.0,3.0,U,"370 SILAS DEANE HIGHWAY,WETHERSFIELD,CT",41.71651624422188,-72.66541314676243
077236,367 ELM STREET,WEST HAVEN,CT,6516.0,9.0,U,"367 ELM STREET,WEST HAVEN,CT",41.27455832284726,-72.95557061845959
077237,"2189 SILAS DEANE HWY, SUITE 7",ROCKY HILL,CT,6067.0,3.0,U,"2189 SILAS DEANE HWY, SUITE 7,ROCKY HILL,CT",0.0,0.0
077238,145 TOLCOTTVILLE ROAD,VERNON,CT,6066.0,13.0,U,"145 TOLCOTTVILLE ROAD,VERNON,CT",0.0,0.0
077239,"2080 SILAS DEANE HWY, 2ND FL",ROCKY HILL,CT,6067.0,3.0,U,"2080 SILAS DEANE HWY, 2ND FL,ROCKY HILL,CT",0.0,0.0
077240,135 SOUTH ROAD,FARMINGTON,CT,6032.0,3.0,U,"135 SOUTH ROAD,FARMINGTON,CT",41.7225239,-72.7889325
077241,2449 NORTH AVENUE,BRIDGEPORT,CT,6604.0,1.0,U,"2449 NORTH AVENUE,BRIDGEPORT,CT",41.17772433333334,-73.21735466666667
077242,104 PARK ROAD,WEST HARTFORD,CT,6119.0,3.0,U,"104 PARK ROAD,WEST HARTFORD,CT",41.757481983729,-72.71922500312547
077243,"200 CORPORATE PLACE, 1ST FL",ROCKY HILL,CT,6067.0,3.0,U,"200 CORPORATE PLACE, 1ST FL,ROCKY HILL,CT",0.0,0.0
077244,"1233 SILAS DEANE HWY, 2RD FLOOR",WETHERSFIELD,CT,6109.0,3.0,U,"1233 SILAS DEANE HWY, 2RD FLOOR,WETHERSFIELD,CT",0.0,0.0
077245,"451 MERIDEN ROAD, SUITE 5",WATERBURY,CT,6705.0,9.0,U,"451 MERIDEN ROAD, SUITE 5,WATERBURY,CT",0.0,0.0
077246,"370 JAMES STREET, SUITE 401",NEW HAVEN,CT,6513.0,9.0,U,"370 JAMES STREET, SUITE 401,NEW HAVEN,CT",0.0,0.0
077247,4200 PARK AVENUE,BRIDGEPORT,CT,6604.0,1.0,U,"4200 PARK AVENUE,BRIDGEPORT,CT",41.1772241,-73.2005768
077248,1340 WORTHINGTON RIDGE,BERLIN,CT,6037.0,3.0,U,"1340 WORTHINGTON RIDGE,BERLIN,CT",41.6078373070044,-72.75015507187422
077249,92 ARCH STREET,NEW HAVEN,CT,6519.0,9.0,U,"92 ARCH STREET,NEW HAVEN,CT",41.29874406028004,-72.93871228661334
077250,567 NEW PARK AVENUE,WEST HARTFORD,CT,6110.0,3.0,U,"567 NEW PARK AVENUE,WEST HARTFORD,CT",41.73646286693909,-72.7217040963568
077251,"125 COMMERCE CT, # 6",CHESHIRE,CT,6410.0,9.0,U,"125 COMMERCE CT, # 6,CHESHIRE,CT",41.541451597486365,-72.89488655279614
077252,235 GLENVILLE ROAD,GREENWICH,CT,6831.0,1.0,U,"235 GLENVILLE ROAD,GREENWICH,CT",41.0380597,-73.662605
077253,188 NORTH STREET,STAMFORD,CT,6901.0,1.0,U,"188 NORTH STREET,STAMFORD,CT",41.0596399,-73.5384047
077254,"1157 HIGHLAND AVENUE, SUITE 101",CHESHIRE,CT,6410.0,9.0,U,"1157 HIGHLAND AVENUE, SUITE 101,CHESHIRE,CT",0.0,0.0
077255,"254 BURNSIDE AVENUE, SUITE 1",EAST HARTFORD,CT,6108.0,3.0,U,"254 BURNSIDE AVENUE, SUITE 1,EAST HARTFORD,CT",0.0,0.0
077256,129 MAIN STREET,OLD SAYBROOK,CT,6475.0,7.0,U,"129 MAIN STREET,OLD SAYBROOK,CT",41.29355319068415,-72.3765932260905
077257,"40 RICHARDS AVENUE, 7TH FLOOR",NORWALK,CT,6854.0,1.0,U,"40 RICHARDS AVENUE, 7TH FLOOR,NORWALK,CT",0.0,0.0
077259,653 MAIN STREET,PLANTSVILLE,CT,6479.0,3.0,U,"653 MAIN STREET,PLANTSVILLE,CT",41.588387414116376,-72.88696147693598
077260,534 FROST ROAD,WATERBURY,CT,6705.0,9.0,U,"534 FROST ROAD,WATERBURY,CT",41.553480263157894,-73.00047368421053
077261,"50 WATERBURY ROAD, SUITE 2B",PROSPECT,CT,6712.0,9.0,U,"50 WATERBURY ROAD, SUITE 2B,PROSPECT,CT",0.0,0.0
077262,546 BOSTON POST ROAD,MILFORD,CT,6460.0,9.0,U,"546 BOSTON POST ROAD,MILFORD,CT",41.2300783,-73.0661998
077263,140 WOODLAND STREET,HARTFORD,CT,6105.0,3.0,U,"140 WOODLAND STREET,HARTFORD,CT",41.77670492271671,-72.69856686810124
077264,40 COLD SPRING ROAD,ROCKY HILL,CT,6067.0,3.0,U,"40 COLD SPRING ROAD,ROCKY HILL,CT",41.642983581686586,-72.6797744255497
077265,"7 N WASHINGTON STREET, SUITE 107",PLAINVILLE,CT,6062.0,3.0,U,"7 N WASHINGTON STREET, SUITE 107,PLAINVILLE,CT",0.0,0.0
077266,"2751 DIXWELL AVENUE, FL 1",HAMDEN,CT,6518.0,9.0,U,"2751 DIXWELL AVENUE, FL 1,HAMDEN,CT",0.0,0.0
077267,"687 STRAITS TURNPIKE, SUITE 1C",MIDDLEBURY,CT,6762.0,9.0,U,"687 STRAITS TURNPIKE, SUITE 1C,MIDDLEBURY,CT",0.0,0.0
077268,2 BARNARD LANE,BLOOMFIELD,CT,6002.0,3.0,U,"2 BARNARD LANE,BLOOMFIELD,CT",41.828801,-72.737582
077269,398 WILLETTS AVENUE,WATERFORD,CT,6385.0,11.0,U,"398 WILLETTS AVENUE,WATERFORD,CT",41.34068386079697,-72.11773276332679
077270,1838 SILAS DEANE HIGHWAY,ROCKY HILL,CT,6067.0,3.0,U,"1838 SILAS DEANE HIGHWAY,ROCKY HILL,CT",41.67665570743434,-72.65012315578842
077271,"1044 MAIN STREET, SUITE 12",WATERTOWN,CT,6795.0,5.0,R,"1044 MAIN STREET, SUITE 12,WATERTOWN,CT",0.0,0.0
077272,"330 MAIN STREET, SUITE C-3",HARTFORD,CT,6106.0,3.0,U,"330 MAIN STREET, SUITE C-3,HARTFORD,CT",0.0,0.0
077273,1251 SOUTH MAIN STREET,MIDDLETOWN,CT,6457.0,7.0,U,"1251 SOUTH MAIN STREET,MIDDLETOWN,CT",41.524925689379735,-72.6651390106463
077274,2529 WHITNEY AVENUE,HAMDEN,CT,6518.0,9.0,U,"2529 WHITNEY AVENUE,HAMDEN,CT",41.388869751499385,-72.89964967974738
077275,"1817 BLACK ROCK TNPK, SUITE 102",FAIRFIELD,CT,6825.0,1.0,U,"1817 BLACK ROCK TNPK, SUITE 102,FAIRFIELD,CT",0.0,0.0
079801,20 YORK STREET,NEW HAVEN,CT,6504.0,9.0,U,"20 YORK STREET,NEW HAVEN,CT",41.3046035,-72.93559409819855
079802,"80 SEYMOUR STREET, PO BOX 5037",HARTFORD,CT,6106.0,3.0,U,"80 SEYMOUR STREET, PO BOX 5037,HARTFORD,CT",0.0,0.0
07A004,80 FERN DR,TORRINGTON,CT,6790.0,5.0,R,"80 FERN DR,TORRINGTON,CT",41.81042381248272,-73.10883839198353
07A005,14 MAIN ST,WINDSOR LOCKS,CT,6096.0,3.0,U,"14 MAIN ST,WINDSOR LOCKS,CT",41.926011687255375,-72.627397391984
07A012,TOWN ST,MOODUS,CT,6469.0,7.0,U,"TOWN ST,MOODUS,CT",41.4809343,-72.4460065
07A013,21 CLIFF ST,WATERBURY,CT,6710.0,9.0,U,"21 CLIFF ST,WATERBURY,CT",41.56078481997485,-73.0459742529069
07A018,380 CROWN ST,MERIDEN,CT,6450.0,9.0,U,"380 CROWN ST,MERIDEN,CT",41.52756061113975,-72.80539324162062
07A019,78 W ELM ST,DEEP RIVER,CT,6417.0,7.0,U,"78 W ELM ST,DEEP RIVER,CT",41.3823595282942,-72.43907480680228
07A022,3396 E MAIN ST,WATERBURY,CT,6705.0,9.0,U,"3396 E MAIN ST,WATERBURY,CT",41.54368995407647,-72.97691018264887
07A025,170 SCOTT RD,PROSPECT,CT,6712.0,9.0,U,"170 SCOTT RD,PROSPECT,CT",41.53188338356827,-72.97783038152029
07A028,5 ROCKWELL TERR,NORWICH,CT,6360.0,11.0,U,"5 ROCKWELL TERR,NORWICH,CT",41.53439439865378,-72.07931097225058
07A035,40 FIRETOWN RD,SIMSBURY,CT,6070.0,3.0,U,"40 FIRETOWN RD,SIMSBURY,CT",41.87326175,-72.81194775
07A042,17 NELSON AVE,NORWALK,CT,6851.0,1.0,U,"17 NELSON AVE,NORWALK,CT",41.1240693,-73.4039743
07A045,172 ROCKY REST RD,SHELTON,CT,6484.0,1.0,U,"172 ROCKY REST RD,SHELTON,CT",41.28593,-73.0953863
07A046,628 CONGDON ST W,MIDDLETOWN,CT,6457.0,7.0,U,"628 CONGDON ST W,MIDDLETOWN,CT",41.569735,-72.700396
07A047,MAIN ST,SOUTHBURY,CT,6488.0,9.0,U,"MAIN ST,SOUTHBURY,CT",41.4814848,-73.2131693
07A052,76 W ROCKS RD,NORWALK,CT,6851.0,1.0,U,"76 W ROCKS RD,NORWALK,CT",41.1339854,-73.4126195
07A056,MISSIONARY RD,CROMWELL,CT,6416.0,7.0,U,"MISSIONARY RD,CROMWELL,CT",41.6002327,-72.6616506
07A059,MERIDEN AVE,SOUTHINGTON,CT,6489.0,3.0,U,"MERIDEN AVE,SOUTHINGTON,CT",41.5763801,-72.8655118
07A067,401 UNITY RD,TRUMBULL,CT,6611.0,1.0,U,"401 UNITY RD,TRUMBULL,CT",41.23544673492948,-73.17632923083353
07A069,WOODBURY RD,WATERTOWN,CT,6795.0,5.0,R,"WOODBURY RD,WATERTOWN,CT",41.6019841,-73.1382532
07A070,9 NECK RD PO BOX 668,MADISON,CT,6443.0,9.0,U,"9 NECK RD PO BOX 668,MADISON,CT",0.0,0.0
07A075,41 HILLSIDE AVE,PLYMOUTH,CT,6782.0,5.0,R,"41 HILLSIDE AVE,PLYMOUTH,CT",41.683350554473755,-73.01289674653343
07A076,10 THURBER ROAD,PUTNAM,CT,6260.0,15.0,U,"10 THURBER ROAD,PUTNAM,CT",41.927036996594396,-71.85614406144455
07A077,25 LORRAINE ST,HARTFORD,CT,6105.0,3.0,U,"25 LORRAINE ST,HARTFORD,CT",41.767517772797575,-72.70548356256958
07A078,175 FERRY RD,OLD SAYBROOK,CT,6475.0,7.0,U,"175 FERRY RD,OLD SAYBROOK,CT",41.316719012603755,-72.35220581049606
07A079,66 CLINIC DR,NEW BRITAIN,CT,6053.0,3.0,U,"66 CLINIC DR,NEW BRITAIN,CT",41.64851711748992,-72.78547743424076
07A082,22 HOSPITAL AVENUE,DANBURY,CT,6810.0,1.0,U,"22 HOSPITAL AVENUE,DANBURY,CT",41.404704,-73.447338
07A083,50 PALMER STREET,NORWICH,CT,6360.0,11.0,U,"50 PALMER STREET,NORWICH,CT",41.523604,-72.059516
07A084,581 POQUONECK AVE,WINDSOR,CT,6095.0,3.0,U,"581 POQUONECK AVE,WINDSOR,CT",0.0,0.0
07A087,78 VIETS ST,NEW LONDON,CT,6320.0,11.0,U,"78 VIETS ST,NEW LONDON,CT",41.3388416699948,-72.11060113587176
07A088,71 PLAZA AVE,WATERBURY,CT,6710.0,9.0,U,"71 PLAZA AVE,WATERBURY,CT",41.56613142154046,-73.05071328082825
07A090,1157 ENFIELD ST,ENFIELD,CT,6082.0,3.0,U,"1157 ENFIELD ST,ENFIELD,CT",41.986706299999994,-72.59163860786416
07A092,30 PARK LANE EAST,NEW MILFORD,CT,6776.0,5.0,R,"30 PARK LANE EAST,NEW MILFORD,CT",41.5979613,-73.4019763
07A093,118 JEFFERSON ST,FAIRFIELD,CT,6432.0,1.0,U,"118 JEFFERSON ST,FAIRFIELD,CT",41.17236942298735,-73.17010207314155
07A094,1060 MAIN ST,SOUTH WINDSOR,CT,6074.0,3.0,U,"1060 MAIN ST,SOUTH WINDSOR,CT",41.832451196577445,-72.6168662222807
07A097,96 PROSPECT HILL RD,EAST WINDSOR,CT,6088.0,3.0,U,"96 PROSPECT HILL RD,EAST WINDSOR,CT",41.92500258440599,-72.60614511421153
07A099,SOUTH CANAAN RD,CANAAN,CT,6018.0,5.0,R,"SOUTH CANAAN RD,CANAAN,CT",41.9616537,-73.3363742
07A100,180 REGAN RD,VERNON,CT,6066.0,13.0,U,"180 REGAN RD,VERNON,CT",41.85257502659742,-72.47683674201754
07A101,146 W BROAD ST,STAMFORD,CT,6902.0,1.0,U,"146 W BROAD ST,STAMFORD,CT",41.05612825754511,-73.55104833538567
07A102,50 PULASKI ST,NEW BRITAIN,CT,6053.0,3.0,U,"50 PULASKI ST,NEW BRITAIN,CT",41.675502,-72.7983956
07A103,169 DAVENPORT AVE,NEW HAVEN,CT,6519.0,9.0,U,"169 DAVENPORT AVE,NEW HAVEN,CT",41.302369420743425,-72.93912613646799
07A104,7003 MAIN ST,STRATFORD,CT,6497.0,1.0,U,"7003 MAIN ST,STRATFORD,CT",41.24830739772076,-73.10157473440923
07A105,28 BROADWAY PO BOX 98,MYSTIC,CT,6355.0,11.0,U,"28 BROADWAY PO BOX 98,MYSTIC,CT",0.0,0.0
07A106,175 JEFFERSON ST,FAIRFIELD,CT,6432.0,1.0,U,"175 JEFFERSON ST,FAIRFIELD,CT",41.17232994262301,-73.16945478154982
07A107,600 BOND ST,BRIDGEPORT,CT,6610.0,1.0,U,"600 BOND ST,BRIDGEPORT,CT",41.20073621989701,-73.16690198747965
07A108,1270 SHERMAN LN,HAMDEN,CT,6514.0,9.0,U,"1270 SHERMAN LN,HAMDEN,CT",41.391568236010336,-72.92020997745558
07A109,2875 MAIN ST,BRIDGEPORT,CT,6606.0,1.0,U,"2875 MAIN ST,BRIDGEPORT,CT",41.2015,-73.203618
07A110,321 STONECREST DR,BRISTOL,CT,6010.0,3.0,U,"321 STONECREST DR,BRISTOL,CT",41.68136045177415,-72.92090952980726
07A111,292 THORPE AVE,MERIDEN,CT,6450.0,9.0,U,"292 THORPE AVE,MERIDEN,CT",41.51559884374774,-72.75521322188796
07A112,44 ABBOTT TERR,WATERBURY,CT,6702.0,9.0,U,"44 ABBOTT TERR,WATERBURY,CT",41.556680794251356,-73.03754880862296
07A113,1360 TORRINGFORD ST,TORRINGTON,CT,6790.0,5.0,R,"1360 TORRINGFORD ST,TORRINGTON,CT",41.827434,-73.07904
07A114,33 LINCOLN AVE,DANBURY,CT,6810.0,1.0,U,"33 LINCOLN AVE,DANBURY,CT",41.3853338,-73.4537445
07A115,3 FARM RD,NEW CANAAN,CT,6840.0,1.0,U,"3 FARM RD,NEW CANAAN,CT",41.128000400000005,-73.49300045058165
07A116,31 VAUXHALL ST,NEW LONDON,CT,6320.0,11.0,U,"31 VAUXHALL ST,NEW LONDON,CT",42.976858353846154,-81.21177737692308
07A117,TODDY HILL RD,NEWTOWN,CT,6470.0,1.0,U,"TODDY HILL RD,NEWTOWN,CT",41.4077565,-73.2637044
07A118,118 JEFFERSON ST,FAIRFIELD,CT,6432.0,1.0,U,"118 JEFFERSON ST,FAIRFIELD,CT",41.17236942298735,-73.17010207314155
07C0001000,60 TEMPLE STREET,NEW HAVEN,CT,6510.0,9.0,U,"60 TEMPLE STREET,NEW HAVEN,CT",41.304362,-72.9289855
07C0001001,100 RETREAT AVE STE 100,HARTFORD,CT,6106.0,3.0,U,"100 RETREAT AVE STE 100,HARTFORD,CT",41.752277361453835,-72.68065715304077
07C0001002,"73 SANDPIT ROAD, SUITE 101",DANBURY,CT,6810.0,1.0,U,"73 SANDPIT ROAD, SUITE 101,DANBURY,CT",0.0,0.0
07C0001003,112 QUARRY ROAD,TRUMBULL,CT,6611.0,1.0,U,"112 QUARRY ROAD,TRUMBULL,CT",41.228736507704184,-73.18262440888928
07C0001004,4 NORTHWESTERN DRIVE,BLOOMFIELD,CT,6002.0,3.0,U,"4 NORTHWESTERN DRIVE,BLOOMFIELD,CT",41.816604,-72.72532275
07C0001005,81 GILLETTE STREET,HARTFORD,CT,6105.0,3.0,U,"81 GILLETTE STREET,HARTFORD,CT",41.75523467150258,-72.72149864481761
07C0001006,148 HAZARD AVE,ENFIELD,CT,6082.0,3.0,U,"148 HAZARD AVE,ENFIELD,CT",41.98862159583504,-72.56506536166448
07C0001007,87 GRANDVIEW AVENUE,WATERBURY,CT,6708.0,9.0,U,"87 GRANDVIEW AVENUE,WATERBURY,CT",41.55863880081561,-73.06132976054157
07C0001008,40 CROSS STREET,NORWALK,CT,6851.0,1.0,U,"40 CROSS STREET,NORWALK,CT",41.1191047,-73.4185399
07C0001009,598 DANBURY RD.,RIDGEFIELD,CT,6857.0,1.0,U,"598 DANBURY RD.,RIDGEFIELD,CT",41.321203,-73.476526
07C0001010,827 NORTH AVE,BRIDGEPORT,CT,6606.0,1.0,U,"827 NORTH AVE,BRIDGEPORT,CT",41.1928839,-73.1958538
07C0001011,160 ROBBINS ST,WATERBURY,CT,6708.0,9.0,U,"160 ROBBINS ST,WATERBURY,CT",41.557697612903226,-73.06207958064516
07C0001012,"40 TEMPLE STREET, NEW HAVEN, CT",NEW HAVEN,CT,6510.0,9.0,U,"40 TEMPLE STREET, NEW HAVEN, CT,NEW HAVEN,CT",41.303846199999995,-72.92947339579125
07C0001013,530 SAYBROOK RD,MIDDLETOWN,CT,6457.0,7.0,U,"530 SAYBROOK RD,MIDDLETOWN,CT",41.54010118198209,-72.62189154392766
07C0001014,32 STRAWBERRY HILL COURT,STAMFORD,CT,6902.0,1.0,U,"32 STRAWBERRY HILL COURT,STAMFORD,CT",41.0646213,-73.534881
07C0001015,255 W RIVER ST,MILFORD,CT,6460.0,9.0,U,"255 W RIVER ST,MILFORD,CT",41.23265831606071,-73.05970601639315
07C0001016,318 NEW HAVEN AVENUE,MILFORD,CT,6460.0,9.0,U,"318 NEW HAVEN AVENUE,MILFORD,CT",41.22313705972785,-73.04323889188495
07C0001017,505 WILLARD AVENUE,NEWINGTON,CT,6111.0,3.0,U,"505 WILLARD AVENUE,NEWINGTON,CT",41.7040689,-72.7368267
07C0001018,"2200 WHITNEY AVENUE, SUITE 380",HAMDEN,CT,6518.0,9.0,U,"2200 WHITNEY AVENUE, SUITE 380,HAMDEN,CT",0.0,0.0
07C0001019,"84 NORTH MAIN STREET, BLDG 2",BRANFORD,CT,6405.0,9.0,U,"84 NORTH MAIN STREET, BLDG 2,BRANFORD,CT",0.0,0.0
07C0001020,4695 MAIN STREET,BRIDGEPORT,CT,6606.0,1.0,U,"4695 MAIN STREET,BRIDGEPORT,CT",41.223404573883,-73.21827291633117
07C0001021,178 HARTFORD ROAD,MANCHESTER,CT,6040.0,3.0,U,"178 HARTFORD ROAD,MANCHESTER,CT",41.76478723605035,-72.52931579225074
07C0001022,226 WHITE STREET,DANBURY,CT,6810.0,1.0,U,"226 WHITE STREET,DANBURY,CT",41.399474,-73.439714
07C0001023,605 WEST AVENUE,NORWALK,CT,6850.0,1.0,U,"605 WEST AVENUE,NORWALK,CT",41.1133255,-73.4152444
07C0001024,305 BLACK ROCK TNPK,FAIRFIELD,CT,6825.0,1.0,U,"305 BLACK ROCK TNPK,FAIRFIELD,CT",0.0,0.0
07C0001025,79 WAWECUS STREET,NORWICH,CT,6360.0,11.0,U,"79 WAWECUS STREET,NORWICH,CT",41.55216600681662,-72.10946547151468
07C0001026,2080 WHITNEY AVENUE,HAMDEN,CT,6518.0,9.0,U,"2080 WHITNEY AVENUE,HAMDEN,CT",41.374195538734824,-72.90527715034598
07C0001027,4 NORTHWESTERN DRIVE,BLOOMFIELD,CT,6002.0,3.0,U,"4 NORTHWESTERN DRIVE,BLOOMFIELD,CT",41.816604,-72.72532275
07C0001028,778 LONG RIDGE ROAD,STAMFORD,CT,6902.0,1.0,U,"778 LONG RIDGE ROAD,STAMFORD,CT",41.0950878,-73.5652489
07C0001029,4920 MAIN STREET,BRIDGEPORT,CT,6606.0,1.0,U,"4920 MAIN STREET,BRIDGEPORT,CT",41.22626855095719,-73.21843619780361
07C0001030,174 CROSS ROAD,WATERFORD,CT,6385.0,11.0,U,"174 CROSS ROAD,WATERFORD,CT",41.38374014473344,-72.1586973376884
07C0001031,60 WELLINGTON ROAD,MILFORD,CT,6460.0,9.0,U,"60 WELLINGTON ROAD,MILFORD,CT",41.25300197598459,-73.07515717146467
07C0001032,"245 ALVORD PARK, SUITE B",TORRINGTON,CT,6790.0,5.0,R,"245 ALVORD PARK, SUITE B,TORRINGTON,CT",0.0,0.0
07C0001033,40 CROSS STREET,NORWALK,CT,6851.0,1.0,U,"40 CROSS STREET,NORWALK,CT",41.1191047,-73.4185399
07C0001034,888 WHITE PLAINS ROAD,TRUMBULL,CT,6611.0,1.0,U,"888 WHITE PLAINS ROAD,TRUMBULL,CT",41.24512415442135,-73.19681701208023
07C0001035,"234 A BANK STREET, 4TH FLOOR",NEW LONDON,CT,6320.0,11.0,U,"234 A BANK STREET, 4TH FLOOR,NEW LONDON,CT",0.0,0.0
07C0001036,929 BOSTON POST ROAD,OLD SAYBROOK,CT,6475.0,7.0,U,"929 BOSTON POST ROAD,OLD SAYBROOK,CT",41.3100302,-72.3662643
07C0001037,150  ENTERPRISE DRIVE,ROCKY HILL,CT,6067.0,3.0,U,"150  ENTERPRISE DRIVE,ROCKY HILL,CT",41.64726282246452,-72.66561035366077
07C0001038,111 GOOSE LANE,GUILFORD,CT,6437.0,9.0,U,"111 GOOSE LANE,GUILFORD,CT",41.290659671698926,-72.66478494687942
07C0001039,425 POST ROAD,FAIRFIELD,CT,6430.0,1.0,U,"425 POST ROAD,FAIRFIELD,CT",41.150465350000005,-73.2433335194904
07C0001040,1312 WEST MAIN STREET,WATERBURY,CT,6708.0,9.0,U,"1312 WEST MAIN STREET,WATERBURY,CT",41.55177454041866,-73.06479204626682
07C0001041,245 ALVORD PARK ROAD,TORRINGTON,CT,6790.0,5.0,R,"245 ALVORD PARK ROAD,TORRINGTON,CT",41.82832005156155,-73.10034107287201
07C0001042,"410 SAYBROOK ROAD, SUITE 200",MIDDLETOWN,CT,6457.0,7.0,U,"410 SAYBROOK ROAD, SUITE 200,MIDDLETOWN,CT",0.0,0.0
07C0001043,ONE CIRCLE ROAD,FARMINGTON,CT,6032.0,3.0,U,"ONE CIRCLE ROAD,FARMINGTON,CT",41.7340703,-72.7883426
07C0001044,195 DANBURY ROAD,WILTON,CT,6897.0,1.0,U,"195 DANBURY ROAD,WILTON,CT",41.188277918214,-73.425402215612
07C0001045,440 NEW BRITAIN AVENUE,PLAINVILLE,CT,6062.0,3.0,U,"440 NEW BRITAIN AVENUE,PLAINVILLE,CT",41.67412224412466,-72.83796912501633
07C0001046,901 ETHAN ALLEN HWY,RIDGEFIELD,CT,6877.0,1.0,U,"901 ETHAN ALLEN HWY,RIDGEFIELD,CT",41.3161122,-73.4739719
07C0001047,1591 BOSTON POST ROAD,GUILFORD,CT,6437.0,9.0,U,"1591 BOSTON POST ROAD,GUILFORD,CT",41.2877097,-72.6854612
07C0001048,"52 WASHINGTON AVENE, SUITE A NORTH",NORTH HAVEN,CT,6473.0,9.0,U,"52 WASHINGTON AVENE, SUITE A NORTH,NORTH HAVEN,CT",0.0,0.0
07C0001049,32 IMPERIAL AVENUE,WESTPORT,CT,6880.0,1.0,U,"32 IMPERIAL AVENUE,WESTPORT,CT",41.138501,-73.358659
07C0001050,"360 BLOOMFIELD AVENUE, SUITE 204",WINDSOR,CT,6095.0,3.0,U,"360 BLOOMFIELD AVENUE, SUITE 204,WINDSOR,CT",0.0,0.0
07C0001051,111 GOOSE LANE,GUILFORD,CT,6437.0,9.0,U,"111 GOOSE LANE,GUILFORD,CT",41.290659671698926,-72.66478494687942
07C0001052,2400 TAMARACK AVENUE,SOUTH WINDSOR,CT,6074.0,3.0,U,"2400 TAMARACK AVENUE,SOUTH WINDSOR,CT",41.8201478,-72.5553961
07C0001053,"300 WESTERN BLVD, BLDG D, SUITE 100",GLASTONBURY,CT,6033.0,3.0,U,"300 WESTERN BLVD, BLDG D, SUITE 100,GLASTONBURY,CT",0.0,0.0
07C0001054,229 MONTOWESE STREET,BRANFORD,CT,6405.0,9.0,U,"229 MONTOWESE STREET,BRANFORD,CT",41.28231367308932,-72.80978422929667
07C0001055,195 EASTERN BLVD,GLASTONBURY,CT,6033.0,3.0,U,"195 EASTERN BLVD,GLASTONBURY,CT",41.71780404796214,-72.58546846138476
07C0001056,510 SAYBROOK ROAD,MIDDLETOWN,CT,6457.0,7.0,U,"510 SAYBROOK ROAD,MIDDLETOWN,CT",41.54020494882263,-72.62210489764524
07C0001057,55 HOLLY HILL LANE,GREENWICH,CT,6830.0,1.0,U,"55 HOLLY HILL LANE,GREENWICH,CT",41.0163187,-73.6466607
07C0001058,"40 CROSS STREET, SUITE 120",NORWALK,CT,6851.0,1.0,U,"40 CROSS STREET, SUITE 120,NORWALK,CT",0.0,0.0
07C0001059,45 SALEM TNPK,NORWICH,CT,6360.0,11.0,U,"45 SALEM TNPK,NORWICH,CT",0.0,0.0
07C0001060,"81 MERIDEN AVENUE, SUITE C301",SOUTHINGTON,CT,6489.0,3.0,U,"81 MERIDEN AVENUE, SUITE C301,SOUTHINGTON,CT",0.0,0.0
07C0001061,200 FIRST STAMFORD PLACE,STAMFORD,CT,6902.0,1.0,U,"200 FIRST STAMFORD PLACE,STAMFORD,CT",41.0434884,-73.55018354754387
07C0001062,"246 GOOSE LN, SUITE 203",GUILFORD,CT,6437.0,9.0,U,"246 GOOSE LN, SUITE 203,GUILFORD,CT",0.0,0.0
07C0001063,"31 SEYMOUR STREET, SUITE 300",HARTFORD,CT,6106.0,3.0,U,"31 SEYMOUR STREET, SUITE 300,HARTFORD,CT",0.0,0.0
07C0001064,1281 EAST MAIN STREET,STAMFORD,CT,6902.0,1.0,U,"1281 EAST MAIN STREET,STAMFORD,CT",41.0602756,-73.508222
07C0001065,580 COTTAGE GROVE ROAD,BLOOMFIELD,CT,6002.0,3.0,U,"580 COTTAGE GROVE ROAD,BLOOMFIELD,CT",41.81731220235275,-72.72747720863383
07C0001066,"863 NORTH MAIN STREET EXTENSION, SUITE 300",WALLINGFORD,CT,6492.0,9.0,U,"863 NORTH MAIN STREET EXTENSION, SUITE 300,WALLINGFORD,CT",0.0,0.0
07C0001067,40 OLD RIDGEBURY ROAD,DANBURY,CT,6810.0,1.0,U,"40 OLD RIDGEBURY ROAD,DANBURY,CT",41.3845702,-73.5132581
07C0001068,"2080 WHITNEY AVENUE, SUITE 100",HAMDEN,CT,6518.0,9.0,U,"2080 WHITNEY AVENUE, SUITE 100,HAMDEN,CT",0.0,0.0
07C0001070,1111 CROMWELL AVENUE - SUITE 100,ROCKY HILL,CT,6067.0,3.0,U,"1111 CROMWELL AVENUE - SUITE 100,ROCKY HILL,CT",0.0,0.0
07E001,ROUTE 148 CEDAR LAKE RD,CHESTER,CT,6412.0,7.0,U,"ROUTE 148 CEDAR LAKE RD,CHESTER,CT",41.410172,-72.516909
07E002,256 NEW BRITAIN AVE,NEWINGTON,CT,6111.0,3.0,U,"256 NEW BRITAIN AVE,NEWINGTON,CT",41.67477345065432,-72.73251450094402
07E004,400 BRITTANY FARMS RD,NEW BRITAIN,CT,6053.0,3.0,U,"400 BRITTANY FARMS RD,NEW BRITAIN,CT",41.713499,-72.7686249
07E005,30 PARK LANE EAST,NEW MILFORD,CT,6776.0,5.0,R,"30 PARK LANE EAST,NEW MILFORD,CT",41.5979613,-73.4019763
07E006,9 CLIFF ST,WATERBURY,CT,6710.0,9.0,U,"9 CLIFF ST,WATERBURY,CT",41.56066078288323,-73.04593552472232
07E007,160 COVENTRY GARDENS,BLOOMFIELD,CT,6002.0,3.0,U,"160 COVENTRY GARDENS,BLOOMFIELD,CT",0.0,0.0
07E008,1 GRISWOLD ST,MERIDEN,CT,6450.0,9.0,U,"1 GRISWOLD ST,MERIDEN,CT",41.549443,-72.787493
07E009,TOWN ST,MOODUS,CT,6469.0,7.0,U,"TOWN ST,MOODUS,CT",41.4809343,-72.4460065
07E011,1660 STAFFORD AVE,BRISTOL,CT,6010.0,3.0,U,"1660 STAFFORD AVE,BRISTOL,CT",41.72125718181818,-72.91451981818182
07E012,171 MAIN ST,EAST WINDSOR,CT,6088.0,3.0,U,"171 MAIN ST,EAST WINDSOR,CT",6.8449495,-58.2359249
07E014,62 FLEET ST,WATERBURY,CT,6704.0,9.0,U,"62 FLEET ST,WATERBURY,CT",41.566251707922646,-73.03451049536467
07E016,588 OCEAN AVE,WEST HAVEN,CT,6516.0,9.0,U,"588 OCEAN AVE,WEST HAVEN,CT",41.2414024,-72.9715099
07E017,255 BOSTON POST RD,ORANGE,CT,6477.0,9.0,U,"255 BOSTON POST RD,ORANGE,CT",41.2766417,-72.9894394
07E020,172 ROCKY REST ROAD,SHELTON,CT,6484.0,1.0,U,"172 ROCKY REST ROAD,SHELTON,CT",41.28593,-73.0953863
07E022,85 STAGE HARBOR RD,MARLBOROUGH,CT,6447.0,3.0,U,"85 STAGE HARBOR RD,MARLBOROUGH,CT",41.65008158528403,-72.47542847882683
07E023,324 GRASSY HILL RD,ORANGE,CT,6477.0,9.0,U,"324 GRASSY HILL RD,ORANGE,CT",41.260865521366156,-73.05146739040671
07E025,101 MARSHALL LANE,DERBY,CT,6418.0,9.0,U,"101 MARSHALL LANE,DERBY,CT",41.31744019426207,-73.05135954460046
07E027,705 NEW BRITAIN AVE,HARTFORD,CT,6106.0,3.0,U,"705 NEW BRITAIN AVE,HARTFORD,CT",41.73316166666667,-72.70577233333333
07E028,"39 CANTERBURY RD, ROUTE 169",BROOKLYN,CT,6234.0,15.0,U,"39 CANTERBURY RD, ROUTE 169,BROOKLYN,CT",41.786805,-71.949753
07E030,63 S MAIN ST,ESSEX,CT,6426.0,7.0,U,"63 S MAIN ST,ESSEX,CT",44.493213,-73.106416
07E033,156 BERLIN RD,CROMWELL,CT,6416.0,7.0,U,"156 BERLIN RD,CROMWELL,CT",41.60788455905206,-72.71478017091833
07E038,809 R NEW HAVEN ROAD,DURHAM,CT,6422.0,7.0,U,"809 R NEW HAVEN ROAD,DURHAM,CT",41.43889,-72.715672
07E041,94 WILLOW ST,WATERBURY,CT,6705.0,9.0,U,"94 WILLOW ST,WATERBURY,CT",41.56044720382238,-73.04696423550426
07E043,140 COOK HILL RD,CHESHIRE,CT,6410.0,9.0,U,"140 COOK HILL RD,CHESHIRE,CT",41.4684613,-72.9019589
07E044,108 E LAKE ST,WINSTED,CT,6098.0,5.0,R,"108 E LAKE ST,WINSTED,CT",41.9193468687959,-73.07847209099329
07E045,175 JEFFERSON ST,BRIDGEPORT,CT,6430.0,1.0,U,"175 JEFFERSON ST,BRIDGEPORT,CT",41.17232994262301,-73.16945478154982
07E046,385 W CENTER ST,MANCHESTER,CT,6040.0,3.0,U,"385 W CENTER ST,MANCHESTER,CT",41.769818605608535,-72.5524296446525
07E047,RT 44  THURBER RD,PUTNAM,CT,6260.0,15.0,U,"RT 44  THURBER RD,PUTNAM,CT",41.927921248799734,-71.85549368419439
07E048,333 BIDWELL ST,MANCHESTER,CT,6040.0,3.0,U,"333 BIDWELL ST,MANCHESTER,CT",41.75972353805407,-72.54621393774764
07E049,75 GREAT POND RD,SIMSBURY,CT,6070.0,3.0,U,"75 GREAT POND RD,SIMSBURY,CT",41.887415,-72.828411
07E050,1243 W MAIN ST,WATERBURY,CT,6705.0,9.0,U,"1243 W MAIN ST,WATERBURY,CT",41.552507,-73.063769
07E051,RT 169,BROOKLYN,CT,6234.0,15.0,U,"RT 169,BROOKLYN,CT",35.184272500000006,-81.9241715
07E053,6448 MAIN ST,TRUMBULL,CT,6611.0,1.0,U,"6448 MAIN ST,TRUMBULL,CT",41.275459608945155,-73.22714674084797
07E054,1365 ENFIELD ST,ENFIELD,CT,6082.0,3.0,U,"1365 ENFIELD ST,ENFIELD,CT",41.97229109268987,-72.59235364682948
07E056,MARC DRIVE,WALLINGFORD,CT,6492.0,9.0,U,"MARC DRIVE,WALLINGFORD,CT",41.4523694,-72.8465848
07E057,260 DWIGHT ST,NEW HAVEN,CT,6511.0,9.0,U,"260 DWIGHT ST,NEW HAVEN,CT",41.31268343728752,-72.93483246100749
07E058,519 PALISADO AVE,WINDSOR,CT,6095.0,3.0,U,"519 PALISADO AVE,WINDSOR,CT",41.87106318563174,-72.62839374367431
07E059,230 CORAM AVE,SHELTON,CT,6484.0,1.0,U,"230 CORAM AVE,SHELTON,CT",41.314071,-73.091867
07E060,140 PARK AVE,BLOOMFIELD,CT,6002.0,3.0,U,"140 PARK AVE,BLOOMFIELD,CT",41.822987514918786,-72.7032983947901
07E061,45 ELM ST,ROCKY HILL,CT,6067.0,3.0,U,"45 ELM ST,ROCKY HILL,CT",41.664790437499995,-72.6410956875
07E062,S BRITAIN RD,SOUTHBURY,CT,6488.0,9.0,U,"S BRITAIN RD,SOUTHBURY,CT",41.4740978,-73.2527726
07E063,100 RANDOLPH RD,MIDDLETOWN,CT,6457.0,7.0,U,"100 RANDOLPH RD,MIDDLETOWN,CT",41.534757,-72.617476
07E064,385 MAIN ST,CROMWELL,CT,6416.0,7.0,U,"385 MAIN ST,CROMWELL,CT",41.600495,-72.646294
07E065,STARR HILL RD,GROTON,CT,6340.0,11.0,U,"STARR HILL RD,GROTON,CT",41.3698185,-72.0822048
07E066,1 BURR RD,WESTPORT,CT,6880.0,1.0,U,"1 BURR RD,WESTPORT,CT",41.1372312,-73.3669596
07E067,1145 POQUONOCK RD,GROTON,CT,6340.0,11.0,U,"1145 POQUONOCK RD,GROTON,CT",41.3381782,-72.02979131290436
07E068,130 LOOMIS DR,WEST HARTFORD,CT,6107.0,3.0,U,"130 LOOMIS DR,WEST HARTFORD,CT",41.76698572929376,-72.73991774993048
07E069,240 WINTHROP AVE,NEW HAVEN,CT,6511.0,9.0,U,"240 WINTHROP AVE,NEW HAVEN,CT",41.309389,-72.947946
07E070,240 CHURCH ST,NEWINGTON,CT,6111.0,3.0,U,"240 CHURCH ST,NEWINGTON,CT",41.665993,-72.739268
07E072,96 PROSPECT HILL RD,WAREHOUSE POINT,CT,6088.0,3.0,U,"96 PROSPECT HILL RD,WAREHOUSE POINT,CT",0.0,0.0
07E074,261 SUMMIT ST,SOUTHINGTON,CT,6479.0,3.0,U,"261 SUMMIT ST,SOUTHINGTON,CT",41.592152430626356,-72.89295424302028
07E075,107 OSBORNE ST,DANBURY,CT,6810.0,1.0,U,"107 OSBORNE ST,DANBURY,CT",41.4033719186174,-73.44274982954578
07E076,3584 E MAIN ST,WATERBURY,CT,6705.0,9.0,U,"3584 E MAIN ST,WATERBURY,CT",41.54253197258983,-72.96961890717044
07E077,RT 6 COLT HIGHWAY,FARMINGTON,CT,6032.0,3.0,U,"RT 6 COLT HIGHWAY,FARMINGTON,CT",41.705315491700574,-72.8470806780008
07E078,599 BOSTON POST RD,DARIEN,CT,6820.0,1.0,U,"599 BOSTON POST RD,DARIEN,CT",0.0,0.0
07E079,50 BEACH RD,WOLCOTT,CT,6716.0,9.0,U,"50 BEACH RD,WOLCOTT,CT",41.60744849274161,-72.9948305989402
07E080,341 JORDAN LN,WETHERSFIELD,CT,6109.0,3.0,U,"341 JORDAN LN,WETHERSFIELD,CT",41.722025785693326,-72.67975751367875
07E081,TALMADGE AVE,EAST HAVEN,CT,6512.0,9.0,U,"TALMADGE AVE,EAST HAVEN,CT",41.2630684,-72.8637101
07E082,1270 SHERMAN LN,HAMDEN,CT,6514.0,9.0,U,"1270 SHERMAN LN,HAMDEN,CT",41.391568236010336,-72.92020997745558
07E083,308 SAVIN AVE,WEST HAVEN,CT,6516.0,9.0,U,"308 SAVIN AVE,WEST HAVEN,CT",41.260718733333334,-72.95093886666666
07E084,975 CORBIN AVE,NEW BRITAIN,CT,6052.0,3.0,U,"975 CORBIN AVE,NEW BRITAIN,CT",41.66214953143628,-72.804023811625
07E085,600 BOND ST,BRIDGEPORT,CT,6610.0,1.0,U,"600 BOND ST,BRIDGEPORT,CT",41.20073621989701,-73.16690198747965
07E086,33 ROY ST,MERIDEN,CT,6450.0,9.0,U,"33 ROY ST,MERIDEN,CT",41.52542052063692,-72.80545288958731
07E087,CAROLINE HALL 360 BROAD ST,MERIDEN,CT,6450.0,9.0,U,"CAROLINE HALL 360 BROAD ST,MERIDEN,CT",0.0,0.0
07E088,1 JOHN H STEWART DR,NEWINGTON,CT,6111.0,3.0,U,"1 JOHN H STEWART DR,NEWINGTON,CT",41.6953776,-72.714817
07E089,291 STEELE RD,WEST HARTFORD,CT,6117.0,3.0,U,"291 STEELE RD,WEST HARTFORD,CT",41.78324818891006,-72.72442018542927
07E090,33 CONE AVE,MERIDEN,CT,6450.0,9.0,U,"33 CONE AVE,MERIDEN,CT",41.52433407803779,-72.7524114520706
07E091,267 UNION AVE,WEST HAVEN,CT,6516.0,9.0,U,"267 UNION AVE,WEST HAVEN,CT",41.27561033888601,-72.94680142507862
07E092,65 BRICK LANE,DURHAM,CT,6422.0,7.0,U,"65 BRICK LANE,DURHAM,CT",41.483156,-72.677963
07E093,WOLF DEN RD,BROOKLYN,CT,6234.0,15.0,U,"WOLF DEN RD,BROOKLYN,CT",41.8152804,-71.9765937
07E094,83 MAIN STREET,EAST HAVEN,CT,6512.0,9.0,U,"83 MAIN STREET,EAST HAVEN,CT",41.45608745,-70.60274258987198
07E096,401 UNITY ROAD,TRUMBULL,CT,6611.0,1.0,U,"401 UNITY ROAD,TRUMBULL,CT",41.23544673492948,-73.17632923083353
07E097,107 SOUTH VIEW ST,WATERBURY,CT,6706.0,9.0,U,"107 SOUTH VIEW ST,WATERBURY,CT",0.0,0.0
07E098,5 HARBOR PKWY,CLINTON,CT,6413.0,7.0,U,"5 HARBOR PKWY,CLINTON,CT",41.2727488,-72.5333743
07E099,14 MAIN ST,WINDSOR LOCKS,CT,6096.0,3.0,U,"14 MAIN ST,WINDSOR LOCKS,CT",41.926011687255375,-72.627397391984
07E100,201 CLINTONVILLE RD,NORTH HAVEN,CT,6473.0,9.0,U,"201 CLINTONVILLE RD,NORTH HAVEN,CT",41.4055069589821,-72.82734391413702
07E101,22 MASONIC AVE,WALLINGFORD,CT,6492.0,9.0,U,"22 MASONIC AVE,WALLINGFORD,CT",41.463340099999996,-72.83575212760752
07E102,17 NELSON AVE,NORWALK,CT,6851.0,1.0,U,"17 NELSON AVE,NORWALK,CT",41.1240693,-73.4039743
07E103,251 WASHINGTON ST,NORWICH,CT,6360.0,11.0,U,"251 WASHINGTON ST,NORWICH,CT",41.5383013517231,-72.08426036961386
07E104,16 WINDSOR AVE,PLAINFIELD,CT,6374.0,15.0,U,"16 WINDSOR AVE,PLAINFIELD,CT",41.6826019,-71.9186107
07E105,LOWER COBBLE RD,SALISBURY,CT,6068.0,5.0,R,"LOWER COBBLE RD,SALISBURY,CT",41.989083,-73.4175644
07E106,425 GRANT STREET,BRIDGEPORT,CT,6610.0,1.0,U,"425 GRANT STREET,BRIDGEPORT,CT",41.18874757273867,-73.16378582413171
07E107,615 TOWER AVE,HARTFORD,CT,6112.0,3.0,U,"615 TOWER AVE,HARTFORD,CT",41.80083967977367,-72.6911354438476
07E108,3030 PARK AVE,BRIDGEPORT,CT,6604.0,1.0,U,"3030 PARK AVE,BRIDGEPORT,CT",41.1985198,-73.21846890623073
07E109,31 STAPLES ST,DANBURY,CT,6810.0,1.0,U,"31 STAPLES ST,DANBURY,CT",41.4053232,-73.4167868
07E112,34 LEVEL ST,NEW HAVEN,CT,6515.0,9.0,U,"34 LEVEL ST,NEW HAVEN,CT",41.3435705735181,-72.96195792951661
07E113,225 BOSTON POST RD,ORANGE,CT,6477.0,9.0,U,"225 BOSTON POST RD,ORANGE,CT",41.2697277,-72.9983955
07E114,255 ROBERTS STREET,TORRINGTON,CT,6790.0,5.0,R,"255 ROBERTS STREET,TORRINGTON,CT",41.8067641,-73.1405596
07E115,181 CLIFTON STREET,NEW HAVEN,CT,6513.0,9.0,U,"181 CLIFTON STREET,NEW HAVEN,CT",41.3089845724347,-72.879321509872
07G001,36 SHORE RD,WATERFORD,CT,6385.0,11.0,U,"36 SHORE RD,WATERFORD,CT",41.30409143080374,-72.13236594518797
07G002,101 BELLEVUE AVE,BRISTOL,CT,6010.0,3.0,U,"101 BELLEVUE AVE,BRISTOL,CT",41.6758341875,-72.940751046875
07G003,P O BOX 853,MERIDEN,CT,6450.0,9.0,U,"P O BOX 853,MERIDEN,CT",0.0,0.0
07G004,580 WINTERGREEN AVE,HAMDEN,CT,6514.0,9.0,U,"580 WINTERGREEN AVE,HAMDEN,CT",41.359300516381595,-72.96193421971107
07G005,145 CAMP ST,MERIDEN,CT,6450.0,9.0,U,"145 CAMP ST,MERIDEN,CT",41.542525903720815,-72.79415069804304
07G006,86 MIDDLESEX DR,CHESTER,CT,6412.0,7.0,U,"86 MIDDLESEX DR,CHESTER,CT",0.0,0.0
07G008,P.O. BOX 51,MANSFIELD DEPOT,CT,6251.0,13.0,U,"P.O. BOX 51,MANSFIELD DEPOT,CT",0.0,0.0
07G009,PO BOX 51,MANSFIELD DEPOT,CT,6251.0,13.0,U,"PO BOX 51,MANSFIELD DEPOT,CT",41.8090222,-72.29371485714458
07G010,380 POMFRET ST,PUTNAM,CT,6260.0,15.0,U,"380 POMFRET ST,PUTNAM,CT",41.90643179326676,-71.9197397698615
07G011,10 WOODBRIDGE AVE,EAST HARTFORD,CT,6108.0,3.0,U,"10 WOODBRIDGE AVE,EAST HARTFORD,CT",41.77760760494137,-72.63722516046903
07G013,71 MOUNTAIN ROAD,NEWINGTON,CT,6111.0,3.0,U,"71 MOUNTAIN ROAD,NEWINGTON,CT",41.7014888,-72.7156503
07G014,23 HIGH ST,BRISTOL,CT,6010.0,3.0,U,"23 HIGH ST,BRISTOL,CT",51.46994035,-2.6162401212963022
07G016,242 MOUNTAIN RD,NEWINGTON,CT,6111.0,3.0,U,"242 MOUNTAIN RD,NEWINGTON,CT",41.707668702440714,-72.7143912579819
07G017,2955 MAIN ST,GLASTONBURY,CT,6033.0,3.0,U,"2955 MAIN ST,GLASTONBURY,CT",41.723984276883144,-72.615240304854
07G018,164 BROAD ST,NEW LONDON,CT,6320.0,11.0,U,"164 BROAD ST,NEW LONDON,CT",41.358852988290224,-72.10528813869331
07G019,P O BOX 51,MANSFIELD DEPOT,CT,6251.0,13.0,U,"P O BOX 51,MANSFIELD DEPOT,CT",0.0,0.0
07G020,ROUTE 44 P O BOX 51,MANSFIELD DEPOT,CT,6251.0,13.0,U,"ROUTE 44 P O BOX 51,MANSFIELD DEPOT,CT",0.0,0.0
07G021,26 FIRST ST,STAMFORD,CT,6902.0,1.0,U,"26 FIRST ST,STAMFORD,CT",0.0,0.0
07G022,146 SILVERMINE AVENUE,NORWALK,CT,6850.0,1.0,U,"146 SILVERMINE AVENUE,NORWALK,CT",41.136368,-73.439617
07G023,286 SHERMAN AVE,NEW HAVEN,CT,6511.0,9.0,U,"286 SHERMAN AVE,NEW HAVEN,CT",41.31611276723122,-72.94276503933635
07G025,263 MIGEON AVE,TORRINGTON,CT,6790.0,5.0,R,"263 MIGEON AVE,TORRINGTON,CT",41.807820123369204,-73.1295950463033
07G026,193 SECOND HILL RD,NEW MILFORD,CT,6776.0,5.0,R,"193 SECOND HILL RD,NEW MILFORD,CT",41.5831244,-73.3743911
07G029,531 MAIN ST,SOMERS,CT,6071.0,13.0,U,"531 MAIN ST,SOMERS,CT",41.98447284903475,-72.45272781848456
07G030,P. O. BOX 872,SOUTHBURY,CT,6488.0,9.0,U,"P. O. BOX 872,SOUTHBURY,CT",0.0,0.0
07G031,PO BOX  872,SOUTHBURY,CT,6488.0,9.0,U,"PO BOX  872,SOUTHBURY,CT",0.0,0.0
07G032,P. O. BOX 872,SOUTHBURY,CT,6488.0,9.0,U,"P. O. BOX 872,SOUTHBURY,CT",0.0,0.0
07G033,P. O. BOX 872,SOUTHBURY,CT,6488.0,9.0,U,"P. O. BOX 872,SOUTHBURY,CT",0.0,0.0
07G034,P. O. BOX 872,SOUTHBURY,CT,6488.0,9.0,U,"P. O. BOX 872,SOUTHBURY,CT",0.0,0.0
07G037,"330 THOMPSON HILL ROAD,  ROUTE 200",THOMPSON,CT,6277.0,15.0,U,"330 THOMPSON HILL ROAD,  ROUTE 200,THOMPSON,CT",41.96210259594795,-71.86715836738462
07G038,660 EAST MAIN ST,TORRINGTON,CT,6790.0,5.0,R,"660 EAST MAIN ST,TORRINGTON,CT",41.8093075,-73.107036
07G039,301 GREAT NECK RD,WATERFORD,CT,6385.0,11.0,U,"301 GREAT NECK RD,WATERFORD,CT",41.31174176533543,-72.10934782773312
07G042,1986 NORTH AVE,BRIDGEPORT,CT,6604.0,1.0,U,"1986 NORTH AVE,BRIDGEPORT,CT",41.18156323823095,-73.20992028221846
07G043,ORAL SCHOOL RD,MYSTIC,CT,6355.0,11.0,U,"ORAL SCHOOL RD,MYSTIC,CT",0.0,0.0
07G046,34 WOOSTER HEIGHTS,DANBURY,CT,6810.0,1.0,U,"34 WOOSTER HEIGHTS,DANBURY,CT",41.3785093,-73.4637234
07G047,35 UNDERCLIFF ROAD,MERIDEN,CT,6450.0,9.0,U,"35 UNDERCLIFF ROAD,MERIDEN,CT",41.55105745397994,-72.81633130294455
07G048,15 SOMERS ST.,DANBURY,CT,6818.0,,,"15 SOMERS ST.,DANBURY,CT",41.4039166,-73.4364664
07G049,573 WOODBRIDGE ST,MANCHESTER,CT,6040.0,3.0,U,"573 WOODBRIDGE ST,MANCHESTER,CT",41.787116839335624,-72.50276942318841
07G050,256 BROADWAY,NORWICH,CT,6360.0,11.0,U,"256 BROADWAY,NORWICH,CT",41.53368583333334,-72.08039366666667
07G051,89 DODGINGTOWN ROAD,BETHEL,CT,6801.0,1.0,U,"89 DODGINGTOWN ROAD,BETHEL,CT",41.3811307,-73.375115
07G052,27 MAPLE AVE,BETHEL,CT,6801.0,1.0,U,"27 MAPLE AVE,BETHEL,CT",41.37489339397829,-73.40624520975943
07G053,1895 RIDGE RD,NORTH HAVEN,CT,6473.0,9.0,U,"1895 RIDGE RD,NORTH HAVEN,CT",41.39126982445375,-72.88766009096487
07G054,42 FRANKLIN AVENUE,DERBY,CT,6418.0,9.0,U,"42 FRANKLIN AVENUE,DERBY,CT",41.32080613056042,-73.05847142903954
07G055,300 ARMORY ROAD,STRATFORD,CT,6497.0,1.0,U,"300 ARMORY ROAD,STRATFORD,CT",41.22833321380156,-73.149046226056
07G056,300 ARMORY ROAD,STRATFORD,CT,6614.0,1.0,U,"300 ARMORY ROAD,STRATFORD,CT",41.22833321380156,-73.149046226056
07G057,71 MOUNTAIN RD,NEWINGTON,CT,6111.0,3.0,U,"71 MOUNTAIN RD,NEWINGTON,CT",41.7014888,-72.7156503
07G058,P.O. BOX 51,MANSFIELD DEPOT,CT,6251.0,13.0,U,"P.O. BOX 51,MANSFIELD DEPOT,CT",0.0,0.0
07G059,P.O. BOX 51,MANSFIELD DEPOT,CT,6251.0,13.0,U,"P.O. BOX 51,MANSFIELD DEPOT,CT",0.0,0.0
07G060,P O BOX 51,MANSFIELD DEPOT,CT,6251.0,13.0,U,"P O BOX 51,MANSFIELD DEPOT,CT",0.0,0.0
07G061,85 MOUNTAIN ROAD,NEWINGTON,CT,6111.0,3.0,U,"85 MOUNTAIN ROAD,NEWINGTON,CT",41.71719,-72.7161806
07G062,71 MOUNTAIN RD,NEWINGTON,CT,6111.0,3.0,U,"71 MOUNTAIN RD,NEWINGTON,CT",41.7014888,-72.7156503
07G063,P.O. BOX 51,MANSFIELD DEPOT,CT,6251.0,13.0,U,"P.O. BOX 51,MANSFIELD DEPOT,CT",0.0,0.0
07G064,P O  BOX 51,MANSFIELD DEPOT,CT,6251.0,13.0,U,"P O  BOX 51,MANSFIELD DEPOT,CT",0.0,0.0
07G065,P O  BOX 51,MANSFIELD DEPOT,CT,6251.0,13.0,U,"P O  BOX 51,MANSFIELD DEPOT,CT",0.0,0.0
07G066,146 SILVERMINE ROAD,NORWALK,CT,6850.0,1.0,U,"146 SILVERMINE ROAD,NORWALK,CT",41.1559155,-73.4546783
07G067,71 MOUNTAIN RD,NEWINGTON,CT,6111.0,3.0,U,"71 MOUNTAIN RD,NEWINGTON,CT",41.7014888,-72.7156503
07G068,58 TRESS RD,PROSPECT,CT,6712.0,9.0,U,"58 TRESS RD,PROSPECT,CT",41.5020371,-72.9434183
07G069,801 WOODIN ST,HAMDEN,CT,6514.0,9.0,U,"801 WOODIN ST,HAMDEN,CT",41.351554,-72.960479
07G070,P.O. BOX 51,MANSFIELD DEPOT,CT,6251.0,13.0,U,"P.O. BOX 51,MANSFIELD DEPOT,CT",0.0,0.0
07G071,P. O. BOX 872,SOUTHBURY,CT,6488.0,9.0,U,"P. O. BOX 872,SOUTHBURY,CT",0.0,0.0
07G072,P O  BOX 51,MANSFIELD DEPOT,CT,6251.0,13.0,U,"P O  BOX 51,MANSFIELD DEPOT,CT",0.0,0.0
07G073,PO BOX 51,MANSFIELD DEPOT,CT,6251.0,13.0,U,"PO BOX 51,MANSFIELD DEPOT,CT",41.8090222,-72.29371485714458
07G074,P.O. BOX 51,MANSFIELD DEPOT,CT,6251.0,13.0,U,"P.O. BOX 51,MANSFIELD DEPOT,CT",0.0,0.0
07G075,453 ELLSWORTH AVE,NEW HAVEN,CT,6511.0,9.0,U,"453 ELLSWORTH AVE,NEW HAVEN,CT",41.32235115992496,-72.94525513111239
07G076,376 POMPRET STREET,PUTNAM,CT,6260.0,15.0,U,"376 POMPRET STREET,PUTNAM,CT",0.0,0.0
07G077,P.O. BOX 51,MANSFIELD DEPOT,CT,6251.0,13.0,U,"P.O. BOX 51,MANSFIELD DEPOT,CT",0.0,0.0
07G078,POMFRET ST,PUTNAM,CT,6260.0,15.0,U,"POMFRET ST,PUTNAM,CT",41.9151923,-71.9099327
07G079,MOUNTAINVILLE ROAD,DANBURY,CT,6810.0,1.0,U,"MOUNTAINVILLE ROAD,DANBURY,CT",41.376166,-73.4401007
07G080,3 BECKERLE ST,DANBURY,CT,6810.0,1.0,U,"3 BECKERLE ST,DANBURY,CT",41.4135658,-73.4698474
07G082,P O  BOX 51,MANSFIELD DEPOT,CT,6251.0,13.0,U,"P O  BOX 51,MANSFIELD DEPOT,CT",0.0,0.0
07G084,40 CLIFFORD ST,HARTFORD,CT,6114.0,3.0,U,"40 CLIFFORD ST,HARTFORD,CT",41.74019600589413,-72.68541816398645
07G085,PO BOX 51,MANSFIELD DEPOT,CT,6251.0,13.0,U,"PO BOX 51,MANSFIELD DEPOT,CT",41.8090222,-72.29371485714458
07G086,P O  BOX 51,MANSFIELD DEPOT,CT,6251.0,13.0,U,"P O  BOX 51,MANSFIELD DEPOT,CT",0.0,0.0
07G087,P O BOX 51,MANSFIELD DEPOT,CT,6251.0,13.0,U,"P O BOX 51,MANSFIELD DEPOT,CT",0.0,0.0
07G088,P O BOX 51,MANSFIELD DEPOT,CT,6251.0,13.0,U,"P O BOX 51,MANSFIELD DEPOT,CT",0.0,0.0
07G089,177 HALF MILE ROAD,EAST HAVEN,CT,6473.0,9.0,U,"177 HALF MILE ROAD,EAST HAVEN,CT",41.35976233841531,-72.82542617414929
07G090,65 SALMON BROOK ROAD,GRANBY,CT,6035.0,3.0,U,"65 SALMON BROOK ROAD,GRANBY,CT",41.9546665,-72.79235150288649
07G091,27 PLEASANT RD,ENFIELD,CT,6082.0,3.0,U,"27 PLEASANT RD,ENFIELD,CT",41.93746589981494,-72.60914110435944
07G092,2 OLD HAWLEYVILLE ROAD,NEWTOWN,CT,6470.0,1.0,U,"2 OLD HAWLEYVILLE ROAD,NEWTOWN,CT",41.4267861,-73.3560141
07G093,52 BROWN ST,BLOOMFIELD,CT,6002.0,3.0,U,"52 BROWN ST,BLOOMFIELD,CT",41.840072,-72.74588
07G094,P.O. BOX  872,SOUTHBURY,CT,6488.0,9.0,U,"P.O. BOX  872,SOUTHBURY,CT",0.0,0.0
07G095,85 ENGLEWOOD DRIVE,NEW HAVEN,CT,6515.0,9.0,U,"85 ENGLEWOOD DRIVE,NEW HAVEN,CT",41.326503398791985,-72.98288740538486
07G096,91 COLUMBIA BLVD,WATERBURY,CT,6710.0,9.0,U,"91 COLUMBIA BLVD,WATERBURY,CT",41.56772100449992,-73.04287492125998
07G097,ORAL SCHOOL ROAD,MYSTIC,CT,6355.0,11.0,U,"ORAL SCHOOL ROAD,MYSTIC,CT",0.0,0.0
07G098,7  VALLEY VIEW DRIVE,BROOKFIELD,CT,6804.0,1.0,U,"7  VALLEY VIEW DRIVE,BROOKFIELD,CT",41.237709,-80.554347
07G099,177 HALF MILE ROAD,EAST HAVEN,CT,6512.0,9.0,U,"177 HALF MILE ROAD,EAST HAVEN,CT",41.35976233841531,-72.82542617414929
07G100,195 ALVORD PARK ROAD,TORRINGTON,CT,6790.0,5.0,R,"195 ALVORD PARK ROAD,TORRINGTON,CT",41.821321616814146,-73.10243373872643
07G101,195 ALVORD PARK ROAD,TORRINGTON,CT,6790.0,5.0,R,"195 ALVORD PARK ROAD,TORRINGTON,CT",41.821321616814146,-73.10243373872643
07G102,22 CLAPBOARD RIDGE RD,DANBURY,CT,6810.0,1.0,U,"22 CLAPBOARD RIDGE RD,DANBURY,CT",41.4082165,-73.4680148
07G103,8 CARRIAGE DRIVE,BURLINGTON,CT,6013.0,3.0,U,"8 CARRIAGE DRIVE,BURLINGTON,CT",41.79863251467861,-72.99482916539338
07G104,POST OFFICE BOX 51,MANSFIELD DEPOT,CT,6251.0,13.0,U,"POST OFFICE BOX 51,MANSFIELD DEPOT,CT",0.0,0.0
07G105,22 NORTH PLEASANT DRIVE,BROOKFIELD,CT,6804.0,1.0,U,"22 NORTH PLEASANT DRIVE,BROOKFIELD,CT",0.0,0.0
07G106,P.O.BOX 51,MANSFIELD DEPOT,CT,6251.0,13.0,U,"P.O.BOX 51,MANSFIELD DEPOT,CT",0.0,0.0
07G107,49 TUNNEL RD,VERNON,CT,6066.0,13.0,U,"49 TUNNEL RD,VERNON,CT",41.83481764528454,-72.46779656517879
07G108,38 LITTLE HILLS ROAD,STAMFORD,CT,6906.0,1.0,U,"38 LITTLE HILLS ROAD,STAMFORD,CT",0.0,0.0
07G109,240 ORAL SCHOOL ROAD,MYSTIC,CT,6355.0,11.0,U,"240 ORAL SCHOOL ROAD,MYSTIC,CT",0.0,0.0
07G110,88 BURNHAM RD,WEST HARTFORD,CT,6110.0,3.0,U,"88 BURNHAM RD,WEST HARTFORD,CT",41.78878669708989,-72.85785580090524
07G111,139 HIGH STREET,COVENTRY,CT,6238.0,13.0,U,"139 HIGH STREET,COVENTRY,CT",41.763695817866726,-72.30223739204428
07G112,255 TRYON STREET,GLASTONBURY,CT,6033.0,3.0,U,"255 TRYON STREET,GLASTONBURY,CT",41.6316731,-72.6270105
07G113,200 BROOK ST,HAMDEN,CT,6514.0,9.0,U,"200 BROOK ST,HAMDEN,CT",41.355003,-72.944829
07G114,1 WINTERGREN AVE,NEW HAVEN,CT,6514.0,9.0,U,"1 WINTERGREN AVE,NEW HAVEN,CT",0.0,0.0
07G115,29 CREAMERY RD,CHESHIRE,CT,6410.0,9.0,U,"29 CREAMERY RD,CHESHIRE,CT",41.528720006977544,-72.89171943114123
07G116,21 CREAMERY RD,CHESHIRE,CT,6410.0,9.0,U,"21 CREAMERY RD,CHESHIRE,CT",41.52870160276778,-72.89139381819919
07G117,59 DUNN HILL RD,TOLLAND,CT,6084.0,13.0,U,"59 DUNN HILL RD,TOLLAND,CT",41.875913155780076,-72.3750031959878
07G118,123 SCRUB OAK,NORTH HAVEN,CT,6473.0,9.0,U,"123 SCRUB OAK,NORTH HAVEN,CT",0.0,0.0
07G119,1655 RIDGE ROAD,NORTH HAVEN,CT,6473.0,9.0,U,"1655 RIDGE ROAD,NORTH HAVEN,CT",41.382520862742304,-72.8912217314688
07G120,190 NORTH ST,TRUMBULL,CT,6611.0,1.0,U,"190 NORTH ST,TRUMBULL,CT",41.24875723526197,-73.15976477320234
07G121,PO BOX 51,MANSFIELD DEPOT,CT,6251.0,13.0,U,"PO BOX 51,MANSFIELD DEPOT,CT",41.8090222,-72.29371485714458
07G122,515 MAPLE HILL AVE,NEWINGTON,CT,6111.0,3.0,U,"515 MAPLE HILL AVE,NEWINGTON,CT",41.678054762095,-72.74222645089117
07G123,521 MAPLE HILL AVE,NEWINGTON,CT,6111.0,3.0,U,"521 MAPLE HILL AVE,NEWINGTON,CT",41.67791451727857,-72.7421975012731
07G124,1021 MAPLE ST,ROCKY HILL,CT,6067.0,3.0,U,"1021 MAPLE ST,ROCKY HILL,CT",41.668699744231816,-72.67209486564529
07G125,1069 MAPLE ST,ROCKY HILL,CT,6067.0,3.0,U,"1069 MAPLE ST,ROCKY HILL,CT",41.66942605547378,-72.67089002524818
07G126,180 OLYMPUS PKWY,MIDDLETOWN,CT,6457.0,7.0,U,"180 OLYMPUS PKWY,MIDDLETOWN,CT",41.554866048783296,-72.70117613016366
07G127,15 MARSHALL ST,ROCKY HILL,CT,6067.0,3.0,U,"15 MARSHALL ST,ROCKY HILL,CT",0.0,0.0
07G128,38 GREAT POND RD,SIMSBURY,CT,6070.0,3.0,U,"38 GREAT POND RD,SIMSBURY,CT",41.882237,-72.818507
07G129,P. O. BOX 872,SOUTHBURY,CT,6488.0,9.0,U,"P. O. BOX 872,SOUTHBURY,CT",0.0,0.0
07G130,8 BERTOLI DRIVE,LITCHFIELD,CT,6759.0,5.0,R,"8 BERTOLI DRIVE,LITCHFIELD,CT",41.76607074336898,-73.17711038593319
07G131,146 SILVERMINE AVENUE,NORWALK,CT,6850.0,1.0,U,"146 SILVERMINE AVENUE,NORWALK,CT",41.136368,-73.439617
07G132,50 TAOS DRIVE,DANIELSON,CT,6239.0,15.0,U,"50 TAOS DRIVE,DANIELSON,CT",0.0,0.0
07G133,411 WETHERELL ST,MANCHESTER,CT,6040.0,3.0,U,"411 WETHERELL ST,MANCHESTER,CT",41.758950497520466,-72.5574909376061
07G134,RT 44 PO BOX 51,MANSFIELD DEPOT,CT,6251.0,13.0,U,"RT 44 PO BOX 51,MANSFIELD DEPOT,CT",41.8096354,-72.29653578967485
07G135,52 TAOS DR,DANIELSON,CT,6239.0,15.0,U,"52 TAOS DR,DANIELSON,CT",0.0,0.0
07G136,505 MIDDLE TNPK,STORRS,CT,6268.0,13.0,U,"505 MIDDLE TNPK,STORRS,CT",0.0,0.0
07G137,751 NORTH RD,GROTON,CT,6340.0,11.0,U,"751 NORTH RD,GROTON,CT",41.368596,-72.026054
07G138,PO BOX 51,MANSFIELD DEPOT,CT,6251.0,13.0,U,"PO BOX 51,MANSFIELD DEPOT,CT",41.8090222,-72.29371485714458
07G139,977 UPPER MAPLE ST,DAYVILLE,CT,6241.0,15.0,U,"977 UPPER MAPLE ST,DAYVILLE,CT",41.84030979209524,-71.89580046359316
07G140,135 TWO STONE DRIVE,WETHERSFIELD,CT,6109.0,3.0,U,"135 TWO STONE DRIVE,WETHERSFIELD,CT",41.67655819274438,-72.66713613480086
07G141,490 AMITY ROAD,WOODBRIDGE,CT,6525.0,9.0,U,"490 AMITY ROAD,WOODBRIDGE,CT",41.3389325,-72.9805961
07G142,15 MAPLE ST,EAST HAVEN,CT,6512.0,9.0,U,"15 MAPLE ST,EAST HAVEN,CT",41.316686663451634,-72.84135143541631
07G143,56 COPPER MILL RD,WETHERSFIELD,CT,6109.0,3.0,U,"56 COPPER MILL RD,WETHERSFIELD,CT",0.0,0.0
07G144,8 POUND SWEET HILL,BETHEL,CT,6801.0,1.0,U,"8 POUND SWEET HILL,BETHEL,CT",41.3970466,-73.3906102
07G145,41 WEST STREET,NEWTOWN,CT,6470.0,1.0,U,"41 WEST STREET,NEWTOWN,CT",41.4091677,-73.3127822
07G146,156 LONG MEADOW HILL ROAD,BROOKFIELD,CT,6804.0,1.0,U,"156 LONG MEADOW HILL ROAD,BROOKFIELD,CT",41.5012766,-73.4007893
07G147,27 RIDGE ROAD,NEWTOWN,CT,6470.0,1.0,U,"27 RIDGE ROAD,NEWTOWN,CT",41.4010154,-73.3095953
07G148,8 WHIPPOORWILL RD,BETHEL,CT,6801.0,1.0,U,"8 WHIPPOORWILL RD,BETHEL,CT",41.3680229,-73.3969781
07G149,26 JANET DRIVE,NORTH HAVEN,CT,6473.0,9.0,U,"26 JANET DRIVE,NORTH HAVEN,CT",41.37640556367066,-72.8899291083967
07G150,11 WEST MEATH LN,UNIONVILLE,CT,6085.0,3.0,U,"11 WEST MEATH LN,UNIONVILLE,CT",0.0,0.0
07G151,225 DUNCASTER ROAD,BLOOMFIELD,CT,6002.0,3.0,U,"225 DUNCASTER ROAD,BLOOMFIELD,CT",41.88148534992893,-72.75661887086291
07G152,723 PLAINVILLE AVE,FARMINGTON,CT,6032.0,3.0,U,"723 PLAINVILLE AVE,FARMINGTON,CT",41.715126996546694,-72.88171855462899
07G153,24 EVANS DRIVE,SIMSBURY,CT,6070.0,3.0,U,"24 EVANS DRIVE,SIMSBURY,CT",41.8201976,-72.8469608
07G154,67/69/73/75 MOUNTAIN RD.,NEWINGTON,CT,6111.0,3.0,U,"67/69/73/75 MOUNTAIN RD.,NEWINGTON,CT",41.7005867457818,-72.71482070806455
07G155,1 AVON STREET,ENFIELD,CT,6082.0,3.0,U,"1 AVON STREET,ENFIELD,CT",41.986801,-72.549894
07G156,40 CLIFFORD ST,HARTFORD,CT,6114.0,3.0,U,"40 CLIFFORD ST,HARTFORD,CT",41.74019600589413,-72.68541816398645
07G157,71 MOUNTAIN ROAD,NEWINGTON,CT,6111.0,3.0,U,"71 MOUNTAIN ROAD,NEWINGTON,CT",41.7014888,-72.7156503
07G158,81/83 MOUNTAIN ROAD,NEWINGTON,CT,6111.0,3.0,U,"81/83 MOUNTAIN ROAD,NEWINGTON,CT",41.71719,-72.7161806
07G159,1 JUNIPER DRIVE,GRANBY,CT,6035.0,3.0,U,"1 JUNIPER DRIVE,GRANBY,CT",41.970913,-72.819182
07G160,25 NORTH CHURCH ST,GRANBY,CT,6035.0,3.0,U,"25 NORTH CHURCH ST,GRANBY,CT",41.941299874296284,-72.72503077402337
07G161,765 PROSPECT STREET,WETHERSFIELD,CT,6109.0,3.0,U,"765 PROSPECT STREET,WETHERSFIELD,CT",41.68843200346879,-72.6931532992014
07G162,151 HILLSIDE AVE,HARTFORD,CT,6106.0,3.0,U,"151 HILLSIDE AVE,HARTFORD,CT",41.748539182138956,-72.69818410216276
07G163,3 ERICA LANE,WOLCOTT,CT,6716.0,9.0,U,"3 ERICA LANE,WOLCOTT,CT",41.63785419991994,-72.95055669999931
07G164,240 ORAL SCHOOL RD,MYSTIC,CT,6355.0,11.0,U,"240 ORAL SCHOOL RD,MYSTIC,CT",0.0,0.0
07G165,54 LANESVILLE ROAD,NEW MILFORD,CT,6776.0,5.0,R,"54 LANESVILLE ROAD,NEW MILFORD,CT",41.537714,-73.4166044
07G166,240 ORAL SCHOOL RD,MYSTIC,CT,6355.0,11.0,U,"240 ORAL SCHOOL RD,MYSTIC,CT",0.0,0.0
07G167,7 LYDA DRIVE,MILFORD,CT,6460.0,9.0,U,"7 LYDA DRIVE,MILFORD,CT",41.23626165555656,-73.00684954390462
07G168,23 WILDWOOD TERRACE,WEST HAVEN,CT,6516.0,9.0,U,"23 WILDWOOD TERRACE,WEST HAVEN,CT",41.264628088910136,-72.96685269916533
07G169,52 MOHAWK ROAD,BRISTOL,CT,6010.0,3.0,U,"52 MOHAWK ROAD,BRISTOL,CT",41.643924462204204,-72.95966498326518
07G170,210 HAYES ROAD,ROCKY HILL,CT,6067.0,3.0,U,"210 HAYES ROAD,ROCKY HILL,CT",41.66604062862503,-72.68711432823547
07G171,"48 LAKESIDE BLVD, EAST",WATERBURY,CT,6708.0,9.0,U,"48 LAKESIDE BLVD, EAST,WATERBURY,CT",0.0,0.0
07G172,148 HIGHVIEW ST,WATERBURY,CT,6708.0,9.0,U,"148 HIGHVIEW ST,WATERBURY,CT",41.5258291,-73.0485805
07G173,240 ORAL SCHOOL RD,MYSTIC,CT,6355.0,11.0,U,"240 ORAL SCHOOL RD,MYSTIC,CT",0.0,0.0
07G174,27 MAPLE AVENUE,BETHEL,CT,6801.0,1.0,U,"27 MAPLE AVENUE,BETHEL,CT",41.37489339397829,-73.40624520975943
07G175,6 MOUNTAINVILLE RD,DANBURY,CT,6810.0,1.0,U,"6 MOUNTAINVILLE RD,DANBURY,CT",41.3804736,-73.444673
07G176,40 SHORE ROAD,WATERFORD,CT,6385.0,11.0,U,"40 SHORE ROAD,WATERFORD,CT",41.303875,-72.133048
07G177,7 YANKEE DR,SOUTHBURY,CT,6488.0,9.0,U,"7 YANKEE DR,SOUTHBURY,CT",41.488016258292184,-73.26311773770072
07G178,87 MOUNTAIN RD.,NEWINGTON,CT,6111.0,3.0,U,"87 MOUNTAIN RD.,NEWINGTON,CT",41.71719,-72.7161806
07G179,2 DEER HILL ROAD,DANBURY,CT,6810.0,1.0,U,"2 DEER HILL ROAD,DANBURY,CT",0.0,0.0
07G180,318 MOUNTAIN RD,NEWINGTON,CT,6111.0,3.0,U,"318 MOUNTAIN RD,NEWINGTON,CT",41.709991,-72.714541
07G181,P O  BOX 872,SOUTHBURY,CT,6488.0,9.0,U,"P O  BOX 872,SOUTHBURY,CT",0.0,0.0
07G182,P. O. BOX 872,SOUTHBURY,CT,6488.0,9.0,U,"P. O. BOX 872,SOUTHBURY,CT",0.0,0.0
07G183,P. O. BOX 872,SOUTHBURY,CT,6488.0,9.0,U,"P. O. BOX 872,SOUTHBURY,CT",0.0,0.0
07G184,45 RITCH DRIVE,RIDGEFIELD,CT,6877.0,1.0,U,"45 RITCH DRIVE,RIDGEFIELD,CT",41.311643099403234,-73.47992536646774
07G185,12 SAWMILL ROAD,NEW FAIRFIELD,CT,6812.0,1.0,U,"12 SAWMILL ROAD,NEW FAIRFIELD,CT",41.5764884,-73.4945422
07G186,26 DORSET LANE,BROOKFIELD,CT,6804.0,1.0,U,"26 DORSET LANE,BROOKFIELD,CT",41.4764021,-73.3718673
07G187,5 SQUIRE COURT,BROOKFIELD,CT,6804.0,1.0,U,"5 SQUIRE COURT,BROOKFIELD,CT",41.4385008,-73.3822772
07G188,36 SWEETCAKE MOUNTAIN ROAD,NEW FAIRFIELD,CT,6812.0,1.0,U,"36 SWEETCAKE MOUNTAIN ROAD,NEW FAIRFIELD,CT",41.474225741467734,-73.46821813310599
07G189,14 GREENVIEW ROAD,NEW MILFORD,CT,6776.0,5.0,R,"14 GREENVIEW ROAD,NEW MILFORD,CT",41.51434470709116,-73.39418228814226
07G190,55 HAZELWOOD LN,STAMFORD,CT,6905.0,1.0,U,"55 HAZELWOOD LN,STAMFORD,CT",41.0886052,-73.5443045
07G191,90 FARMINGTON AVE,PLAINVILLE,CT,6062.0,3.0,U,"90 FARMINGTON AVE,PLAINVILLE,CT",41.67952370174409,-72.85582603391545
07G192,20 CORTINA RD,EAST HAVEN,CT,6512.0,9.0,U,"20 CORTINA RD,EAST HAVEN,CT",41.338633043279486,-72.83687038553157
07G193,225 TRYON ST,S GLASTONBURY,CT,6073.0,3.0,U,"225 TRYON ST,S GLASTONBURY,CT",41.6499212,-72.6204406
07G194,1 BRUNS ROAD,ANSONIA,CT,6401.0,9.0,U,"1 BRUNS ROAD,ANSONIA,CT",41.335011,-73.063142
07G195,34 CLOVERDALE AVE,HUNTINGTON,CT,6484.0,1.0,U,"34 CLOVERDALE AVE,HUNTINGTON,CT",41.293128909621764,-73.15494604467932
07G196,103 PROSPECT STREET,WATERTOWN,CT,6795.0,5.0,R,"103 PROSPECT STREET,WATERTOWN,CT",41.59703630250939,-73.12142034317938
07G197,7 GEORGE STREET,MIDDLEBURY,CT,6762.0,9.0,U,"7 GEORGE STREET,MIDDLEBURY,CT",41.53029242846623,-73.09265609796584
07G198,55 PISGAH RD,OXFORD,CT,6478.0,9.0,U,"55 PISGAH RD,OXFORD,CT",0.0,0.0
07G199,544 MOOSE HILL ROAD,MONROE,CT,6468.0,1.0,U,"544 MOOSE HILL ROAD,MONROE,CT",41.32504309687066,-73.2057929454385
07G200,1 VICTORIA ST,TORRINGTON,CT,6790.0,5.0,R,"1 VICTORIA ST,TORRINGTON,CT",41.81903,-73.117302
07G201,92 ROYAL OAK ROAD,NEW BRITAIN,CT,6053.0,3.0,U,"92 ROYAL OAK ROAD,NEW BRITAIN,CT",41.69667286003272,-72.8046828898536
07G202,SAGEWAY DR,TORRINGTON,CT,6790.0,5.0,R,"SAGEWAY DR,TORRINGTON,CT",41.8403919,-73.0849756
07G203,330 UPPER VALLEY RD,TORRINGTON,CT,6790.0,5.0,R,"330 UPPER VALLEY RD,TORRINGTON,CT",41.85653422540237,-73.07617382058203
07G204,350 LYDALE PLACE,MERIDEN,CT,6450.0,9.0,U,"350 LYDALE PLACE,MERIDEN,CT",41.5235765457484,-72.78782711300792
07G205,18 BELLEVIEW DRIVE,DERBY,CT,6418.0,9.0,U,"18 BELLEVIEW DRIVE,DERBY,CT",41.318563931174666,-73.04785081748207
07G206,470 STEVENSON ROAD,NEW HAVEN,CT,6511.0,9.0,U,"470 STEVENSON ROAD,NEW HAVEN,CT",41.31597710253106,-72.9763815884705
07G207,11 ORIENT LANE,NORTH HAVEN,CT,6473.0,9.0,U,"11 ORIENT LANE,NORTH HAVEN,CT",41.35938056220657,-72.85441167226774
07G208,542 NORTH HIGH ST,EAST HAVEN,CT,6512.0,9.0,U,"542 NORTH HIGH ST,EAST HAVEN,CT",41.29568582759389,-72.86482962319342
07G209,6 MOUNTAINVILLE ROAD,DANBURY,CT,6810.0,1.0,U,"6 MOUNTAINVILLE ROAD,DANBURY,CT",41.3804736,-73.444673
07G210,15 CROSS RIDGE DRIVE,OLD GREENWICH,CT,6870.0,1.0,U,"15 CROSS RIDGE DRIVE,OLD GREENWICH,CT",41.0572511,-73.5720406
07G211,395 CHURCH STREET,NEWINGTON,CT,6111.0,3.0,U,"395 CHURCH STREET,NEWINGTON,CT",41.660731478046046,-72.7397725516592
07G212,300 SPRING STREET,MANCHESTER,CT,6040.0,3.0,U,"300 SPRING STREET,MANCHESTER,CT",41.75952062747477,-72.50586778945632
07G213,P. O. BOX 872,SOUTHBURY,CT,6488.0,9.0,U,"P. O. BOX 872,SOUTHBURY,CT",0.0,0.0
07G214,P O  BOX 872,SOUTHBURY,CT,6488.0,9.0,U,"P O  BOX 872,SOUTHBURY,CT",0.0,0.0
07G215,P.O. BOX 872,SOUTHBURY,CT,6488.0,9.0,U,"P.O. BOX 872,SOUTHBURY,CT",0.0,0.0
07G216,35 UNDERCLIFF ROAD,MERIDEN,CT,6450.0,9.0,U,"35 UNDERCLIFF ROAD,MERIDEN,CT",41.55105745397994,-72.81633130294455
07G217,P. O. BOX 872,SOUTHBURY,CT,6488.0,9.0,U,"P. O. BOX 872,SOUTHBURY,CT",0.0,0.0
07G218,4 DANIELLE COURT,DERBY,CT,6418.0,9.0,U,"4 DANIELLE COURT,DERBY,CT",41.309976,-73.067586
07G219,35 UNDERCLIFF ROAD,MERIDEN,CT,6450.0,9.0,U,"35 UNDERCLIFF ROAD,MERIDEN,CT",41.55105745397994,-72.81633130294455
07G220,P.O. BOX 872,SOUTHBURY,CT,6488.0,9.0,U,"P.O. BOX 872,SOUTHBURY,CT",0.0,0.0
07G221,P. O. BOX 872,SOUTHBURY,CT,6488.0,9.0,U,"P. O. BOX 872,SOUTHBURY,CT",0.0,0.0
07G222,P O BOX 872,SOUTHBURY,CT,6488.0,9.0,U,"P O BOX 872,SOUTHBURY,CT",0.0,0.0
07G223,P. O. BOX 872,SOUTHBURY,CT,6488.0,9.0,U,"P. O. BOX 872,SOUTHBURY,CT",0.0,0.0
07G224,28 COLONY COURT,SOUTHBURY,CT,6488.0,9.0,U,"28 COLONY COURT,SOUTHBURY,CT",0.0,0.0
07G225,P. O. BOX 872,SOUTHBURY,CT,6488.0,9.0,U,"P. O. BOX 872,SOUTHBURY,CT",0.0,0.0
07G226,P.O. BOX 872,SOUTHBURY,CT,6488.0,9.0,U,"P.O. BOX 872,SOUTHBURY,CT",0.0,0.0
07G227,PIERCE HOLLOW ROAD,SOUTHBURY,CT,6488.0,9.0,U,"PIERCE HOLLOW ROAD,SOUTHBURY,CT",0.0,0.0
07G228,P. O. BOX 872,SOUTHBURY,CT,6488.0,9.0,U,"P. O. BOX 872,SOUTHBURY,CT",0.0,0.0
07G229,P O BOX 872,SOUTHBURY,CT,6488.0,9.0,U,"P O BOX 872,SOUTHBURY,CT",0.0,0.0
07G230,P.O. BOX 872,SOUTHBURY,CT,6488.0,9.0,U,"P.O. BOX 872,SOUTHBURY,CT",0.0,0.0
07G231,P.O. BOX 872,SOUTHBURY,CT,6488.0,9.0,U,"P.O. BOX 872,SOUTHBURY,CT",0.0,0.0
07G232,P O BOX 872,SOUTHBURY,CT,6488.0,9.0,U,"P O BOX 872,SOUTHBURY,CT",0.0,0.0
07G233,P O BOX 872,SOUTHBURY,CT,6488.0,9.0,U,"P O BOX 872,SOUTHBURY,CT",0.0,0.0
07G234,P O BOX 872,SOUTHBURY,CT,6488.0,9.0,U,"P O BOX 872,SOUTHBURY,CT",0.0,0.0
07G235,P O BOX 872,SOUTHBURY,CT,6488.0,9.0,U,"P O BOX 872,SOUTHBURY,CT",0.0,0.0
07G236,P. O. BOX 872,SOUTHBURY,CT,6488.0,9.0,U,"P. O. BOX 872,SOUTHBURY,CT",0.0,0.0
07G237,P O BOX 872,SOUTHBURY,CT,6488.0,9.0,U,"P O BOX 872,SOUTHBURY,CT",0.0,0.0
07G238,P O BOX 872,SOUTHBURY,CT,6488.0,9.0,U,"P O BOX 872,SOUTHBURY,CT",0.0,0.0
07G239,P. O. BOX 872,SOUTHBURY,CT,6488.0,9.0,U,"P. O. BOX 872,SOUTHBURY,CT",0.0,0.0
07G240,P. O. BOX 872,SOUTHBURY,CT,6488.0,9.0,U,"P. O. BOX 872,SOUTHBURY,CT",0.0,0.0
07G241,P. O. BOX 872,SOUTHBURY,CT,6488.0,9.0,U,"P. O. BOX 872,SOUTHBURY,CT",0.0,0.0
07G242,P O BOX 872,SOUTHBURY,CT,6488.0,15.0,U,"P O BOX 872,SOUTHBURY,CT",0.0,0.0
07G243,18 CONSTITUTION HILL,SOUTHBURY,CT,6488.0,9.0,U,"18 CONSTITUTION HILL,SOUTHBURY,CT",0.0,0.0
07G244,P O BOX 872,SOUTHBURY,CT,6488.0,9.0,U,"P O BOX 872,SOUTHBURY,CT",0.0,0.0
07G245,240 ORAL SCHOOL ROAD,MYSTIC,CT,6355.0,11.0,U,"240 ORAL SCHOOL ROAD,MYSTIC,CT",0.0,0.0
07G246,P. O. BOX 872,SOUTHBURY,CT,6488.0,9.0,U,"P. O. BOX 872,SOUTHBURY,CT",0.0,0.0
07G247,PO BOX 872,SOUTHBURY,CT,6488.0,9.0,U,"PO BOX 872,SOUTHBURY,CT",0.0,0.0
07G248,116 EDWARD AVENUE,TORRINGTON,CT,6790.0,5.0,R,"116 EDWARD AVENUE,TORRINGTON,CT",41.8145133,-73.1147957
07G249,116 SPENCER HILL ROAD,WINSTED,CT,6098.0,5.0,R,"116 SPENCER HILL ROAD,WINSTED,CT",41.94205267576792,-73.07223984621477
07G250,25 HONEY HILL,CANAAN,CT,6018.0,5.0,R,"25 HONEY HILL,CANAAN,CT",0.0,0.0
07G251,120 BOYD STREET,WINSTED,CT,6098.0,5.0,R,"120 BOYD STREET,WINSTED,CT",41.92585524638732,-73.08282666202578
07G252,68 GENOA STREET,WATERBURY,CT,6708.0,9.0,U,"68 GENOA STREET,WATERBURY,CT",0.0,0.0
07G253,5 HARBOR PKWY,CLINTON,CT,6413.0,7.0,U,"5 HARBOR PKWY,CLINTON,CT",41.2727488,-72.5333743
07L001,528 WHEELERS FARMS ROAD,MILFORD,CT,6460.0,9.0,U,"528 WHEELERS FARMS ROAD,MILFORD,CT",0.0,0.0
07L002,1400 WHITNEY AVENUE,HAMDEN,CT,6517.0,9.0,U,"1400 WHITNEY AVENUE,HAMDEN,CT",41.35061684316865,-72.91332862504365
07L003,370 LINWOOD STREET,NEW BRITAIN,CT,6052.0,3.0,U,"370 LINWOOD STREET,NEW BRITAIN,CT",41.652362,-72.787978
07L004,915 RIVER ROAD,MIDDLETOWN,CT,6457.0,7.0,U,"915 RIVER ROAD,MIDDLETOWN,CT",41.5571777,-72.61401982820615
07L005,1680 ALBANY AVENUE,HARTFORD,CT,6105.0,3.0,U,"1680 ALBANY AVENUE,HARTFORD,CT",41.787032100000005,-72.71116664993288
07L006,36 GARDNER STREET,EAST WINDSOR,CT,6088.0,3.0,U,"36 GARDNER STREET,EAST WINDSOR,CT",41.932249753153755,-72.61520021812818
07P001,"340 WEST NEWBERRY ROAD, SUITE A",BLOOMFIELD,CT,6002.0,3.0,U,"340 WEST NEWBERRY ROAD, SUITE A,BLOOMFIELD,CT",0.0,0.0
07X0009802,63 CAMP ST,NEW BRITAIN,CT,6051.0,3.0,U,"63 CAMP ST,NEW BRITAIN,CT",41.661986231471985,-72.78481601147635
07X0009806,2 HOSPITAL AVE,DANBURY,CT,6810.0,1.0,U,"2 HOSPITAL AVE,DANBURY,CT",41.4097893,-73.4384482
07X0009809,49 JOHN STREET,SOUTHPORT,CT,6490.0,1.0,U,"49 JOHN STREET,SOUTHPORT,CT",41.13749295524503,-73.2864360725681
07X0009810,440 SMITH ST,MIDDLETOWN,CT,6457.0,7.0,U,"440 SMITH ST,MIDDLETOWN,CT",41.58425326185205,-72.71976511650739
07X0009811,2 CHURCH ST SO,NEW HAVEN,CT,6519.0,9.0,U,"2 CHURCH ST SO,NEW HAVEN,CT",0.0,0.0
07X0009812,60 GILLET ST,HARTFORD,CT,6105.0,3.0,U,"60 GILLET ST,HARTFORD,CT",0.0,0.0
07X0009813,P O BOX 71,NORWICH,CT,6360.0,11.0,U,"P O BOX 71,NORWICH,CT",52.641315500000005,1.290305511571936
07X0009816,67 SAND PIT ROAD,DANBURY,CT,6810.0,1.0,U,"67 SAND PIT ROAD,DANBURY,CT",41.41398,-73.432794
07X0009817,148 EAST AVE,NORWALK,CT,6857.0,1.0,U,"148 EAST AVE,NORWALK,CT",41.1100517,-73.4093694
07X0009818,381 HOPMEADOW STREET,SIMSBURY,CT,6089.0,3.0,U,"381 HOPMEADOW STREET,SIMSBURY,CT",41.8497845,-72.812844175
07X0009819,12 CASE ST,NORWICH,CT,6360.0,11.0,U,"12 CASE ST,NORWICH,CT",41.55358599205895,-72.10350291063166
07X0009820,2660 MAIN STREET,BRIDGEPORT,CT,6606.0,1.0,U,"2660 MAIN STREET,BRIDGEPORT,CT",41.1989774,-73.20152842678412
07X0009821,199 STONELEDGE RD,HUNTINGTON,CT,6484.0,1.0,U,"199 STONELEDGE RD,HUNTINGTON,CT",0.0,0.0
07X0009822,105 CLARK DRIVE,ROCKY HILL,CT,6067.0,3.0,U,"105 CLARK DRIVE,ROCKY HILL,CT",0.0,0.0
07X0009823,"460 SMITH STREET, SUITE A",MIDDLETOWN,CT,6457.0,7.0,U,"460 SMITH STREET, SUITE A,MIDDLETOWN,CT",0.0,0.0
07X0009824,415 MIDDLEBURY ROAD,MIDDLEBURY,CT,6762.0,9.0,U,"415 MIDDLEBURY ROAD,MIDDLEBURY,CT",41.53748415356876,-73.10251896333239
07X0009825,534 R TOLLAND STREET,EAST HARTFORD,CT,6108.0,9.0,U,"534 R TOLLAND STREET,EAST HARTFORD,CT",41.782329439519984,-72.61167032377429
07X0009826,655 TALCOTTVILLE ROAD,VERNON,CT,6066.0,15.0,U,"655 TALCOTTVILLE ROAD,VERNON,CT",41.856524,-72.484618
07X0009827,49 LEAVENWORTH STREET,WATERBURY,CT,6702.0,15.0,U,"49 LEAVENWORTH STREET,WATERBURY,CT",41.5547295,-73.0423550711701
07X0009828,249 WEST MAIN STREET,BRANFORD,CT,6405.0,9.0,U,"249 WEST MAIN STREET,BRANFORD,CT",41.277657070771085,-72.85586887250712
07X0009829,75 NEW HAVEN AVENUE,MILFORD,CT,6460.0,9.0,U,"75 NEW HAVEN AVENUE,MILFORD,CT",41.22304751404257,-73.05387079617161
07X0009830,"1 GROVE STREET, STE 105",NEW BRITAIN,CT,6053.0,3.0,U,"1 GROVE STREET, STE 105,NEW BRITAIN,CT",41.669995,-72.786729
07X0009831,"1011 HOPE STREET, OFFICE E",STAMFORD,CT,6907.0,1.0,U,"1011 HOPE STREET, OFFICE E,STAMFORD,CT",41.0935628,-73.5174284
